{"type":"FeatureCollection", "features": [
{"type":"Feature","geometry":{"type":"Polygon","coordinates":[[[-118.23485,33.85811],[-118.235,33.85987],[-118.23508,33.86077],[-118.23509,33.86098],[-118.23547,33.86411],[-118.23563,33.86665],[-118.23564,33.86721],[-118.23564,33.8673],[-118.23565,33.8679],[-118.23675,33.8679],[-118.23722,33.86789],[-118.23785,33.86787],[-118.23889,33.86783],[-118.2411,33.86777],[-118.24197,33.86775],[-118.24217,33.86775],[-118.24249,33.86775],[-118.24257,33.86954],[-118.24867,33.86937],[-118.24869,33.86937],[-118.24869,33.87004],[-118.24869,33.87016],[-118.2487,33.87101],[-118.24871,33.8728],[-118.24871,33.87297],[-118.24871,33.87331],[-118.24871,33.87352],[-118.24871,33.87387],[-118.24871,33.87399],[-118.24872,33.87499],[-118.24872,33.87555],[-118.24874,33.87954],[-118.24786,33.87957],[-118.24784,33.88044],[-118.24875,33.88042],[-118.24875,33.88156],[-118.24875,33.88158],[-118.25374,33.88156],[-118.25374,33.88153],[-118.25371,33.88139],[-118.25367,33.88125],[-118.25364,33.88111],[-118.25361,33.88098],[-118.25357,33.8808],[-118.25355,33.88072],[-118.25352,33.88061],[-118.25344,33.88029],[-118.25344,33.88026],[-118.25382,33.88025],[-118.25386,33.88025],[-118.25414,33.88024],[-118.25434,33.88024],[-118.25452,33.88023],[-118.25471,33.88023],[-118.25489,33.88022],[-118.25507,33.88022],[-118.25526,33.88021],[-118.25544,33.8802],[-118.25562,33.8802],[-118.25581,33.88019],[-118.25599,33.88019],[-118.25617,33.88018],[-118.25636,33.88018],[-118.25654,33.88017],[-118.25672,33.88017],[-118.2569,33.88016],[-118.25709,33.88016],[-118.25727,33.88015],[-118.25743,33.88015],[-118.25745,33.88015],[-118.25764,33.88014],[-118.25782,33.88013],[-118.258,33.88013],[-118.25817,33.88012],[-118.25849,33.88012],[-118.25862,33.88011],[-118.25906,33.8801],[-118.2595,33.88009],[-118.25992,33.88007],[-118.26034,33.88006],[-118.26076,33.88005],[-118.2608,33.88005],[-118.26117,33.88004],[-118.26126,33.88003],[-118.26128,33.88012],[-118.26131,33.88024],[-118.26134,33.88039],[-118.26138,33.88054],[-118.26142,33.88072],[-118.26149,33.88094],[-118.26149,33.88096],[-118.26131,33.88111],[-118.26114,33.88125],[-118.261,33.88137],[-118.26087,33.88147],[-118.26084,33.88149],[-118.26076,33.88157],[-118.26074,33.88158],[-118.26061,33.88168],[-118.26048,33.88179],[-118.26035,33.8819],[-118.26023,33.882],[-118.2601,33.88211],[-118.25997,33.88221],[-118.25983,33.88233],[-118.25965,33.88248],[-118.25963,33.8825],[-118.25933,33.88274],[-118.2593,33.88276],[-118.25925,33.88281],[-118.25913,33.8829],[-118.259,33.88301],[-118.25879,33.88318],[-118.25867,33.88328],[-118.25855,33.88338],[-118.25844,33.88347],[-118.25832,33.88357],[-118.2582,33.88367],[-118.25808,33.88376],[-118.25797,33.88386],[-118.25781,33.88399],[-118.25723,33.88401],[-118.25695,33.88401],[-118.257,33.88421],[-118.25703,33.88434],[-118.25705,33.88441],[-118.25707,33.88448],[-118.25709,33.88458],[-118.2571,33.88461],[-118.25713,33.88475],[-118.25715,33.88484],[-118.25716,33.88488],[-118.25719,33.88502],[-118.25722,33.88515],[-118.25726,33.88529],[-118.25729,33.88544],[-118.25732,33.88556],[-118.25733,33.88558],[-118.25735,33.88569],[-118.25736,33.88573],[-118.25738,33.88583],[-118.25742,33.88597],[-118.25744,33.88606],[-118.25749,33.88628],[-118.25765,33.88627],[-118.25854,33.88624],[-118.25948,33.88621],[-118.25939,33.88574],[-118.25939,33.88573],[-118.25966,33.88568],[-118.25978,33.88566],[-118.25992,33.88563],[-118.25989,33.88552],[-118.25987,33.8854],[-118.25986,33.88538],[-118.25984,33.88529],[-118.2602,33.88528],[-118.26029,33.88528],[-118.26056,33.88527],[-118.26074,33.88526],[-118.2612,33.88525],[-118.26139,33.88602],[-118.26137,33.88616],[-118.2653,33.88602],[-118.26535,33.88602],[-118.26735,33.88595],[-118.26811,33.88593],[-118.27078,33.88584],[-118.27086,33.88583],[-118.27186,33.8858],[-118.27379,33.88573],[-118.27535,33.88567],[-118.27592,33.88565],[-118.27713,33.88563],[-118.27837,33.88559],[-118.2796,33.88556],[-118.28013,33.88554],[-118.28064,33.88553],[-118.28233,33.88549],[-118.28275,33.88547],[-118.28271,33.88443],[-118.28264,33.88276],[-118.2826,33.88186],[-118.28257,33.88101],[-118.2825,33.87939],[-118.2825,33.87928],[-118.28246,33.8784],[-118.28241,33.87755],[-118.28239,33.87698],[-118.28235,33.87594],[-118.28232,33.8752],[-118.28232,33.87499],[-118.2823,33.87457],[-118.28227,33.87418],[-118.28224,33.87402],[-118.28221,33.87297],[-118.28195,33.87306],[-118.28193,33.873],[-118.28188,33.87284],[-118.28183,33.87267],[-118.2818,33.87255],[-118.28177,33.87247],[-118.28172,33.87231],[-118.2817,33.87223],[-118.28169,33.87217],[-118.28167,33.87202],[-118.28166,33.87188],[-118.28166,33.87177],[-118.28166,33.87148],[-118.28166,33.87121],[-118.28166,33.87106],[-118.28163,33.87032],[-118.28158,33.86769],[-118.28157,33.8663],[-118.28156,33.86533],[-118.28155,33.86405],[-118.28155,33.86297],[-118.28155,33.86282],[-118.28157,33.86281],[-118.28322,33.86213],[-118.28345,33.86203],[-118.28368,33.86193],[-118.2838,33.86188],[-118.28438,33.86162],[-118.28448,33.86158],[-118.2848,33.86144],[-118.28474,33.8611],[-118.2846,33.86004],[-118.28457,33.85984],[-118.2845,33.85928],[-118.28449,33.85914],[-118.28449,33.85896],[-118.2845,33.85867],[-118.28451,33.85853],[-118.28453,33.85815],[-118.28455,33.8579],[-118.2846,33.85744],[-118.2846,33.8573],[-118.28461,33.85712],[-118.28462,33.85698],[-118.28463,33.85676],[-118.28455,33.8567],[-118.28438,33.85658],[-118.28396,33.85628],[-118.28377,33.85613],[-118.28367,33.85605],[-118.28357,33.85596],[-118.2833,33.85568],[-118.28327,33.85565],[-118.28307,33.85546],[-118.28295,33.85533],[-118.28218,33.85473],[-118.28202,33.85457],[-118.28186,33.85441],[-118.28103,33.85367],[-118.28065,33.85331],[-118.28035,33.85306],[-118.28039,33.85288],[-118.28042,33.85272],[-118.28042,33.85268],[-118.28043,33.85262],[-118.28046,33.85239],[-118.28047,33.85223],[-118.28047,33.85203],[-118.28047,33.85196],[-118.28047,33.85184],[-118.28046,33.85141],[-118.28044,33.85115],[-118.28041,33.85084],[-118.28039,33.85046],[-118.28038,33.85029],[-118.28029,33.84865],[-118.28019,33.84686],[-118.28014,33.84619],[-118.28007,33.84495],[-118.28007,33.84487],[-118.28006,33.84473],[-118.28006,33.84465],[-118.28005,33.84455],[-118.27999,33.84455],[-118.27987,33.84453],[-118.27986,33.84459],[-118.27981,33.84464],[-118.27963,33.84463],[-118.27948,33.84462],[-118.2794,33.84462],[-118.27934,33.8446],[-118.27925,33.8446],[-118.27912,33.84458],[-118.27907,33.84458],[-118.27898,33.84458],[-118.27858,33.84457],[-118.27839,33.84457],[-118.27763,33.84456],[-118.27746,33.84456],[-118.27724,33.84456],[-118.2772,33.84456],[-118.27719,33.84455],[-118.27717,33.84455],[-118.27713,33.84454],[-118.27711,33.84453],[-118.27705,33.8445],[-118.27704,33.84449],[-118.27701,33.84447],[-118.277,33.84446],[-118.277,33.84444],[-118.27699,33.8444],[-118.27698,33.84436],[-118.27697,33.84433],[-118.27697,33.84432],[-118.27696,33.84431],[-118.27696,33.84429],[-118.27695,33.84426],[-118.27693,33.84424],[-118.27693,33.84422],[-118.27691,33.84418],[-118.27688,33.84412],[-118.27683,33.84398],[-118.27676,33.84381],[-118.2767,33.84366],[-118.27669,33.84362],[-118.27664,33.84357],[-118.27664,33.84356],[-118.27664,33.84354],[-118.27664,33.84351],[-118.27663,33.84351],[-118.27662,33.84347],[-118.27658,33.84339],[-118.27656,33.84333],[-118.27653,33.84327],[-118.27652,33.84324],[-118.27651,33.84323],[-118.2765,33.84321],[-118.2765,33.8432],[-118.27649,33.84318],[-118.27647,33.8431],[-118.27645,33.84308],[-118.27641,33.84299],[-118.27633,33.84277],[-118.27632,33.84273],[-118.27631,33.84272],[-118.27621,33.84247],[-118.2762,33.84244],[-118.27607,33.84211],[-118.27606,33.84209],[-118.27606,33.84208],[-118.27597,33.84184],[-118.27595,33.84181],[-118.27595,33.84179],[-118.27594,33.84178],[-118.27594,33.84177],[-118.2759,33.84168],[-118.27589,33.84165],[-118.27588,33.84162],[-118.27587,33.84158],[-118.27585,33.84155],[-118.27581,33.84146],[-118.2758,33.84144],[-118.27579,33.84143],[-118.27579,33.8414],[-118.27577,33.84138],[-118.27576,33.84136],[-118.27575,33.84133],[-118.2757,33.84122],[-118.27567,33.84117],[-118.27565,33.84113],[-118.27562,33.8411],[-118.2756,33.84105],[-118.27556,33.84101],[-118.27548,33.8409],[-118.27543,33.84083],[-118.2754,33.84079],[-118.27533,33.8407],[-118.27546,33.84068],[-118.27551,33.84068],[-118.27543,33.84058],[-118.27541,33.84056],[-118.27541,33.84055],[-118.27527,33.8404],[-118.27514,33.84025],[-118.27501,33.8401],[-118.27488,33.83995],[-118.27487,33.83994],[-118.27486,33.83993],[-118.27481,33.83986],[-118.27477,33.83982],[-118.2745,33.83951],[-118.27436,33.83934],[-118.27434,33.83933],[-118.27434,33.83932],[-118.27433,33.83932],[-118.27433,33.83931],[-118.27426,33.83923],[-118.27396,33.8393],[-118.27252,33.83931],[-118.27252,33.83917],[-118.27252,33.83889],[-118.27249,33.83889],[-118.27239,33.83889],[-118.27239,33.8388],[-118.27239,33.83774],[-118.27239,33.83738],[-118.27238,33.83607],[-118.27238,33.83539],[-118.27238,33.83537],[-118.27237,33.8345],[-118.27237,33.83444],[-118.27237,33.83435],[-118.27236,33.83354],[-118.27236,33.83353],[-118.27236,33.83333],[-118.27236,33.83302],[-118.27236,33.833],[-118.27237,33.83165],[-118.27239,33.83165],[-118.27238,33.83164],[-118.27237,33.83163],[-118.27238,33.83049],[-118.27237,33.82907],[-118.27236,33.82906],[-118.27237,33.82906],[-118.27238,33.82898],[-118.27237,33.82784],[-118.272,33.82784],[-118.27077,33.82784],[-118.27023,33.82784],[-118.26977,33.82784],[-118.26961,33.82784],[-118.26943,33.82785],[-118.26898,33.82785],[-118.26799,33.82785],[-118.26486,33.82786],[-118.26368,33.82786],[-118.26368,33.82879],[-118.26368,33.83002],[-118.26368,33.83035],[-118.26369,33.83167],[-118.2637,33.83311],[-118.2637,33.83312],[-118.2637,33.83333],[-118.2637,33.83377],[-118.2637,33.83397],[-118.2637,33.83412],[-118.2637,33.83445],[-118.2637,33.83538],[-118.2637,33.83605],[-118.2637,33.83635],[-118.2637,33.83686],[-118.2637,33.83719],[-118.2637,33.83749],[-118.2637,33.8379],[-118.2637,33.83812],[-118.26369,33.83837],[-118.26367,33.8386],[-118.26367,33.83867],[-118.26365,33.83879],[-118.26363,33.83895],[-118.26361,33.83907],[-118.26359,33.83914],[-118.26357,33.83924],[-118.26354,33.83933],[-118.26354,33.83934],[-118.26351,33.83941],[-118.26348,33.83949],[-118.26347,33.8395],[-118.26345,33.83956],[-118.26342,33.83962],[-118.26316,33.84012],[-118.26311,33.84025],[-118.26293,33.84079],[-118.26284,33.84105],[-118.2628,33.84117],[-118.26277,33.84137],[-118.26275,33.84148],[-118.26275,33.84155],[-118.26275,33.84173],[-118.26275,33.84181],[-118.26276,33.8419],[-118.26276,33.84192],[-118.26277,33.84209],[-118.26279,33.84219],[-118.26281,33.84236],[-118.26283,33.84244],[-118.26285,33.84256],[-118.2629,33.84274],[-118.26299,33.84302],[-118.26305,33.8432],[-118.26313,33.84338],[-118.26322,33.84356],[-118.2633,33.84369],[-118.26336,33.84379],[-118.26342,33.84387],[-118.26355,33.84403],[-118.26391,33.84455],[-118.2641,33.84486],[-118.26415,33.84499],[-118.2642,33.84506],[-118.26421,33.84508],[-118.26423,33.84512],[-118.2643,33.84527],[-118.2644,33.84551],[-118.26447,33.84572],[-118.26452,33.84587],[-118.26455,33.84597],[-118.2646,33.84613],[-118.26461,33.84622],[-118.26462,33.84626],[-118.26466,33.84657],[-118.26477,33.84754],[-118.26486,33.84837],[-118.26489,33.84858],[-118.26491,33.84871],[-118.26499,33.84932],[-118.26478,33.84934],[-118.26463,33.84936],[-118.26454,33.84938],[-118.26439,33.84941],[-118.2643,33.84944],[-118.26424,33.84946],[-118.26421,33.84947],[-118.26407,33.84951],[-118.26389,33.84958],[-118.26341,33.84979],[-118.26256,33.85015],[-118.26174,33.85051],[-118.26172,33.85051],[-118.26103,33.85082],[-118.2602,33.85119],[-118.25933,33.85157],[-118.25848,33.85196],[-118.25767,33.85233],[-118.25765,33.85234],[-118.25694,33.85265],[-118.25613,33.85299],[-118.25566,33.85319],[-118.25548,33.85325],[-118.25542,33.85327],[-118.25541,33.85322],[-118.25539,33.85322],[-118.25537,33.85323],[-118.25535,33.85323],[-118.25533,33.85323],[-118.25531,33.85323],[-118.25529,33.85323],[-118.25527,33.85323],[-118.25526,33.85324],[-118.25517,33.85324],[-118.255,33.85325],[-118.25482,33.85325],[-118.25464,33.85326],[-118.25453,33.85326],[-118.25393,33.85328],[-118.25365,33.85328],[-118.2534,33.85329],[-118.25314,33.8533],[-118.25279,33.85331],[-118.25277,33.85331],[-118.25278,33.85333],[-118.25084,33.85338],[-118.25002,33.8534],[-118.24997,33.85341],[-118.24976,33.85341],[-118.24914,33.85343],[-118.24853,33.85344],[-118.24855,33.85581],[-118.24858,33.85772],[-118.2459,33.8578],[-118.24572,33.8578],[-118.24465,33.85783],[-118.24336,33.85787],[-118.24274,33.85788],[-118.24045,33.85795],[-118.2396,33.85798],[-118.23725,33.85804],[-118.23707,33.85805],[-118.23485,33.85811]]]},"properties":{"DIV_CITY":1}},
{"type":"Feature","geometry":{"type":"Polygon","coordinates":[[[-118.26799,33.82785],[-118.26898,33.82785],[-118.26943,33.82785],[-118.26961,33.82784],[-118.26977,33.82784],[-118.27023,33.82784],[-118.27077,33.82784],[-118.272,33.82784],[-118.27237,33.82784],[-118.27238,33.82898],[-118.27237,33.82906],[-118.27236,33.82906],[-118.27237,33.82907],[-118.27238,33.83049],[-118.27237,33.83163],[-118.27238,33.83164],[-118.27239,33.83165],[-118.27237,33.83165],[-118.27236,33.833],[-118.27236,33.83302],[-118.27236,33.83333],[-118.27236,33.83353],[-118.27236,33.83354],[-118.27237,33.83435],[-118.27237,33.83444],[-118.27237,33.8345],[-118.27238,33.83537],[-118.27238,33.83539],[-118.27238,33.83607],[-118.27239,33.83738],[-118.27239,33.83774],[-118.27239,33.8388],[-118.27239,33.83889],[-118.27249,33.83889],[-118.27252,33.83889],[-118.27252,33.83917],[-118.27252,33.83931],[-118.27396,33.8393],[-118.27426,33.83923],[-118.27433,33.83931],[-118.27433,33.83932],[-118.27434,33.83932],[-118.27434,33.83933],[-118.27436,33.83934],[-118.2745,33.83951],[-118.27477,33.83982],[-118.27481,33.83986],[-118.27486,33.83993],[-118.27487,33.83994],[-118.27488,33.83995],[-118.27501,33.8401],[-118.27514,33.84025],[-118.27527,33.8404],[-118.27541,33.84055],[-118.27541,33.84056],[-118.27543,33.84058],[-118.27551,33.84068],[-118.27546,33.84068],[-118.27533,33.8407],[-118.2754,33.84079],[-118.27543,33.84083],[-118.27548,33.8409],[-118.27556,33.84101],[-118.2756,33.84105],[-118.27562,33.8411],[-118.27565,33.84113],[-118.27567,33.84117],[-118.2757,33.84122],[-118.27575,33.84133],[-118.27576,33.84136],[-118.27577,33.84138],[-118.27579,33.8414],[-118.27579,33.84143],[-118.2758,33.84144],[-118.27581,33.84146],[-118.27585,33.84155],[-118.27587,33.84158],[-118.27588,33.84162],[-118.27589,33.84165],[-118.2759,33.84168],[-118.27594,33.84177],[-118.27594,33.84178],[-118.27595,33.84179],[-118.27595,33.84181],[-118.27597,33.84184],[-118.27606,33.84208],[-118.27606,33.84209],[-118.27607,33.84211],[-118.2762,33.84244],[-118.27621,33.84247],[-118.27631,33.84272],[-118.27632,33.84273],[-118.27633,33.84277],[-118.27641,33.84299],[-118.27645,33.84308],[-118.27647,33.8431],[-118.27649,33.84318],[-118.2765,33.8432],[-118.2765,33.84321],[-118.27651,33.84323],[-118.27652,33.84324],[-118.27653,33.84327],[-118.27656,33.84333],[-118.27658,33.84339],[-118.27662,33.84347],[-118.27663,33.84351],[-118.27664,33.84351],[-118.27664,33.84354],[-118.27664,33.84356],[-118.27664,33.84357],[-118.27669,33.84362],[-118.2767,33.84366],[-118.27676,33.84381],[-118.27683,33.84398],[-118.27688,33.84412],[-118.27691,33.84418],[-118.27693,33.84422],[-118.27693,33.84424],[-118.27695,33.84426],[-118.27696,33.84429],[-118.27696,33.84431],[-118.27697,33.84432],[-118.27697,33.84433],[-118.27698,33.84436],[-118.27699,33.8444],[-118.277,33.84444],[-118.277,33.84446],[-118.27701,33.84447],[-118.27704,33.84449],[-118.27705,33.8445],[-118.27711,33.84453],[-118.27713,33.84454],[-118.27717,33.84455],[-118.27719,33.84455],[-118.2772,33.84456],[-118.27724,33.84456],[-118.27746,33.84456],[-118.27763,33.84456],[-118.27839,33.84457],[-118.27858,33.84457],[-118.27898,33.84458],[-118.27907,33.84458],[-118.27912,33.84458],[-118.27925,33.8446],[-118.27934,33.8446],[-118.2794,33.84462],[-118.27948,33.84462],[-118.27963,33.84463],[-118.27981,33.84464],[-118.27986,33.84459],[-118.27987,33.84453],[-118.27999,33.84455],[-118.28005,33.84455],[-118.28006,33.84465],[-118.28006,33.84473],[-118.28007,33.84487],[-118.28007,33.84495],[-118.28014,33.84619],[-118.28019,33.84686],[-118.28029,33.84865],[-118.28038,33.85029],[-118.28039,33.85046],[-118.28041,33.85084],[-118.28044,33.85115],[-118.28046,33.85141],[-118.28047,33.85184],[-118.28047,33.85196],[-118.28047,33.85203],[-118.28047,33.85223],[-118.28046,33.85239],[-118.28043,33.85262],[-118.28042,33.85268],[-118.28042,33.85272],[-118.28039,33.85288],[-118.28035,33.85306],[-118.28065,33.85331],[-118.28103,33.85367],[-118.28186,33.85441],[-118.28202,33.85457],[-118.28218,33.85473],[-118.28295,33.85533],[-118.28307,33.85546],[-118.28327,33.85565],[-118.2833,33.85568],[-118.28357,33.85596],[-118.28367,33.85605],[-118.28377,33.85613],[-118.28396,33.85628],[-118.28438,33.85658],[-118.28455,33.8567],[-118.28463,33.85676],[-118.28464,33.85656],[-118.28467,33.85614],[-118.28469,33.85567],[-118.2847,33.85559],[-118.28476,33.85468],[-118.28478,33.85435],[-118.2848,33.85389],[-118.28485,33.85254],[-118.28487,33.85146],[-118.28486,33.85014],[-118.28485,33.84936],[-118.28485,33.84927],[-118.28484,33.8486],[-118.28484,33.84769],[-118.28486,33.84729],[-118.28487,33.84706],[-118.28487,33.84703],[-118.2849,33.84682],[-118.28496,33.8464],[-118.28498,33.84624],[-118.28501,33.84601],[-118.28527,33.84494],[-118.28537,33.84471],[-118.28559,33.84384],[-118.28579,33.84308],[-118.28596,33.84238],[-118.28601,33.8422],[-118.28604,33.84206],[-118.28607,33.84199],[-118.28608,33.84196],[-118.28609,33.8419],[-118.2861,33.84187],[-118.28623,33.8414],[-118.28639,33.84074],[-118.2864,33.84068],[-118.28665,33.83962],[-118.28668,33.83951],[-118.28683,33.83888],[-118.28703,33.83808],[-118.28706,33.83797],[-118.28709,33.83789],[-118.28712,33.83769],[-118.28716,33.83747],[-118.28723,33.83712],[-118.28725,33.837],[-118.28726,33.83691],[-118.28726,33.8369],[-118.28727,33.83683],[-118.28728,33.83669],[-118.28731,33.83635],[-118.28732,33.83609],[-118.28732,33.83567],[-118.28732,33.83561],[-118.28732,33.83523],[-118.28732,33.83506],[-118.28732,33.83505],[-118.28732,33.83433],[-118.28732,33.83333],[-118.28732,33.83162],[-118.28732,33.83099],[-118.28732,33.83095],[-118.28732,33.83033],[-118.28731,33.82898],[-118.2873,33.82877],[-118.2873,33.82804],[-118.2873,33.82737],[-118.2873,33.82694],[-118.28731,33.82549],[-118.28731,33.82509],[-118.28731,33.82444],[-118.28731,33.8234],[-118.28729,33.82193],[-118.28729,33.82173],[-118.28729,33.82172],[-118.28728,33.82081],[-118.28728,33.82036],[-118.28729,33.81895],[-118.28729,33.81845],[-118.28729,33.81738],[-118.28728,33.81601],[-118.28728,33.81596],[-118.28728,33.81434],[-118.28728,33.81427],[-118.28727,33.81343],[-118.28727,33.81264],[-118.28729,33.81177],[-118.28729,33.8114],[-118.28729,33.81087],[-118.2873,33.81063],[-118.2873,33.81062],[-118.28732,33.81033],[-118.28738,33.8098],[-118.28742,33.80952],[-118.28746,33.8094],[-118.2875,33.80919],[-118.28754,33.80902],[-118.28757,33.80887],[-118.28765,33.80854],[-118.28768,33.80842],[-118.28769,33.80839],[-118.28791,33.80728],[-118.28808,33.80654],[-118.28809,33.80647],[-118.28817,33.8061],[-118.28846,33.80478],[-118.28853,33.8045],[-118.28858,33.80427],[-118.28863,33.80403],[-118.2887,33.8037],[-118.28874,33.80351],[-118.28881,33.80312],[-118.28884,33.80283],[-118.28887,33.80257],[-118.28888,33.8023],[-118.28888,33.80215],[-118.28886,33.80188],[-118.28885,33.80176],[-118.28883,33.80157],[-118.28879,33.80131],[-118.28876,33.80112],[-118.28871,33.80093],[-118.28866,33.80076],[-118.28861,33.8006],[-118.28854,33.8004],[-118.28841,33.80006],[-118.28837,33.79998],[-118.28831,33.79987],[-118.28817,33.7996],[-118.28794,33.79919],[-118.28774,33.79892],[-118.28765,33.7988],[-118.28743,33.79853],[-118.2873,33.79837],[-118.28719,33.79824],[-118.28712,33.79816],[-118.28689,33.79795],[-118.2867,33.79776],[-118.28299,33.79785],[-118.28304,33.79825],[-118.28301,33.79826],[-118.28227,33.7983],[-118.28097,33.79836],[-118.27995,33.79842],[-118.27975,33.79843],[-118.27887,33.79847],[-118.27859,33.79848],[-118.27839,33.7985],[-118.27823,33.79851],[-118.27749,33.79855],[-118.27733,33.79856],[-118.2767,33.79859],[-118.27657,33.7986],[-118.27613,33.79862],[-118.27575,33.79863],[-118.27531,33.79864],[-118.27546,33.80256],[-118.27546,33.80267],[-118.27551,33.80446],[-118.27562,33.80795],[-118.27563,33.80845],[-118.27563,33.80885],[-118.27563,33.80922],[-118.27563,33.80963],[-118.27562,33.81047],[-118.27561,33.81099],[-118.27561,33.81115],[-118.27561,33.8112],[-118.27561,33.81154],[-118.27561,33.81158],[-118.27561,33.81191],[-118.2756,33.81193],[-118.2756,33.81261],[-118.2756,33.8133],[-118.2756,33.81338],[-118.27559,33.81401],[-118.27559,33.81411],[-118.27559,33.8147],[-118.27559,33.81518],[-118.27559,33.8154],[-118.27558,33.81554],[-118.27558,33.81555],[-118.27558,33.81597],[-118.27558,33.81608],[-118.27557,33.81676],[-118.27556,33.81715],[-118.27556,33.81743],[-118.27556,33.81748],[-118.27556,33.81811],[-118.27556,33.81815],[-118.27556,33.8189],[-118.27561,33.82012],[-118.27562,33.82029],[-118.27563,33.82065],[-118.27567,33.82135],[-118.2757,33.82203],[-118.2757,33.82222],[-118.27572,33.82264],[-118.27573,33.82268],[-118.27574,33.82286],[-118.27576,33.82302],[-118.27576,33.82303],[-118.27578,33.82323],[-118.27578,33.82325],[-118.27579,33.82329],[-118.27579,33.82332],[-118.27583,33.8235],[-118.27584,33.82356],[-118.27586,33.82362],[-118.27605,33.8243],[-118.27569,33.82424],[-118.27551,33.82422],[-118.27535,33.82421],[-118.27487,33.8242],[-118.27473,33.8242],[-118.27408,33.82421],[-118.27239,33.82422],[-118.27236,33.82421],[-118.27141,33.82421],[-118.27016,33.82421],[-118.26996,33.82421],[-118.268,33.82421],[-118.268,33.82422],[-118.268,33.82517],[-118.26799,33.82571],[-118.26799,33.82603],[-118.26799,33.8263],[-118.26799,33.8264],[-118.26799,33.82784],[-118.26799,33.82785]]]},"properties":{"DIV_CITY":2}},
{"type":"Feature","geometry":{"type":"Polygon","coordinates":[[[-118.22828,33.82545],[-118.22822,33.82563],[-118.22811,33.82591],[-118.2278,33.82672],[-118.22728,33.82808],[-118.22727,33.82814],[-118.22722,33.82827],[-118.22714,33.82849],[-118.22708,33.82865],[-118.22705,33.82873],[-118.22697,33.82891],[-118.22687,33.8291],[-118.22683,33.8292],[-118.22676,33.82936],[-118.22668,33.82956],[-118.22647,33.82919],[-118.22623,33.82857],[-118.22594,33.82782],[-118.22541,33.82642],[-118.22497,33.82525],[-118.22461,33.82432],[-118.22451,33.82432],[-118.22229,33.82432],[-118.22229,33.82518],[-118.22229,33.82535],[-118.22229,33.82554],[-118.22229,33.82565],[-118.22024,33.82569],[-118.21763,33.82573],[-118.21706,33.82578],[-118.21665,33.82581],[-118.21621,33.82594],[-118.21587,33.8261],[-118.21643,33.828],[-118.21645,33.82806],[-118.21667,33.8288],[-118.2167,33.82891],[-118.21671,33.82895],[-118.21679,33.82925],[-118.21686,33.82951],[-118.21687,33.82952],[-118.21693,33.82975],[-118.21696,33.82988],[-118.21698,33.82998],[-118.217,33.83007],[-118.21701,33.83016],[-118.21701,33.83034],[-118.21702,33.8304],[-118.21702,33.8307],[-118.21701,33.83099],[-118.21701,33.83106],[-118.21699,33.83133],[-118.21698,33.83145],[-118.21696,33.83158],[-118.21694,33.83173],[-118.21693,33.83177],[-118.2169,33.8319],[-118.21686,33.83202],[-118.21679,33.83222],[-118.21673,33.83242],[-118.2167,33.83249],[-118.21661,33.83276],[-118.21657,33.83286],[-118.21652,33.83297],[-118.21643,33.83318],[-118.21642,33.83323],[-118.21638,33.83333],[-118.21637,33.83336],[-118.21613,33.83401],[-118.21599,33.8344],[-118.21598,33.8344],[-118.21463,33.83442],[-118.21324,33.83437],[-118.21317,33.83451],[-118.21304,33.83476],[-118.21284,33.83515],[-118.21272,33.83536],[-118.21264,33.83551],[-118.2125,33.83573],[-118.21221,33.83662],[-118.21206,33.83706],[-118.21139,33.8392],[-118.20834,33.83919],[-118.20753,33.83917],[-118.20746,33.83946],[-118.20744,33.83946],[-118.20719,33.84043],[-118.20697,33.84121],[-118.20693,33.84133],[-118.20673,33.84202],[-118.2066,33.84248],[-118.20655,33.84268],[-118.20641,33.84315],[-118.20638,33.84324],[-118.20618,33.84399],[-118.20616,33.84406],[-118.20599,33.84468],[-118.20597,33.84476],[-118.20586,33.84517],[-118.20578,33.84547],[-118.20575,33.84563],[-118.2057,33.84585],[-118.20568,33.84597],[-118.20565,33.84624],[-118.20562,33.84641],[-118.20561,33.8465],[-118.20559,33.84663],[-118.20577,33.84663],[-118.2068,33.84663],[-118.20835,33.84663],[-118.20857,33.84663],[-118.20961,33.84665],[-118.21044,33.84666],[-118.21053,33.84666],[-118.21092,33.84666],[-118.21169,33.84665],[-118.21201,33.84665],[-118.21316,33.84664],[-118.21872,33.84667],[-118.22027,33.84667],[-118.22058,33.84667],[-118.22085,33.84667],[-118.22105,33.84667],[-118.22278,33.84667],[-118.22377,33.84667],[-118.22393,33.84667],[-118.22484,33.84667],[-118.22732,33.84667],[-118.23031,33.84668],[-118.23063,33.84667],[-118.23252,33.84668],[-118.23297,33.84669],[-118.23331,33.8467],[-118.23353,33.84671],[-118.23398,33.84675],[-118.23397,33.84683],[-118.23395,33.84706],[-118.23395,33.84728],[-118.23395,33.84739],[-118.23396,33.84743],[-118.23398,33.84773],[-118.23399,33.84789],[-118.23404,33.84826],[-118.23406,33.84842],[-118.23409,33.8488],[-118.23412,33.8491],[-118.23413,33.84917],[-118.23418,33.84988],[-118.23424,33.8506],[-118.23425,33.85067],[-118.23437,33.85214],[-118.23438,33.85235],[-118.23442,33.85292],[-118.23445,33.8533],[-118.23448,33.85369],[-118.23449,33.85387],[-118.23457,33.85484],[-118.23467,33.85594],[-118.23476,33.85708],[-118.23485,33.85811],[-118.23707,33.85805],[-118.23725,33.85804],[-118.2396,33.85798],[-118.24045,33.85795],[-118.24274,33.85788],[-118.24336,33.85787],[-118.24465,33.85783],[-118.24572,33.8578],[-118.2459,33.8578],[-118.24858,33.85772],[-118.24855,33.85581],[-118.24853,33.85344],[-118.24914,33.85343],[-118.24976,33.85341],[-118.24997,33.85341],[-118.25002,33.8534],[-118.25084,33.85338],[-118.25278,33.85333],[-118.25277,33.85331],[-118.25279,33.85331],[-118.25278,33.85273],[-118.25278,33.85227],[-118.25279,33.85155],[-118.25278,33.85139],[-118.25279,33.85091],[-118.25361,33.85088],[-118.25363,33.84874],[-118.25363,33.84832],[-118.25362,33.84811],[-118.25362,33.84803],[-118.25362,33.84798],[-118.25357,33.84772],[-118.25356,33.84766],[-118.25355,33.84762],[-118.25355,33.84759],[-118.25354,33.84755],[-118.25353,33.84752],[-118.25353,33.84749],[-118.25352,33.84743],[-118.25346,33.8468],[-118.25345,33.84678],[-118.25345,33.84677],[-118.25348,33.84677],[-118.25348,33.84506],[-118.25326,33.84506],[-118.25307,33.84505],[-118.25303,33.84505],[-118.25297,33.84503],[-118.25293,33.84501],[-118.2529,33.84499],[-118.25289,33.84498],[-118.25288,33.84495],[-118.25288,33.84492],[-118.25288,33.8449],[-118.25288,33.84485],[-118.25289,33.84111],[-118.25288,33.84079],[-118.25289,33.84067],[-118.2529,33.84061],[-118.25292,33.84056],[-118.25295,33.84053],[-118.25297,33.84051],[-118.253,33.84049],[-118.25303,33.84048],[-118.25311,33.84048],[-118.25334,33.84048],[-118.2548,33.84048],[-118.25498,33.84047],[-118.25544,33.84047],[-118.25719,33.84046],[-118.25719,33.8395],[-118.25719,33.83932],[-118.25719,33.83918],[-118.25719,33.83794],[-118.25718,33.83542],[-118.25708,33.83541],[-118.25668,33.83541],[-118.25667,33.83538],[-118.25684,33.83538],[-118.25717,33.83538],[-118.25754,33.83538],[-118.25935,33.83538],[-118.25936,33.83538],[-118.25938,33.83538],[-118.25953,33.83538],[-118.25963,33.83538],[-118.25966,33.83538],[-118.25946,33.83518],[-118.25878,33.83448],[-118.25789,33.83358],[-118.25763,33.83333],[-118.25742,33.83311],[-118.25627,33.83189],[-118.25604,33.83169],[-118.2563,33.8317],[-118.25671,33.83169],[-118.25785,33.83169],[-118.25934,33.83168],[-118.25932,33.8294],[-118.25931,33.82924],[-118.25931,33.82787],[-118.25931,33.82744],[-118.2593,33.82697],[-118.2593,33.82696],[-118.25929,33.82617],[-118.25929,33.82611],[-118.25929,33.82529],[-118.2593,33.82472],[-118.25929,33.82469],[-118.25931,33.82423],[-118.25794,33.82423],[-118.25766,33.82423],[-118.25752,33.82423],[-118.25706,33.82424],[-118.25496,33.82425],[-118.25285,33.82426],[-118.2522,33.82426],[-118.25213,33.82426],[-118.2506,33.82426],[-118.25046,33.82426],[-118.25002,33.82425],[-118.24972,33.82424],[-118.24909,33.82423],[-118.24491,33.82427],[-118.24336,33.82429],[-118.2433,33.82429],[-118.24341,33.82435],[-118.24349,33.8244],[-118.2435,33.8244],[-118.24353,33.82442],[-118.24355,33.82443],[-118.24357,33.82444],[-118.2436,33.82447],[-118.24364,33.82449],[-118.24368,33.82451],[-118.24376,33.82455],[-118.24377,33.82456],[-118.2439,33.82463],[-118.24399,33.82467],[-118.244,33.82468],[-118.2441,33.82472],[-118.24423,33.82479],[-118.24428,33.82482],[-118.2444,33.82487],[-118.24441,33.82488],[-118.24446,33.82491],[-118.24452,33.82493],[-118.24478,33.82507],[-118.24497,33.82516],[-118.24502,33.82519],[-118.24509,33.82522],[-118.24517,33.82526],[-118.2453,33.82533],[-118.24532,33.82534],[-118.24544,33.8254],[-118.24546,33.82541],[-118.24548,33.82542],[-118.24554,33.82545],[-118.24569,33.82552],[-118.24577,33.82557],[-118.24579,33.82557],[-118.24582,33.82559],[-118.24585,33.8256],[-118.24612,33.82577],[-118.24605,33.82577],[-118.24461,33.82576],[-118.24457,33.82576],[-118.24409,33.82577],[-118.2421,33.8258],[-118.24168,33.82579],[-118.24133,33.82578],[-118.2377,33.82577],[-118.23643,33.82578],[-118.23542,33.82579],[-118.23483,33.8258],[-118.23461,33.8258],[-118.23424,33.82579],[-118.23392,33.82578],[-118.2333,33.82574],[-118.23254,33.82571],[-118.23177,33.82566],[-118.23121,33.82563],[-118.2302,33.82556],[-118.22949,33.82552],[-118.22945,33.82552],[-118.22865,33.82547],[-118.22828,33.82545]]]},"properties":{"DIV_CITY":3}},
{"type":"Feature","geometry":{"type":"Polygon","coordinates":[[[-118.25279,33.85331],[-118.25314,33.8533],[-118.2534,33.85329],[-118.25365,33.85328],[-118.25393,33.85328],[-118.25447,33.85326],[-118.25453,33.85326],[-118.25464,33.85326],[-118.25482,33.85325],[-118.255,33.85325],[-118.25517,33.85324],[-118.25526,33.85324],[-118.25527,33.85323],[-118.25529,33.85323],[-118.25531,33.85323],[-118.25533,33.85323],[-118.25535,33.85323],[-118.25537,33.85323],[-118.25539,33.85322],[-118.25541,33.85322],[-118.25542,33.85327],[-118.25548,33.85325],[-118.25566,33.85319],[-118.25613,33.85299],[-118.25694,33.85265],[-118.25765,33.85234],[-118.25767,33.85233],[-118.25848,33.85196],[-118.25933,33.85157],[-118.2602,33.85119],[-118.26103,33.85082],[-118.26172,33.85051],[-118.26174,33.85051],[-118.26256,33.85015],[-118.26341,33.84979],[-118.26389,33.84958],[-118.26407,33.84951],[-118.26421,33.84947],[-118.26424,33.84946],[-118.2643,33.84944],[-118.26439,33.84941],[-118.26454,33.84938],[-118.26463,33.84936],[-118.26478,33.84934],[-118.26499,33.84932],[-118.26491,33.84871],[-118.26489,33.84858],[-118.26486,33.84837],[-118.26477,33.84754],[-118.26466,33.84657],[-118.26462,33.84626],[-118.26461,33.84622],[-118.2646,33.84613],[-118.26455,33.84597],[-118.26452,33.84587],[-118.26447,33.84572],[-118.2644,33.84551],[-118.2643,33.84527],[-118.26423,33.84512],[-118.26421,33.84508],[-118.2642,33.84506],[-118.26415,33.84499],[-118.2641,33.84486],[-118.26391,33.84455],[-118.26355,33.84403],[-118.26342,33.84387],[-118.26336,33.84379],[-118.2633,33.84369],[-118.26322,33.84356],[-118.26313,33.84338],[-118.26305,33.8432],[-118.26299,33.84302],[-118.2629,33.84274],[-118.26285,33.84256],[-118.26283,33.84244],[-118.26281,33.84236],[-118.26279,33.84219],[-118.26277,33.84209],[-118.26276,33.84192],[-118.26276,33.8419],[-118.26275,33.84181],[-118.26275,33.84173],[-118.26275,33.84155],[-118.26275,33.84148],[-118.26277,33.84137],[-118.2628,33.84117],[-118.26284,33.84105],[-118.26293,33.84079],[-118.26311,33.84025],[-118.26316,33.84012],[-118.26342,33.83962],[-118.26345,33.83956],[-118.26347,33.8395],[-118.26348,33.83949],[-118.26351,33.83941],[-118.26354,33.83934],[-118.26354,33.83933],[-118.26357,33.83924],[-118.26359,33.83914],[-118.26361,33.83907],[-118.26363,33.83895],[-118.26365,33.83879],[-118.26367,33.83867],[-118.26367,33.8386],[-118.26369,33.83837],[-118.2637,33.83812],[-118.2637,33.8379],[-118.2637,33.83749],[-118.2637,33.83719],[-118.2637,33.83686],[-118.2637,33.83635],[-118.2637,33.83605],[-118.2637,33.83538],[-118.2637,33.83445],[-118.2637,33.83412],[-118.2637,33.83397],[-118.2637,33.83377],[-118.2637,33.83333],[-118.2637,33.83312],[-118.2637,33.83311],[-118.26369,33.83167],[-118.26368,33.83035],[-118.26368,33.83002],[-118.26368,33.82879],[-118.26368,33.82786],[-118.26486,33.82786],[-118.26799,33.82785],[-118.26799,33.82784],[-118.26799,33.8264],[-118.26799,33.8263],[-118.26799,33.82603],[-118.26799,33.82571],[-118.268,33.82517],[-118.268,33.82422],[-118.268,33.82421],[-118.26996,33.82421],[-118.27016,33.82421],[-118.27141,33.82421],[-118.27236,33.82421],[-118.27239,33.82422],[-118.27408,33.82421],[-118.27473,33.8242],[-118.27487,33.8242],[-118.27535,33.82421],[-118.27551,33.82422],[-118.27569,33.82424],[-118.27605,33.8243],[-118.27586,33.82362],[-118.27584,33.82356],[-118.27583,33.8235],[-118.27579,33.82332],[-118.27579,33.82329],[-118.27578,33.82325],[-118.27578,33.82323],[-118.27576,33.82303],[-118.27576,33.82302],[-118.27574,33.82286],[-118.27573,33.82268],[-118.27572,33.82264],[-118.2757,33.82222],[-118.2757,33.82203],[-118.27567,33.82135],[-118.27563,33.82065],[-118.27562,33.82029],[-118.27561,33.82012],[-118.27556,33.8189],[-118.27556,33.81815],[-118.27556,33.81748],[-118.27556,33.81743],[-118.27556,33.81715],[-118.27557,33.81676],[-118.27558,33.81608],[-118.27558,33.81597],[-118.27558,33.81573],[-118.27558,33.81555],[-118.27559,33.8154],[-118.27559,33.81518],[-118.27559,33.8147],[-118.27559,33.81411],[-118.27559,33.81401],[-118.2756,33.81338],[-118.2756,33.8133],[-118.2756,33.81261],[-118.2756,33.81193],[-118.27561,33.81191],[-118.27561,33.81158],[-118.27561,33.81154],[-118.27561,33.8112],[-118.27561,33.81115],[-118.27561,33.81099],[-118.27562,33.81047],[-118.27563,33.80963],[-118.27563,33.80922],[-118.27563,33.80885],[-118.27563,33.80845],[-118.27562,33.80795],[-118.27551,33.80446],[-118.27546,33.80267],[-118.27546,33.80256],[-118.27531,33.79864],[-118.27501,33.79865],[-118.27435,33.79867],[-118.2743,33.79867],[-118.27267,33.79874],[-118.27206,33.79877],[-118.27142,33.79881],[-118.27094,33.79882],[-118.27052,33.79884],[-118.27034,33.79884],[-118.26951,33.79887],[-118.26943,33.79887],[-118.26942,33.79887],[-118.26896,33.79889],[-118.26851,33.79892],[-118.26761,33.79896],[-118.2673,33.79898],[-118.26703,33.79899],[-118.26654,33.79901],[-118.26637,33.79902],[-118.26623,33.79903],[-118.26587,33.79906],[-118.26581,33.79906],[-118.26525,33.7991],[-118.26487,33.79913],[-118.2646,33.79914],[-118.2646,33.80058],[-118.26461,33.80097],[-118.26463,33.80277],[-118.26464,33.80456],[-118.26464,33.80472],[-118.26416,33.80473],[-118.26401,33.80473],[-118.2639,33.80473],[-118.26373,33.80473],[-118.26344,33.80472],[-118.26333,33.80472],[-118.26229,33.80469],[-118.26118,33.80466],[-118.26102,33.80466],[-118.2605,33.80468],[-118.26011,33.80469],[-118.25962,33.8047],[-118.25879,33.80472],[-118.25795,33.80474],[-118.25655,33.80478],[-118.25692,33.80379],[-118.25706,33.80336],[-118.25718,33.80304],[-118.25735,33.80261],[-118.25737,33.80255],[-118.25759,33.802],[-118.25761,33.80195],[-118.25777,33.80151],[-118.25792,33.80109],[-118.25849,33.79947],[-118.25681,33.7996],[-118.25485,33.79973],[-118.25425,33.79972],[-118.25285,33.79978],[-118.25219,33.7998],[-118.25198,33.79981],[-118.25002,33.7999],[-118.24603,33.80007],[-118.24418,33.80014],[-118.24332,33.80018],[-118.23747,33.80036],[-118.23738,33.80036],[-118.23731,33.80029],[-118.2345,33.79731],[-118.23038,33.7929],[-118.23036,33.79289],[-118.23005,33.79256],[-118.22992,33.79241],[-118.22911,33.7943],[-118.22882,33.79509],[-118.22792,33.79794],[-118.22689,33.80072],[-118.22605,33.80276],[-118.22584,33.80316],[-118.22576,33.8033],[-118.22566,33.80346],[-118.2252,33.80414],[-118.22509,33.80431],[-118.22485,33.8047],[-118.22479,33.80478],[-118.22469,33.805],[-118.22466,33.80505],[-118.22464,33.80513],[-118.22463,33.80516],[-118.22455,33.80535],[-118.22451,33.80548],[-118.22448,33.80559],[-118.22446,33.80567],[-118.22445,33.80574],[-118.22445,33.80579],[-118.22444,33.80586],[-118.22444,33.80611],[-118.22443,33.80656],[-118.22442,33.80673],[-118.22443,33.80686],[-118.22443,33.80696],[-118.22445,33.80708],[-118.22448,33.80729],[-118.22452,33.8075],[-118.22458,33.80782],[-118.22463,33.80801],[-118.22464,33.80809],[-118.22466,33.80821],[-118.22471,33.8084],[-118.22479,33.80874],[-118.22491,33.80924],[-118.22494,33.80936],[-118.22498,33.80949],[-118.22503,33.80965],[-118.2251,33.80981],[-118.2252,33.81002],[-118.22528,33.81017],[-118.22533,33.81026],[-118.22552,33.81068],[-118.22576,33.81116],[-118.22587,33.81139],[-118.22596,33.81157],[-118.22612,33.81196],[-118.22834,33.8233],[-118.22835,33.82345],[-118.22834,33.82379],[-118.22834,33.82393],[-118.22834,33.82401],[-118.22835,33.82409],[-118.22836,33.82417],[-118.22838,33.82423],[-118.2284,33.82428],[-118.22841,33.82431],[-118.22844,33.82434],[-118.22848,33.82439],[-118.22859,33.82449],[-118.22863,33.82453],[-118.22862,33.82456],[-118.22828,33.82545],[-118.22865,33.82547],[-118.22945,33.82552],[-118.22949,33.82552],[-118.2302,33.82556],[-118.23121,33.82563],[-118.23177,33.82566],[-118.23254,33.82571],[-118.2333,33.82574],[-118.23392,33.82578],[-118.23424,33.82579],[-118.23461,33.8258],[-118.23483,33.8258],[-118.23542,33.82579],[-118.23643,33.82578],[-118.2377,33.82577],[-118.24133,33.82578],[-118.24168,33.82579],[-118.2421,33.8258],[-118.24409,33.82577],[-118.24457,33.82576],[-118.24461,33.82576],[-118.24605,33.82577],[-118.24612,33.82577],[-118.24585,33.8256],[-118.24582,33.82559],[-118.24579,33.82557],[-118.24577,33.82557],[-118.24569,33.82552],[-118.24554,33.82545],[-118.24548,33.82542],[-118.24546,33.82541],[-118.24544,33.8254],[-118.24532,33.82534],[-118.2453,33.82533],[-118.24517,33.82526],[-118.24509,33.82522],[-118.24502,33.82519],[-118.24497,33.82516],[-118.24478,33.82507],[-118.24452,33.82493],[-118.24446,33.82491],[-118.24441,33.82488],[-118.2444,33.82487],[-118.24428,33.82482],[-118.24423,33.82479],[-118.2441,33.82472],[-118.244,33.82468],[-118.24399,33.82467],[-118.2439,33.82463],[-118.24377,33.82456],[-118.24376,33.82455],[-118.24368,33.82451],[-118.24364,33.82449],[-118.2436,33.82447],[-118.24357,33.82444],[-118.24355,33.82443],[-118.24353,33.82442],[-118.2435,33.8244],[-118.24349,33.8244],[-118.24341,33.82435],[-118.2433,33.82429],[-118.24336,33.82429],[-118.24491,33.82427],[-118.24909,33.82423],[-118.24972,33.82424],[-118.25002,33.82425],[-118.25046,33.82426],[-118.2506,33.82426],[-118.25213,33.82426],[-118.2522,33.82426],[-118.25285,33.82426],[-118.25496,33.82425],[-118.25706,33.82424],[-118.25752,33.82423],[-118.25766,33.82423],[-118.25794,33.82423],[-118.25931,33.82423],[-118.25929,33.82469],[-118.2593,33.82472],[-118.25929,33.82529],[-118.25929,33.82611],[-118.25929,33.82617],[-118.2593,33.82696],[-118.2593,33.82697],[-118.25931,33.82744],[-118.25931,33.82787],[-118.25931,33.82924],[-118.25932,33.8294],[-118.25934,33.83168],[-118.25785,33.83169],[-118.25671,33.83169],[-118.2563,33.8317],[-118.25604,33.83169],[-118.25627,33.83189],[-118.25742,33.83311],[-118.25763,33.83333],[-118.25789,33.83358],[-118.25878,33.83448],[-118.25946,33.83518],[-118.25966,33.83538],[-118.25963,33.83538],[-118.25953,33.83538],[-118.25938,33.83538],[-118.25936,33.83538],[-118.25935,33.83538],[-118.25754,33.83538],[-118.25717,33.83538],[-118.25684,33.83538],[-118.25667,33.83538],[-118.25668,33.83541],[-118.25708,33.83541],[-118.25718,33.83542],[-118.25719,33.83794],[-118.25719,33.83918],[-118.25719,33.83932],[-118.25719,33.8395],[-118.25719,33.84046],[-118.25544,33.84047],[-118.25498,33.84047],[-118.2548,33.84048],[-118.25334,33.84048],[-118.25311,33.84048],[-118.25303,33.84048],[-118.253,33.84049],[-118.25297,33.84051],[-118.25295,33.84053],[-118.25292,33.84056],[-118.2529,33.84061],[-118.25289,33.84067],[-118.25288,33.84079],[-118.25289,33.84111],[-118.25288,33.84485],[-118.25288,33.8449],[-118.25288,33.84492],[-118.25288,33.84495],[-118.25289,33.84498],[-118.2529,33.84499],[-118.25293,33.84501],[-118.25297,33.84503],[-118.25303,33.84505],[-118.25307,33.84505],[-118.25326,33.84506],[-118.25348,33.84506],[-118.25348,33.84677],[-118.25345,33.84677],[-118.25345,33.84678],[-118.25346,33.8468],[-118.25352,33.84743],[-118.25353,33.84749],[-118.25353,33.84752],[-118.25354,33.84755],[-118.25355,33.84759],[-118.25355,33.84762],[-118.25356,33.84766],[-118.25357,33.84772],[-118.25362,33.84798],[-118.25362,33.84803],[-118.25362,33.84811],[-118.25363,33.84832],[-118.25363,33.84874],[-118.25361,33.85088],[-118.25279,33.85091],[-118.25278,33.85139],[-118.25279,33.85155],[-118.25278,33.85227],[-118.25278,33.85273],[-118.25279,33.85331]]]},"properties":{"DIV_CITY":4}}
]}