{"type":"FeatureCollection", "features": [
{"type":"Feature","geometry":{"type":"Polygon","coordinates":[[[-117.89027,34.10666],[-117.89172,34.10667],[-117.89215,34.10667],[-117.8928,34.10667],[-117.89333,34.10667],[-117.8943,34.10667],[-117.89515,34.10667],[-117.89631,34.10667],[-117.89795,34.10667],[-117.89817,34.10667],[-117.89856,34.10667],[-117.89898,34.10667],[-117.90043,34.10668],[-117.90062,34.10668],[-117.90117,34.10668],[-117.90222,34.10667],[-117.90242,34.10667],[-117.90291,34.10667],[-117.90391,34.10667],[-117.90457,34.10667],[-117.9048,34.10667],[-117.90532,34.10667],[-117.90532,34.10664],[-117.90605,34.10664],[-117.90715,34.10664],[-117.90755,34.10664],[-117.90767,34.10664],[-117.90775,34.10664],[-117.90783,34.10664],[-117.90829,34.10666],[-117.90916,34.1067],[-117.90972,34.10673],[-117.90984,34.10673],[-117.91006,34.10674],[-117.91067,34.10677],[-117.91172,34.10682],[-117.91299,34.10687],[-117.91405,34.10692],[-117.91405,34.10689],[-117.91406,34.10689],[-117.91408,34.10689],[-117.91409,34.10689],[-117.9141,34.10688],[-117.91411,34.10688],[-117.91412,34.10687],[-117.91413,34.10687],[-117.91413,34.10686],[-117.91414,34.10685],[-117.91414,34.10684],[-117.91414,34.10683],[-117.91414,34.10681],[-117.91414,34.10677],[-117.91415,34.10658],[-117.91415,34.1065],[-117.91421,34.10611],[-117.91424,34.10592],[-117.91425,34.10587],[-117.91425,34.10583],[-117.91425,34.10578],[-117.91426,34.10548],[-117.91426,34.1051],[-117.91426,34.10479],[-117.91426,34.1041],[-117.91426,34.10344],[-117.91426,34.10327],[-117.91184,34.10319],[-117.91153,34.10318],[-117.91141,34.10319],[-117.91137,34.10318],[-117.91113,34.10317],[-117.91093,34.10317],[-117.91658,34.10046],[-117.91658,34.10042],[-117.91658,34.09976],[-117.91658,34.09963],[-117.91558,34.0996],[-117.91367,34.09956],[-117.91369,34.0975],[-117.91377,34.09736],[-117.9138,34.0973],[-117.91385,34.09721],[-117.91394,34.09706],[-117.91403,34.09691],[-117.9141,34.09677],[-117.91413,34.09673],[-117.91419,34.09662],[-117.91429,34.09646],[-117.9143,34.09643],[-117.91436,34.09632],[-117.91436,34.09628],[-117.91436,34.09608],[-117.91436,34.09603],[-117.91436,34.09601],[-117.91436,34.09592],[-117.91436,34.0958],[-117.91436,34.09568],[-117.91393,34.09567],[-117.91397,34.09565],[-117.91416,34.09554],[-117.91419,34.09552],[-117.91433,34.09544],[-117.91439,34.09541],[-117.91439,34.09502],[-117.91439,34.09493],[-117.91439,34.09483],[-117.91439,34.09445],[-117.9144,34.09408],[-117.9144,34.09398],[-117.9144,34.0939],[-117.9144,34.09359],[-117.9144,34.09354],[-117.9144,34.09333],[-117.9144,34.09331],[-117.9144,34.09322],[-117.91439,34.09314],[-117.91439,34.09286],[-117.91439,34.09259],[-117.91439,34.09252],[-117.91439,34.09244],[-117.91439,34.09227],[-117.91439,34.09217],[-117.91451,34.09217],[-117.91502,34.09217],[-117.91562,34.09218],[-117.91603,34.09218],[-117.91648,34.09218],[-117.91661,34.09218],[-117.91661,34.09223],[-117.9166,34.09242],[-117.9166,34.09259],[-117.9166,34.09268],[-117.91675,34.09268],[-117.91709,34.09268],[-117.91726,34.09268],[-117.91762,34.09268],[-117.91785,34.09268],[-117.91795,34.09268],[-117.91846,34.09219],[-117.92319,34.09222],[-117.92319,34.0923],[-117.92318,34.09286],[-117.92349,34.09286],[-117.92383,34.09286],[-117.92548,34.09287],[-117.92549,34.09266],[-117.92549,34.09217],[-117.92549,34.09134],[-117.92549,34.09111],[-117.92549,34.09063],[-117.92549,34.09041],[-117.92549,34.09018],[-117.9255,34.08966],[-117.92554,34.08946],[-117.9262,34.08948],[-117.92686,34.08951],[-117.92687,34.08948],[-117.92689,34.08916],[-117.92691,34.089],[-117.92692,34.08884],[-117.92693,34.08876],[-117.92694,34.08867],[-117.92695,34.08853],[-117.92696,34.08837],[-117.92698,34.08825],[-117.92698,34.08821],[-117.92698,34.08818],[-117.92699,34.08805],[-117.92701,34.08788],[-117.92702,34.08772],[-117.92703,34.08758],[-117.92704,34.08746],[-117.92706,34.08726],[-117.92708,34.08709],[-117.92709,34.08692],[-117.9271,34.08679],[-117.92711,34.08671],[-117.92712,34.08665],[-117.92638,34.08665],[-117.92549,34.08664],[-117.92524,34.08664],[-117.92401,34.08663],[-117.9237,34.08663],[-117.9234,34.08663],[-117.92339,34.08715],[-117.92339,34.0872],[-117.92339,34.08725],[-117.92239,34.08806],[-117.92218,34.08824],[-117.92144,34.08884],[-117.92128,34.08882],[-117.92108,34.08878],[-117.92072,34.08873],[-117.92002,34.08862],[-117.91945,34.08853],[-117.91921,34.08849],[-117.91899,34.08846],[-117.91855,34.08839],[-117.91826,34.08834],[-117.91807,34.08832],[-117.91779,34.08827],[-117.9172,34.08831],[-117.91659,34.08834],[-117.91649,34.08835],[-117.91582,34.08849],[-117.91528,34.08852],[-117.91483,34.08855],[-117.91453,34.08858],[-117.91431,34.08859],[-117.91369,34.08864],[-117.91353,34.08865],[-117.91335,34.08866],[-117.91232,34.08873],[-117.91209,34.08874],[-117.91119,34.08881],[-117.91051,34.08885],[-117.90962,34.08891],[-117.90858,34.08898],[-117.90786,34.08902],[-117.90771,34.08904],[-117.90772,34.09016],[-117.90771,34.09059],[-117.90771,34.0915],[-117.90771,34.09208],[-117.90658,34.09208],[-117.90303,34.09209],[-117.90236,34.09209],[-117.90232,34.09209],[-117.89933,34.09209],[-117.89898,34.09209],[-117.89893,34.0921],[-117.8979,34.0921],[-117.89684,34.0921],[-117.89683,34.09201],[-117.89579,34.09201],[-117.89579,34.09209],[-117.89465,34.0921],[-117.89242,34.0921],[-117.89024,34.0921],[-117.89009,34.0921],[-117.8901,34.0922],[-117.8901,34.09239],[-117.8901,34.09286],[-117.89011,34.09506],[-117.89012,34.09574],[-117.89018,34.09574],[-117.8902,34.09613],[-117.89021,34.09654],[-117.89022,34.09712],[-117.89022,34.09721],[-117.89022,34.09757],[-117.89022,34.09814],[-117.89021,34.09892],[-117.89019,34.09941],[-117.8902,34.09945],[-117.89022,34.10173],[-117.89023,34.10224],[-117.89024,34.1027],[-117.89025,34.10355],[-117.89025,34.10382],[-117.89025,34.10418],[-117.89026,34.10424],[-117.89025,34.10454],[-117.89026,34.10489],[-117.89027,34.10523],[-117.89027,34.10666]],[[-117.90335,34.10019],[-117.90335,34.10039],[-117.90297,34.10042],[-117.90286,34.10043],[-117.90217,34.10048],[-117.90193,34.1005],[-117.90127,34.10054],[-117.90099,34.10056],[-117.90069,34.10059],[-117.90054,34.1006],[-117.90038,34.10061],[-117.90022,34.10063],[-117.89999,34.10065],[-117.89992,34.10066],[-117.8997,34.10069],[-117.89956,34.10071],[-117.89949,34.10072],[-117.8992,34.10077],[-117.89913,34.10078],[-117.89913,34.1005],[-117.89883,34.1005],[-117.89853,34.1005],[-117.89853,34.10057],[-117.89849,34.10057],[-117.8984,34.10057],[-117.8984,34.10048],[-117.89827,34.10044],[-117.89804,34.10036],[-117.89792,34.10032],[-117.89788,34.10031],[-117.89779,34.10028],[-117.89774,34.10029],[-117.89772,34.10029],[-117.89698,34.1004],[-117.89599,34.10055],[-117.89586,34.10057],[-117.8952,34.10067],[-117.89519,34.10067],[-117.89517,34.10067],[-117.89513,34.10067],[-117.89509,34.10067],[-117.89507,34.10067],[-117.89501,34.10067],[-117.89497,34.10067],[-117.89491,34.10066],[-117.89489,34.10066],[-117.89485,34.10066],[-117.89483,34.10066],[-117.89482,34.10066],[-117.89481,34.10066],[-117.89471,34.10066],[-117.89467,34.10067],[-117.89461,34.10067],[-117.89461,34.09952],[-117.89658,34.09952],[-117.89658,34.09943],[-117.89658,34.09937],[-117.89658,34.09927],[-117.89659,34.09592],[-117.89659,34.09578],[-117.89666,34.09578],[-117.89698,34.09578],[-117.89729,34.09578],[-117.89779,34.09578],[-117.89793,34.09578],[-117.89792,34.09394],[-117.89792,34.09388],[-117.89792,34.09327],[-117.89791,34.09293],[-117.89791,34.09269],[-117.8979,34.09252],[-117.8979,34.09233],[-117.8979,34.09214],[-117.89806,34.09214],[-117.89824,34.09214],[-117.89833,34.09214],[-117.89844,34.09214],[-117.89862,34.09214],[-117.89878,34.09214],[-117.89882,34.09214],[-117.89885,34.09214],[-117.89899,34.09214],[-117.89912,34.09214],[-117.89913,34.09214],[-117.89931,34.09214],[-117.89949,34.09214],[-117.89969,34.09214],[-117.89988,34.09214],[-117.90006,34.09214],[-117.90028,34.09214],[-117.90049,34.09214],[-117.90068,34.09214],[-117.90088,34.09214],[-117.9011,34.09214],[-117.9013,34.09214],[-117.9015,34.09213],[-117.90166,34.09213],[-117.90189,34.09213],[-117.90207,34.09213],[-117.90232,34.09213],[-117.90232,34.09246],[-117.90231,34.09253],[-117.90231,34.09255],[-117.90229,34.09263],[-117.90229,34.09281],[-117.90229,34.09283],[-117.90229,34.09298],[-117.90229,34.09315],[-117.90229,34.09332],[-117.90229,34.09348],[-117.90229,34.09365],[-117.90229,34.09381],[-117.90229,34.09398],[-117.90229,34.09414],[-117.90228,34.09431],[-117.90228,34.09432],[-117.90228,34.09447],[-117.90228,34.09461],[-117.90228,34.09477],[-117.90228,34.09486],[-117.90228,34.09493],[-117.90228,34.09506],[-117.90228,34.09526],[-117.90207,34.09526],[-117.90193,34.09526],[-117.90187,34.09526],[-117.90167,34.09526],[-117.90167,34.09527],[-117.90167,34.09531],[-117.90167,34.09566],[-117.90167,34.09579],[-117.90403,34.09578],[-117.90514,34.09578],[-117.90557,34.09578],[-117.90555,34.09817],[-117.90555,34.0986],[-117.90554,34.09877],[-117.90554,34.09907],[-117.90554,34.09941],[-117.90544,34.0994],[-117.90515,34.0994],[-117.9046,34.0994],[-117.90357,34.0994],[-117.90336,34.0994],[-117.90335,34.10019]],[[-117.8911,34.09931],[-117.89091,34.09931],[-117.89079,34.09931],[-117.8908,34.09897],[-117.89086,34.09897],[-117.89093,34.09897],[-117.89093,34.09844],[-117.89145,34.09844],[-117.89145,34.09823],[-117.89144,34.09777],[-117.89144,34.0976],[-117.89141,34.0975],[-117.89117,34.0975],[-117.89096,34.0975],[-117.89076,34.0975],[-117.89062,34.0975],[-117.89055,34.0975],[-117.89055,34.0972],[-117.89055,34.09705],[-117.89088,34.09705],[-117.89088,34.09683],[-117.89088,34.09667],[-117.89108,34.09667],[-117.89122,34.09667],[-117.89136,34.09667],[-117.89136,34.09647],[-117.89136,34.09639],[-117.89079,34.09639],[-117.89078,34.09579],[-117.89083,34.09579],[-117.89087,34.09579],[-117.89111,34.09579],[-117.89191,34.09579],[-117.8922,34.09579],[-117.89266,34.09579],[-117.89302,34.09579],[-117.89405,34.09579],[-117.8948,34.09579],[-117.89494,34.09579],[-117.89502,34.09579],[-117.89502,34.09591],[-117.89502,34.09598],[-117.89502,34.09666],[-117.89502,34.09686],[-117.89455,34.09686],[-117.89455,34.0984],[-117.89461,34.0984],[-117.89461,34.09859],[-117.89461,34.09874],[-117.89461,34.09893],[-117.89461,34.09908],[-117.89461,34.09926],[-117.89453,34.09926],[-117.8934,34.09927],[-117.89302,34.09928],[-117.89288,34.09928],[-117.89245,34.09931],[-117.89243,34.09931],[-117.89241,34.09931],[-117.89133,34.09931],[-117.8911,34.09931]]]},"properties":{"District":"1"}},
{"type":"Feature","geometry":{"type":"Polygon","coordinates":[[[-117.84647,34.09589],[-117.84627,34.09589],[-117.84627,34.09592],[-117.84599,34.09592],[-117.84521,34.09592],[-117.84489,34.09592],[-117.84476,34.09592],[-117.84476,34.09575],[-117.84476,34.09465],[-117.84487,34.09465],[-117.84493,34.09465],[-117.84498,34.09465],[-117.84509,34.09465],[-117.84514,34.09465],[-117.84521,34.09465],[-117.84532,34.09465],[-117.84546,34.09465],[-117.84546,34.09457],[-117.84546,34.09452],[-117.84546,34.09449],[-117.84545,34.09444],[-117.84545,34.09435],[-117.84545,34.0943],[-117.84545,34.09428],[-117.84545,34.09427],[-117.84546,34.09422],[-117.84545,34.09413],[-117.84545,34.0941],[-117.84545,34.09408],[-117.84545,34.09406],[-117.84545,34.09403],[-117.84545,34.09394],[-117.84546,34.09384],[-117.84546,34.0938],[-117.84546,34.09361],[-117.84546,34.09356],[-117.84546,34.09355],[-117.84546,34.09349],[-117.84545,34.09339],[-117.84523,34.09351],[-117.84465,34.0938],[-117.84416,34.09405],[-117.84332,34.09448],[-117.84275,34.09477],[-117.84144,34.09544],[-117.84098,34.09568],[-117.84073,34.0958],[-117.84135,34.09581],[-117.84158,34.09581],[-117.84191,34.09581],[-117.84201,34.09581],[-117.84223,34.09581],[-117.84246,34.09581],[-117.84269,34.09581],[-117.84374,34.09581],[-117.84421,34.09581],[-117.84421,34.09596],[-117.84421,34.09652],[-117.84421,34.09679],[-117.84421,34.09703],[-117.84421,34.09732],[-117.84421,34.09801],[-117.84421,34.09811],[-117.84421,34.09887],[-117.84421,34.09899],[-117.8442,34.099],[-117.84419,34.0991],[-117.8442,34.09917],[-117.8442,34.09932],[-117.84493,34.09932],[-117.84571,34.09932],[-117.84643,34.09932],[-117.84724,34.09932],[-117.84835,34.09932],[-117.8485,34.09932],[-117.84842,34.09935],[-117.84865,34.09935],[-117.84816,34.09951],[-117.84846,34.09951],[-117.84844,34.09952],[-117.84838,34.09954],[-117.8481,34.09963],[-117.848,34.09966],[-117.84773,34.09975],[-117.84748,34.09984],[-117.84739,34.09987],[-117.84651,34.10016],[-117.84647,34.10017],[-117.84638,34.1002],[-117.84624,34.10025],[-117.84563,34.10046],[-117.8455,34.1005],[-117.84542,34.10053],[-117.84508,34.10064],[-117.84508,34.10075],[-117.84508,34.10144],[-117.84507,34.10175],[-117.84647,34.10175],[-117.84647,34.10192],[-117.84647,34.10205],[-117.84647,34.10265],[-117.84647,34.10297],[-117.84665,34.10297],[-117.84711,34.10297],[-117.84748,34.10297],[-117.84797,34.10297],[-117.84797,34.10395],[-117.84797,34.10408],[-117.84796,34.10419],[-117.84776,34.10419],[-117.84752,34.10419],[-117.84747,34.10419],[-117.84725,34.10418],[-117.84719,34.10418],[-117.84697,34.10418],[-117.84697,34.10437],[-117.84697,34.10452],[-117.84697,34.10463],[-117.84697,34.10478],[-117.84676,34.10478],[-117.84651,34.10478],[-117.84651,34.10482],[-117.84651,34.10486],[-117.84676,34.10486],[-117.84728,34.10487],[-117.84778,34.10487],[-117.84823,34.10487],[-117.84829,34.10487],[-117.84856,34.10487],[-117.84856,34.10473],[-117.84856,34.10457],[-117.84856,34.1044],[-117.84856,34.10426],[-117.84856,34.10415],[-117.84856,34.10402],[-117.84856,34.10388],[-117.84855,34.10308],[-117.84855,34.10297],[-117.84915,34.10297],[-117.84985,34.10297],[-117.85024,34.10297],[-117.85075,34.10297],[-117.85075,34.10295],[-117.85161,34.10295],[-117.85229,34.10295],[-117.85251,34.10295],[-117.85251,34.1026],[-117.85291,34.1026],[-117.85291,34.10294],[-117.8533,34.10295],[-117.85343,34.10295],[-117.85431,34.10294],[-117.85464,34.10294],[-117.85493,34.10294],[-117.85494,34.10294],[-117.85495,34.10294],[-117.85496,34.10294],[-117.85497,34.10294],[-117.85498,34.10293],[-117.85499,34.10292],[-117.85499,34.10291],[-117.85499,34.1029],[-117.855,34.10269],[-117.855,34.10223],[-117.855,34.10206],[-117.85462,34.10206],[-117.85462,34.1017],[-117.85462,34.10149],[-117.855,34.10149],[-117.855,34.10132],[-117.855,34.10118],[-117.855,34.10021],[-117.855,34.09957],[-117.85499,34.09892],[-117.855,34.09872],[-117.855,34.09837],[-117.855,34.09818],[-117.855,34.09782],[-117.855,34.09761],[-117.85606,34.09762],[-117.85624,34.09762],[-117.85624,34.09767],[-117.85624,34.09781],[-117.85623,34.09924],[-117.85623,34.09934],[-117.85669,34.09934],[-117.85722,34.09934],[-117.85762,34.09934],[-117.8579,34.09934],[-117.85915,34.09934],[-117.85929,34.09934],[-117.85939,34.09934],[-117.85957,34.09934],[-117.85976,34.09934],[-117.85999,34.09934],[-117.86121,34.09934],[-117.86163,34.09934],[-117.86163,34.09954],[-117.86163,34.09957],[-117.86163,34.09964],[-117.86163,34.0998],[-117.86163,34.09992],[-117.86163,34.09999],[-117.86163,34.10014],[-117.86163,34.10029],[-117.86163,34.10033],[-117.86163,34.10045],[-117.86163,34.10051],[-117.86163,34.10062],[-117.86163,34.1007],[-117.86163,34.10076],[-117.86163,34.10078],[-117.86163,34.10088],[-117.86163,34.10091],[-117.86163,34.10093],[-117.86163,34.10111],[-117.86163,34.10133],[-117.86163,34.10156],[-117.86163,34.10183],[-117.86163,34.10204],[-117.86163,34.10215],[-117.86163,34.10224],[-117.86163,34.1024],[-117.86163,34.10267],[-117.86163,34.10292],[-117.86163,34.10303],[-117.86163,34.10317],[-117.86282,34.10317],[-117.86359,34.10317],[-117.8636,34.10317],[-117.86361,34.10317],[-117.86387,34.10316],[-117.86465,34.10316],[-117.86492,34.10316],[-117.86492,34.10328],[-117.86511,34.10328],[-117.86523,34.10328],[-117.86529,34.10328],[-117.86535,34.10328],[-117.86546,34.10328],[-117.86548,34.10328],[-117.86567,34.10328],[-117.86599,34.10328],[-117.86599,34.1032],[-117.86599,34.10304],[-117.86599,34.10279],[-117.86599,34.10123],[-117.8662,34.10123],[-117.86641,34.10123],[-117.86737,34.10123],[-117.86785,34.10124],[-117.86817,34.10124],[-117.86817,34.10033],[-117.86817,34.1],[-117.86817,34.09964],[-117.86817,34.09955],[-117.86817,34.09944],[-117.86817,34.09935],[-117.86967,34.09935],[-117.87006,34.09935],[-117.87021,34.09935],[-117.87021,34.09918],[-117.87021,34.099],[-117.87021,34.09895],[-117.87021,34.09894],[-117.87021,34.09889],[-117.87021,34.09884],[-117.87021,34.09866],[-117.8702,34.09848],[-117.8702,34.09833],[-117.8702,34.09819],[-117.8702,34.09807],[-117.8702,34.09796],[-117.8702,34.09775],[-117.8702,34.0976],[-117.8702,34.09739],[-117.8702,34.09727],[-117.8702,34.0972],[-117.8702,34.09706],[-117.8702,34.09678],[-117.8702,34.09645],[-117.8702,34.0963],[-117.87019,34.09611],[-117.87019,34.09588],[-117.87036,34.09589],[-117.87036,34.09577],[-117.87036,34.09569],[-117.87036,34.09565],[-117.87036,34.09513],[-117.87036,34.09509],[-117.87036,34.09484],[-117.87036,34.0948],[-117.87137,34.09481],[-117.87168,34.09481],[-117.87196,34.09481],[-117.87235,34.09481],[-117.87251,34.09481],[-117.87267,34.09481],[-117.87267,34.09459],[-117.87267,34.09424],[-117.87267,34.09421],[-117.87267,34.09404],[-117.87298,34.09404],[-117.87298,34.09385],[-117.87323,34.09385],[-117.87348,34.09385],[-117.87363,34.09385],[-117.87373,34.09385],[-117.874,34.09385],[-117.87417,34.09385],[-117.87425,34.09385],[-117.87451,34.09385],[-117.87476,34.09385],[-117.87503,34.09385],[-117.87528,34.09386],[-117.87553,34.09386],[-117.87579,34.09386],[-117.87597,34.09386],[-117.87605,34.09386],[-117.8763,34.09386],[-117.8763,34.09422],[-117.8763,34.09455],[-117.8763,34.09533],[-117.8763,34.09562],[-117.87586,34.09562],[-117.87501,34.09562],[-117.87411,34.09562],[-117.8736,34.09562],[-117.87338,34.09562],[-117.87316,34.09562],[-117.8727,34.09562],[-117.87246,34.09562],[-117.87246,34.09634],[-117.87247,34.09645],[-117.87247,34.09648],[-117.87161,34.09648],[-117.87161,34.09736],[-117.87246,34.09736],[-117.87247,34.09872],[-117.87162,34.09871],[-117.87162,34.09879],[-117.87162,34.09883],[-117.87162,34.09896],[-117.87162,34.09932],[-117.87162,34.09935],[-117.87168,34.09935],[-117.87168,34.09955],[-117.87168,34.09957],[-117.87169,34.09991],[-117.87149,34.09991],[-117.87149,34.09999],[-117.87149,34.10025],[-117.87259,34.10025],[-117.87259,34.0998],[-117.87259,34.09954],[-117.87259,34.09948],[-117.87306,34.09948],[-117.87389,34.09948],[-117.87456,34.09948],[-117.87503,34.09948],[-117.87557,34.09948],[-117.87653,34.09948],[-117.87718,34.09948],[-117.87718,34.09957],[-117.87718,34.0997],[-117.87718,34.09986],[-117.87719,34.10002],[-117.87719,34.10017],[-117.87719,34.10034],[-117.87719,34.10049],[-117.87719,34.10066],[-117.8772,34.10082],[-117.8772,34.10097],[-117.8772,34.10114],[-117.8772,34.10123],[-117.8772,34.10129],[-117.8772,34.10144],[-117.8772,34.10152],[-117.87721,34.1016],[-117.87721,34.10176],[-117.87721,34.10192],[-117.87721,34.10207],[-117.87721,34.10223],[-117.87722,34.10238],[-117.87722,34.10246],[-117.87723,34.10246],[-117.87724,34.10289],[-117.87724,34.10295],[-117.87724,34.103],[-117.87722,34.103],[-117.87722,34.10295],[-117.87669,34.10295],[-117.87562,34.10295],[-117.87535,34.10295],[-117.87524,34.10295],[-117.87461,34.10295],[-117.87454,34.10295],[-117.8743,34.10295],[-117.87362,34.10295],[-117.87359,34.10295],[-117.87352,34.10295],[-117.87346,34.10295],[-117.87339,34.10295],[-117.87317,34.10295],[-117.8731,34.10295],[-117.87286,34.10294],[-117.87285,34.10295],[-117.87284,34.10294],[-117.87283,34.10294],[-117.87269,34.10294],[-117.87253,34.10294],[-117.87244,34.10294],[-117.87243,34.10321],[-117.87243,34.10322],[-117.87244,34.10323],[-117.87244,34.10324],[-117.87244,34.10413],[-117.87244,34.10423],[-117.87244,34.10424],[-117.87243,34.10425],[-117.87243,34.10437],[-117.87244,34.10468],[-117.87244,34.10481],[-117.87244,34.10487],[-117.87231,34.10487],[-117.8721,34.10487],[-117.87192,34.10487],[-117.87172,34.10487],[-117.87154,34.10487],[-117.87133,34.10487],[-117.87114,34.10487],[-117.87095,34.10487],[-117.87076,34.10486],[-117.87056,34.10486],[-117.87036,34.10486],[-117.87036,34.1045],[-117.87036,34.10429],[-117.87046,34.10429],[-117.87055,34.10429],[-117.87055,34.10388],[-117.87047,34.10388],[-117.87036,34.10388],[-117.87036,34.10386],[-117.87036,34.10372],[-117.87036,34.10352],[-117.87036,34.10338],[-117.87036,34.1032],[-117.87036,34.10306],[-117.86991,34.10306],[-117.86927,34.10306],[-117.86928,34.10369],[-117.86928,34.10462],[-117.86922,34.10462],[-117.86866,34.10462],[-117.86817,34.10462],[-117.86817,34.10472],[-117.86817,34.10489],[-117.86817,34.10508],[-117.86817,34.10537],[-117.86817,34.10554],[-117.86817,34.10574],[-117.86827,34.10574],[-117.86837,34.10574],[-117.86925,34.10574],[-117.86925,34.10584],[-117.86925,34.10598],[-117.86925,34.10636],[-117.86925,34.10658],[-117.87038,34.1065],[-117.8705,34.10649],[-117.87062,34.10648],[-117.87183,34.10635],[-117.87252,34.10627],[-117.87286,34.10624],[-117.87335,34.10618],[-117.87348,34.10616],[-117.87393,34.1061],[-117.87416,34.10607],[-117.87509,34.10589],[-117.87542,34.10583],[-117.87596,34.10573],[-117.87612,34.1057],[-117.87623,34.10568],[-117.87629,34.10567],[-117.87635,34.10566],[-117.8764,34.10565],[-117.87648,34.10564],[-117.87653,34.10563],[-117.8766,34.10563],[-117.87666,34.10562],[-117.87673,34.10562],[-117.87679,34.10561],[-117.87692,34.10561],[-117.87706,34.10561],[-117.87719,34.10562],[-117.87725,34.10563],[-117.87732,34.10563],[-117.87738,34.10564],[-117.87748,34.10565],[-117.87755,34.10566],[-117.87763,34.10568],[-117.87779,34.10571],[-117.87779,34.10544],[-117.87779,34.10539],[-117.87812,34.10539],[-117.87959,34.1054],[-117.88034,34.1054],[-117.88043,34.1054],[-117.88066,34.1054],[-117.88066,34.10561],[-117.88162,34.10561],[-117.88162,34.10574],[-117.88163,34.1061],[-117.88187,34.10608],[-117.88309,34.10595],[-117.88309,34.10658],[-117.88335,34.10659],[-117.88371,34.1066],[-117.88461,34.10661],[-117.88546,34.10662],[-117.88602,34.10663],[-117.88637,34.10663],[-117.88662,34.10663],[-117.88688,34.10664],[-117.88717,34.10664],[-117.88745,34.10664],[-117.88794,34.10664],[-117.88821,34.10665],[-117.88924,34.10665],[-117.88977,34.10666],[-117.89009,34.10666],[-117.89027,34.10666],[-117.89027,34.10523],[-117.89026,34.10489],[-117.89025,34.10454],[-117.89026,34.10424],[-117.89025,34.10418],[-117.89025,34.10382],[-117.89025,34.10355],[-117.89024,34.1027],[-117.89023,34.10224],[-117.89022,34.10173],[-117.8902,34.09945],[-117.89019,34.09941],[-117.88902,34.09943],[-117.88782,34.09943],[-117.8876,34.09943],[-117.88709,34.09944],[-117.88625,34.09945],[-117.88531,34.09943],[-117.88467,34.09943],[-117.88413,34.09942],[-117.88222,34.09942],[-117.88143,34.09941],[-117.88142,34.0991],[-117.88142,34.09865],[-117.88141,34.09792],[-117.88141,34.09752],[-117.88141,34.09723],[-117.88141,34.09651],[-117.88141,34.09614],[-117.88141,34.09575],[-117.8814,34.09555],[-117.88138,34.09461],[-117.88139,34.09428],[-117.8814,34.09402],[-117.8814,34.09396],[-117.88139,34.09368],[-117.88138,34.09304],[-117.88138,34.09286],[-117.88138,34.09262],[-117.88136,34.09209],[-117.88135,34.09156],[-117.88134,34.09079],[-117.88129,34.0908],[-117.88023,34.09087],[-117.87871,34.09097],[-117.87772,34.09103],[-117.87724,34.09106],[-117.87623,34.09114],[-117.87618,34.09114],[-117.87614,34.09115],[-117.87572,34.0912],[-117.87502,34.09128],[-117.87418,34.09132],[-117.87382,34.09132],[-117.8726,34.09133],[-117.87247,34.09133],[-117.87247,34.09177],[-117.87247,34.09181],[-117.87246,34.09209],[-117.87223,34.0921],[-117.87135,34.09212],[-117.87077,34.09218],[-117.86994,34.09233],[-117.8691,34.09259],[-117.86859,34.09276],[-117.86818,34.0929],[-117.86806,34.09295],[-117.86698,34.09329],[-117.866,34.09361],[-117.86573,34.0937],[-117.86448,34.09413],[-117.86382,34.09436],[-117.86381,34.09488],[-117.86382,34.09518],[-117.86381,34.0958],[-117.86377,34.0958],[-117.86312,34.0958],[-117.86268,34.0958],[-117.8622,34.0958],[-117.86095,34.09581],[-117.85945,34.0958],[-117.85933,34.0958],[-117.85777,34.0958],[-117.85678,34.0958],[-117.85638,34.0958],[-117.85629,34.0958],[-117.85621,34.0958],[-117.85607,34.0958],[-117.85585,34.0958],[-117.8551,34.09581],[-117.8547,34.09581],[-117.85443,34.09581],[-117.85418,34.09581],[-117.85357,34.09581],[-117.85343,34.09581],[-117.85294,34.0958],[-117.85225,34.09581],[-117.85131,34.09581],[-117.84995,34.09581],[-117.84944,34.0958],[-117.84909,34.09581],[-117.84863,34.09581],[-117.84763,34.09581],[-117.84647,34.09589]]]},"properties":{"District":"2"}},
{"type":"Feature","geometry":{"type":"Polygon","coordinates":[[[-117.89014,34.08626],[-117.88975,34.08625],[-117.88925,34.08626],[-117.88885,34.08625],[-117.88789,34.08625],[-117.88789,34.08617],[-117.88783,34.08617],[-117.88584,34.08616],[-117.88528,34.08615],[-117.88354,34.08614],[-117.88168,34.08612],[-117.88134,34.08612],[-117.88128,34.08612],[-117.8802,34.08612],[-117.87903,34.08612],[-117.87861,34.08612],[-117.87804,34.08612],[-117.87737,34.08613],[-117.87704,34.08613],[-117.87547,34.08613],[-117.87459,34.08612],[-117.87399,34.08613],[-117.87293,34.0861],[-117.8726,34.0861],[-117.87245,34.0861],[-117.87245,34.08625],[-117.87246,34.0867],[-117.87246,34.08685],[-117.87193,34.08689],[-117.87171,34.08693],[-117.8713,34.087],[-117.87076,34.08707],[-117.87039,34.08714],[-117.86945,34.08729],[-117.8694,34.08729],[-117.86845,34.08743],[-117.86858,34.08784],[-117.86857,34.08833],[-117.86858,34.08925],[-117.86861,34.08977],[-117.86771,34.08978],[-117.86741,34.08978],[-117.86674,34.0898],[-117.86623,34.08981],[-117.86617,34.08981],[-117.86581,34.08982],[-117.86515,34.08984],[-117.86488,34.08985],[-117.86458,34.08986],[-117.86435,34.08986],[-117.86379,34.08987],[-117.86375,34.08986],[-117.86207,34.08987],[-117.86118,34.08987],[-117.8603,34.08988],[-117.85964,34.08988],[-117.85944,34.08986],[-117.85915,34.08983],[-117.8583,34.08981],[-117.85699,34.08979],[-117.85678,34.0898],[-117.85616,34.0898],[-117.85565,34.08981],[-117.85405,34.08982],[-117.85354,34.08982],[-117.85353,34.08931],[-117.85293,34.0896],[-117.85216,34.09002],[-117.85118,34.09059],[-117.85022,34.09108],[-117.85002,34.09118],[-117.84986,34.09126],[-117.84986,34.09147],[-117.84986,34.09164],[-117.84986,34.09185],[-117.84987,34.09215],[-117.84987,34.09259],[-117.84987,34.09296],[-117.84987,34.0933],[-117.84988,34.09357],[-117.84988,34.09373],[-117.84988,34.09385],[-117.8497,34.09385],[-117.84947,34.09385],[-117.84944,34.09385],[-117.84941,34.09385],[-117.84938,34.09385],[-117.84919,34.09385],[-117.84898,34.09385],[-117.84891,34.09385],[-117.84877,34.09385],[-117.84856,34.09385],[-117.84852,34.09385],[-117.84836,34.09384],[-117.84828,34.09384],[-117.84815,34.09384],[-117.84815,34.09412],[-117.84815,34.09424],[-117.84815,34.09441],[-117.84815,34.09466],[-117.8479,34.09466],[-117.84648,34.09466],[-117.84648,34.09476],[-117.84648,34.0949],[-117.84648,34.09504],[-117.84647,34.09522],[-117.84647,34.09537],[-117.84647,34.09589],[-117.84763,34.09581],[-117.84863,34.09581],[-117.84909,34.09581],[-117.84944,34.0958],[-117.84995,34.09581],[-117.85131,34.09581],[-117.85225,34.09581],[-117.85294,34.0958],[-117.85343,34.09581],[-117.85357,34.09581],[-117.85418,34.09581],[-117.85443,34.09581],[-117.8547,34.09581],[-117.8551,34.09581],[-117.85585,34.0958],[-117.85607,34.0958],[-117.85621,34.0958],[-117.85629,34.0958],[-117.85638,34.0958],[-117.85678,34.0958],[-117.85777,34.0958],[-117.85933,34.0958],[-117.85945,34.0958],[-117.86095,34.09581],[-117.8622,34.0958],[-117.86268,34.0958],[-117.86312,34.0958],[-117.86377,34.0958],[-117.86381,34.0958],[-117.86382,34.09518],[-117.86381,34.09488],[-117.86382,34.09436],[-117.86448,34.09413],[-117.86573,34.0937],[-117.866,34.09361],[-117.86698,34.09329],[-117.86806,34.09295],[-117.86818,34.0929],[-117.86859,34.09276],[-117.8691,34.09259],[-117.86994,34.09233],[-117.87077,34.09218],[-117.87135,34.09212],[-117.87223,34.0921],[-117.87246,34.09209],[-117.87247,34.09181],[-117.87247,34.09177],[-117.87247,34.09133],[-117.8726,34.09133],[-117.87382,34.09132],[-117.87418,34.09132],[-117.87502,34.09128],[-117.87572,34.0912],[-117.87614,34.09115],[-117.87618,34.09114],[-117.87623,34.09114],[-117.87724,34.09106],[-117.87772,34.09103],[-117.87871,34.09097],[-117.88023,34.09087],[-117.88129,34.0908],[-117.88134,34.09079],[-117.88135,34.09156],[-117.88136,34.09209],[-117.88138,34.09262],[-117.88138,34.09286],[-117.88138,34.09304],[-117.88139,34.09368],[-117.8814,34.09396],[-117.8814,34.09402],[-117.88139,34.09428],[-117.88138,34.09461],[-117.8814,34.09555],[-117.88141,34.09575],[-117.88141,34.09614],[-117.88141,34.09651],[-117.88141,34.09723],[-117.88141,34.09752],[-117.88141,34.09792],[-117.88142,34.09865],[-117.88142,34.0991],[-117.88143,34.09941],[-117.88222,34.09942],[-117.88413,34.09942],[-117.88467,34.09943],[-117.88531,34.09943],[-117.88625,34.09945],[-117.88709,34.09944],[-117.8876,34.09943],[-117.88782,34.09943],[-117.88902,34.09943],[-117.89019,34.09941],[-117.89021,34.09892],[-117.89022,34.09814],[-117.89022,34.09757],[-117.89022,34.09721],[-117.89022,34.09712],[-117.89021,34.09654],[-117.8902,34.09613],[-117.89018,34.09574],[-117.89012,34.09574],[-117.89011,34.09506],[-117.8901,34.09286],[-117.8901,34.09239],[-117.8901,34.0922],[-117.89009,34.0921],[-117.89024,34.0921],[-117.89242,34.0921],[-117.89465,34.0921],[-117.89579,34.09209],[-117.89579,34.09201],[-117.89683,34.09201],[-117.89684,34.0921],[-117.8979,34.0921],[-117.89893,34.0921],[-117.89898,34.09209],[-117.89899,34.09163],[-117.89899,34.09157],[-117.89901,34.0908],[-117.89901,34.09057],[-117.899,34.09023],[-117.89899,34.08963],[-117.89899,34.08961],[-117.89898,34.08945],[-117.89898,34.08934],[-117.89897,34.08888],[-117.89897,34.08853],[-117.89897,34.08804],[-117.89898,34.0873],[-117.89898,34.08638],[-117.89897,34.08632],[-117.89814,34.08632],[-117.89674,34.08632],[-117.89573,34.08631],[-117.8949,34.0863],[-117.89447,34.0863],[-117.89233,34.08629],[-117.89123,34.08627],[-117.89014,34.08626]]]},"properties":{"District":"3"}},
{"type":"Feature","geometry":{"type":"Polygon","coordinates":[[[-117.84697,34.09313],[-117.84697,34.09321],[-117.84698,34.09337],[-117.84698,34.09357],[-117.84699,34.09357],[-117.84762,34.09357],[-117.84815,34.09357],[-117.84814,34.0933],[-117.84814,34.09304],[-117.84814,34.09276],[-117.84814,34.09247],[-117.84813,34.09221],[-117.84813,34.09218],[-117.84813,34.09215],[-117.84945,34.09147],[-117.84965,34.09137],[-117.84986,34.09126],[-117.85002,34.09118],[-117.85002,34.09093],[-117.84947,34.0912],[-117.84946,34.09118],[-117.84945,34.09117],[-117.84937,34.09106],[-117.8493,34.09096],[-117.8493,34.09093],[-117.8493,34.09082],[-117.84929,34.09072],[-117.84929,34.09056],[-117.84982,34.09055],[-117.84983,34.09055],[-117.84993,34.09055],[-117.85002,34.09055],[-117.85002,34.09053],[-117.85001,34.0903],[-117.85001,34.09028],[-117.85001,34.09025],[-117.85001,34.09003],[-117.85001,34.0899],[-117.84993,34.0899],[-117.84983,34.0899],[-117.84928,34.0899],[-117.84928,34.08972],[-117.84928,34.08965],[-117.84928,34.08951],[-117.84928,34.08939],[-117.84928,34.0893],[-117.84928,34.08912],[-117.84983,34.08911],[-117.84993,34.08911],[-117.84992,34.08882],[-117.84992,34.08818],[-117.85117,34.08818],[-117.85117,34.08824],[-117.85117,34.08861],[-117.85117,34.08866],[-117.85118,34.08876],[-117.85118,34.08894],[-117.85118,34.08913],[-117.85118,34.08921],[-117.85118,34.08933],[-117.85118,34.08948],[-117.85118,34.08977],[-117.85118,34.08999],[-117.85118,34.09004],[-117.85118,34.0903],[-117.85118,34.09036],[-117.85118,34.09042],[-117.85118,34.09059],[-117.85216,34.09002],[-117.85293,34.0896],[-117.85353,34.08931],[-117.85354,34.08982],[-117.85405,34.08982],[-117.85565,34.08981],[-117.85616,34.0898],[-117.85678,34.0898],[-117.85699,34.08979],[-117.8583,34.08981],[-117.85915,34.08983],[-117.85944,34.08986],[-117.85964,34.08988],[-117.8603,34.08988],[-117.86118,34.08987],[-117.86207,34.08987],[-117.86375,34.08986],[-117.86379,34.08987],[-117.86435,34.08986],[-117.86458,34.08986],[-117.86488,34.08985],[-117.86515,34.08984],[-117.86581,34.08982],[-117.86617,34.08981],[-117.86623,34.08981],[-117.86674,34.0898],[-117.86741,34.08978],[-117.86771,34.08978],[-117.86861,34.08977],[-117.86858,34.08925],[-117.86857,34.08833],[-117.86858,34.08784],[-117.86845,34.08743],[-117.8694,34.08729],[-117.86945,34.08729],[-117.87039,34.08714],[-117.87076,34.08707],[-117.8713,34.087],[-117.87171,34.08693],[-117.87193,34.08689],[-117.87246,34.08685],[-117.87246,34.0867],[-117.87245,34.08625],[-117.87245,34.0861],[-117.8726,34.0861],[-117.87293,34.0861],[-117.87399,34.08613],[-117.87459,34.08612],[-117.87547,34.08613],[-117.87704,34.08613],[-117.87737,34.08613],[-117.87804,34.08612],[-117.87861,34.08612],[-117.87903,34.08612],[-117.8802,34.08612],[-117.88128,34.08612],[-117.88134,34.08612],[-117.88168,34.08612],[-117.88354,34.08614],[-117.88528,34.08615],[-117.88584,34.08616],[-117.88783,34.08617],[-117.88789,34.08617],[-117.88789,34.08625],[-117.88885,34.08625],[-117.88925,34.08626],[-117.88975,34.08625],[-117.89014,34.08626],[-117.89013,34.08567],[-117.89012,34.08527],[-117.89013,34.08507],[-117.89013,34.08447],[-117.89013,34.08387],[-117.89013,34.08365],[-117.89011,34.08333],[-117.89011,34.08325],[-117.89011,34.08265],[-117.89011,34.08258],[-117.89012,34.08216],[-117.89013,34.08202],[-117.89013,34.08168],[-117.89012,34.08149],[-117.89012,34.08143],[-117.89013,34.08084],[-117.89013,34.08007],[-117.89013,34.07906],[-117.89006,34.07906],[-117.88928,34.07905],[-117.88842,34.07904],[-117.88842,34.07898],[-117.88797,34.07898],[-117.88787,34.07898],[-117.88734,34.07898],[-117.88634,34.07897],[-117.88626,34.07897],[-117.88528,34.07897],[-117.88523,34.07897],[-117.88439,34.07896],[-117.88352,34.07895],[-117.8832,34.07895],[-117.88131,34.07892],[-117.88126,34.07893],[-117.88054,34.07892],[-117.87973,34.07891],[-117.87867,34.07891],[-117.87659,34.07889],[-117.87643,34.07889],[-117.87619,34.07889],[-117.87619,34.07903],[-117.87468,34.07903],[-117.87467,34.07903],[-117.87466,34.07903],[-117.87464,34.07904],[-117.87463,34.07904],[-117.87462,34.07905],[-117.87461,34.07906],[-117.87461,34.07907],[-117.8746,34.07908],[-117.8746,34.07909],[-117.87457,34.07926],[-117.87455,34.07935],[-117.87457,34.07935],[-117.87468,34.07935],[-117.87471,34.07935],[-117.87471,34.08252],[-117.87464,34.08252],[-117.87424,34.08251],[-117.87313,34.0825],[-117.87251,34.0825],[-117.87251,34.0822],[-117.87251,34.08116],[-117.87251,34.08071],[-117.8725,34.08016],[-117.8725,34.0791],[-117.87249,34.07889],[-117.87178,34.07887],[-117.87178,34.0789],[-117.87178,34.07933],[-117.87177,34.07936],[-117.87177,34.07939],[-117.87175,34.07941],[-117.87174,34.07945],[-117.87147,34.07958],[-117.87143,34.07926],[-117.87101,34.07958],[-117.87097,34.07962],[-117.87074,34.07979],[-117.87056,34.07987],[-117.87036,34.07997],[-117.87018,34.08006],[-117.86974,34.08027],[-117.86974,34.07995],[-117.86974,34.07978],[-117.86974,34.07965],[-117.86964,34.07965],[-117.86964,34.07948],[-117.86964,34.07944],[-117.86967,34.0794],[-117.86967,34.07924],[-117.86967,34.07922],[-117.86926,34.07923],[-117.86926,34.0792],[-117.86925,34.07874],[-117.86892,34.07881],[-117.86892,34.07897],[-117.86865,34.07897],[-117.86849,34.07896],[-117.86825,34.07896],[-117.86815,34.07896],[-117.86793,34.07896],[-117.86792,34.07896],[-117.86796,34.0791],[-117.86802,34.07935],[-117.8678,34.07936],[-117.8678,34.07945],[-117.8678,34.07953],[-117.8679,34.0796],[-117.86819,34.07979],[-117.86796,34.07988],[-117.86771,34.07997],[-117.86773,34.0797],[-117.86753,34.07967],[-117.86732,34.07964],[-117.8673,34.07964],[-117.86709,34.07978],[-117.86692,34.07997],[-117.86689,34.08024],[-117.86685,34.08034],[-117.86673,34.08044],[-117.86656,34.0806],[-117.86645,34.0807],[-117.86667,34.0807],[-117.86683,34.08069],[-117.86757,34.08069],[-117.86805,34.08069],[-117.86805,34.0808],[-117.86805,34.08098],[-117.86805,34.08124],[-117.86805,34.08123],[-117.86805,34.08122],[-117.86804,34.08121],[-117.86803,34.08121],[-117.86803,34.0812],[-117.86802,34.0812],[-117.86801,34.0812],[-117.86767,34.0812],[-117.86766,34.08217],[-117.86766,34.08243],[-117.86721,34.08243],[-117.86621,34.08243],[-117.86522,34.08243],[-117.86428,34.08243],[-117.86376,34.08243],[-117.86376,34.08242],[-117.86376,34.0823],[-117.86376,34.08212],[-117.86375,34.08197],[-117.86375,34.08182],[-117.86375,34.08176],[-117.86375,34.08154],[-117.86374,34.08148],[-117.86374,34.08132],[-117.86374,34.08109],[-117.86374,34.08098],[-117.86373,34.08073],[-117.86158,34.08072],[-117.86143,34.08072],[-117.86143,34.08065],[-117.86145,34.08064],[-117.86146,34.08064],[-117.86147,34.08063],[-117.86148,34.08063],[-117.86149,34.08062],[-117.86151,34.08061],[-117.86152,34.0806],[-117.86154,34.08058],[-117.86158,34.08055],[-117.86169,34.08046],[-117.86189,34.0803],[-117.86195,34.08025],[-117.86196,34.08025],[-117.86196,34.08024],[-117.86197,34.08024],[-117.86197,34.08023],[-117.86198,34.08023],[-117.86198,34.08022],[-117.86199,34.08022],[-117.86199,34.08021],[-117.862,34.08021],[-117.862,34.0802],[-117.862,34.08019],[-117.86201,34.08019],[-117.86201,34.08018],[-117.86201,34.08017],[-117.86202,34.08017],[-117.86202,34.08016],[-117.86202,34.08015],[-117.86202,34.08014],[-117.86202,34.08013],[-117.86202,34.08012],[-117.86203,34.08012],[-117.86203,34.08011],[-117.86203,34.0801],[-117.86202,34.08009],[-117.86202,34.08008],[-117.86202,34.08007],[-117.86201,34.08004],[-117.86199,34.08001],[-117.86197,34.07999],[-117.86189,34.07991],[-117.86174,34.07976],[-117.86168,34.07969],[-117.86176,34.07965],[-117.86161,34.0795],[-117.86156,34.07944],[-117.86154,34.07942],[-117.86145,34.07934],[-117.86141,34.0793],[-117.86035,34.07985],[-117.8601,34.07995],[-117.85967,34.08005],[-117.85965,34.08006],[-117.85943,34.08013],[-117.85931,34.0802],[-117.85924,34.08024],[-117.85919,34.08029],[-117.85915,34.08035],[-117.85912,34.08041],[-117.85909,34.08046],[-117.85907,34.08053],[-117.85906,34.08059],[-117.85906,34.08065],[-117.85906,34.08071],[-117.85903,34.08071],[-117.85894,34.08071],[-117.85884,34.08071],[-117.85878,34.08071],[-117.85828,34.08071],[-117.85824,34.08071],[-117.8582,34.08071],[-117.85784,34.08071],[-117.85772,34.08071],[-117.85719,34.0807],[-117.85719,34.08079],[-117.8572,34.08094],[-117.8572,34.081],[-117.8572,34.08117],[-117.8572,34.0813],[-117.8572,34.08142],[-117.8572,34.08164],[-117.85702,34.08164],[-117.85654,34.08164],[-117.85648,34.08164],[-117.85637,34.08164],[-117.85587,34.08164],[-117.85515,34.08165],[-117.85502,34.08165],[-117.85421,34.08165],[-117.85395,34.08165],[-117.8539,34.08165],[-117.85369,34.08165],[-117.85341,34.08165],[-117.85332,34.08165],[-117.85324,34.08165],[-117.85266,34.08165],[-117.85247,34.08145],[-117.85231,34.08127],[-117.85228,34.08124],[-117.85209,34.08092],[-117.85193,34.08068],[-117.85204,34.08036],[-117.85234,34.08024],[-117.85244,34.0802],[-117.85274,34.08008],[-117.85281,34.07998],[-117.85296,34.07979],[-117.85299,34.07974],[-117.8531,34.0796],[-117.85321,34.07945],[-117.85339,34.07921],[-117.8533,34.07913],[-117.85323,34.07906],[-117.85302,34.07886],[-117.85292,34.07876],[-117.85277,34.07862],[-117.85265,34.0785],[-117.8524,34.07826],[-117.85239,34.07825],[-117.85214,34.07801],[-117.85206,34.07794],[-117.85193,34.07781],[-117.85178,34.07767],[-117.85174,34.07764],[-117.85171,34.07763],[-117.85166,34.07761],[-117.85145,34.0775],[-117.85159,34.07723],[-117.85183,34.07679],[-117.85179,34.07678],[-117.85171,34.07677],[-117.85163,34.07676],[-117.85147,34.07672],[-117.85138,34.0767],[-117.8513,34.07668],[-117.85122,34.07665],[-117.85121,34.07666],[-117.85096,34.07718],[-117.85092,34.07727],[-117.85085,34.07723],[-117.84927,34.0765],[-117.84718,34.07553],[-117.84663,34.07611],[-117.84614,34.07662],[-117.8452,34.07761],[-117.84495,34.07788],[-117.84472,34.07783],[-117.84407,34.07795],[-117.84386,34.07787],[-117.84385,34.07789],[-117.8438,34.07796],[-117.84375,34.07803],[-117.84374,34.07804],[-117.84367,34.07811],[-117.8436,34.07817],[-117.84352,34.07823],[-117.84344,34.07829],[-117.8434,34.07831],[-117.84335,34.07833],[-117.84407,34.07881],[-117.84365,34.07925],[-117.84321,34.07972],[-117.84269,34.0802],[-117.84203,34.08081],[-117.84189,34.08094],[-117.84354,34.08174],[-117.84359,34.08176],[-117.84364,34.08178],[-117.84368,34.0818],[-117.84368,34.08181],[-117.84369,34.08181],[-117.84374,34.08183],[-117.84379,34.08185],[-117.84383,34.08187],[-117.84385,34.08187],[-117.8439,34.08189],[-117.84398,34.08192],[-117.84401,34.08193],[-117.84406,34.08195],[-117.84413,34.08197],[-117.84417,34.08198],[-117.84423,34.082],[-117.84428,34.08201],[-117.84434,34.08203],[-117.8444,34.08204],[-117.84444,34.08205],[-117.84451,34.08206],[-117.84457,34.08207],[-117.8446,34.08208],[-117.84469,34.08209],[-117.84476,34.0821],[-117.8448,34.08211],[-117.84486,34.08211],[-117.84493,34.08212],[-117.845,34.08213],[-117.8451,34.08213],[-117.8477,34.08231],[-117.84968,34.08245],[-117.84972,34.08245],[-117.84983,34.08267],[-117.84985,34.08266],[-117.84986,34.08266],[-117.84988,34.08266],[-117.84989,34.08266],[-117.84991,34.08265],[-117.84992,34.08265],[-117.84994,34.08265],[-117.84995,34.08264],[-117.84997,34.08264],[-117.84999,34.08263],[-117.85,34.08263],[-117.85001,34.08263],[-117.85003,34.08262],[-117.85004,34.08262],[-117.85006,34.08261],[-117.85008,34.0826],[-117.85012,34.08259],[-117.85016,34.08259],[-117.85018,34.08258],[-117.85022,34.08258],[-117.85025,34.08257],[-117.85027,34.08257],[-117.85029,34.08257],[-117.85031,34.08257],[-117.85032,34.08257],[-117.85107,34.08262],[-117.85148,34.08265],[-117.85172,34.08265],[-117.85303,34.08265],[-117.85331,34.08265],[-117.85333,34.08265],[-117.85334,34.08265],[-117.85337,34.08265],[-117.85338,34.08265],[-117.8534,34.08265],[-117.85342,34.08266],[-117.85343,34.08285],[-117.85344,34.08288],[-117.85344,34.0829],[-117.85344,34.08291],[-117.85344,34.08292],[-117.85345,34.08293],[-117.85345,34.08294],[-117.85345,34.08295],[-117.85346,34.08296],[-117.85346,34.08297],[-117.85347,34.08299],[-117.85348,34.083],[-117.85349,34.08301],[-117.85349,34.08302],[-117.8535,34.08303],[-117.85351,34.08304],[-117.85352,34.08305],[-117.85353,34.08306],[-117.85354,34.08307],[-117.85355,34.08308],[-117.85357,34.08309],[-117.85358,34.0831],[-117.85359,34.08311],[-117.8536,34.08311],[-117.85362,34.08312],[-117.85363,34.08313],[-117.85364,34.08314],[-117.85365,34.08315],[-117.85366,34.08315],[-117.85367,34.08316],[-117.85368,34.08317],[-117.85369,34.08318],[-117.85371,34.08319],[-117.85372,34.08321],[-117.85374,34.08322],[-117.85375,34.08324],[-117.85377,34.08326],[-117.85378,34.08327],[-117.85379,34.08327],[-117.85379,34.08328],[-117.8538,34.08329],[-117.85381,34.0833],[-117.85382,34.08331],[-117.85382,34.08332],[-117.85383,34.08333],[-117.85383,34.08334],[-117.85384,34.08334],[-117.85385,34.08336],[-117.85386,34.08337],[-117.85386,34.08338],[-117.85386,34.08339],[-117.85387,34.0834],[-117.85388,34.08341],[-117.85388,34.08342],[-117.85389,34.08343],[-117.8539,34.08346],[-117.8539,34.08347],[-117.8539,34.08348],[-117.85391,34.08349],[-117.85391,34.0835],[-117.85392,34.08352],[-117.85392,34.08353],[-117.85392,34.08354],[-117.85393,34.08355],[-117.85393,34.08357],[-117.85393,34.08358],[-117.85393,34.08359],[-117.85393,34.08361],[-117.85393,34.08362],[-117.85393,34.08363],[-117.85393,34.08365],[-117.85393,34.08368],[-117.85392,34.08369],[-117.8539,34.08373],[-117.85367,34.08407],[-117.85345,34.08439],[-117.85345,34.0847],[-117.85345,34.08492],[-117.85345,34.08507],[-117.85345,34.0853],[-117.85345,34.08614],[-117.85285,34.08614],[-117.8526,34.08614],[-117.85221,34.08614],[-117.85174,34.08614],[-117.85157,34.08614],[-117.85151,34.08614],[-117.85145,34.08614],[-117.85139,34.08615],[-117.85132,34.08617],[-117.85128,34.08618],[-117.85124,34.08619],[-117.8512,34.0862],[-117.85115,34.08621],[-117.85115,34.08638],[-117.85116,34.08682],[-117.85116,34.08716],[-117.85116,34.08728],[-117.85116,34.08731],[-117.85116,34.08745],[-117.85117,34.08769],[-117.85022,34.08769],[-117.84992,34.08769],[-117.84992,34.08793],[-117.84984,34.08797],[-117.84982,34.08797],[-117.84981,34.08798],[-117.84972,34.08802],[-117.84967,34.08804],[-117.84928,34.08822],[-117.84927,34.08822],[-117.84909,34.0883],[-117.849,34.08834],[-117.84885,34.08841],[-117.84874,34.08846],[-117.8486,34.08852],[-117.84837,34.08862],[-117.84826,34.08868],[-117.84801,34.08882],[-117.84725,34.08928],[-117.84725,34.08945],[-117.84768,34.08951],[-117.84744,34.08982],[-117.84726,34.09004],[-117.8472,34.0901],[-117.84695,34.09036],[-117.84685,34.09046],[-117.84706,34.0907],[-117.84706,34.09081],[-117.84706,34.09127],[-117.84716,34.09121],[-117.84722,34.09129],[-117.84725,34.09133],[-117.84736,34.09147],[-117.84736,34.09148],[-117.84751,34.09167],[-117.84755,34.09174],[-117.84756,34.09187],[-117.84758,34.09213],[-117.84758,34.09214],[-117.84758,34.09217],[-117.84648,34.09274],[-117.84648,34.09306],[-117.84648,34.09307],[-117.84648,34.09308],[-117.84649,34.09308],[-117.84653,34.09305],[-117.84697,34.09283],[-117.84697,34.09313]],[[-117.87234,34.08268],[-117.87234,34.08313],[-117.87234,34.08343],[-117.87235,34.08388],[-117.8722,34.08387],[-117.87189,34.08387],[-117.87154,34.08387],[-117.87137,34.08387],[-117.87125,34.08387],[-117.87089,34.08387],[-117.87058,34.08387],[-117.87026,34.08387],[-117.87,34.08387],[-117.86989,34.08387],[-117.86959,34.08387],[-117.86941,34.08387],[-117.86941,34.08368],[-117.86941,34.08346],[-117.86941,34.08335],[-117.86941,34.08313],[-117.86855,34.08313],[-117.86855,34.08253],[-117.86855,34.08239],[-117.86871,34.08239],[-117.86871,34.08081],[-117.8692,34.0808],[-117.86959,34.0808],[-117.87025,34.0808],[-117.8711,34.0808],[-117.8716,34.0808],[-117.87178,34.0808],[-117.87178,34.08096],[-117.8722,34.08096],[-117.87233,34.08096],[-117.87234,34.08111],[-117.87234,34.08173],[-117.8722,34.08173],[-117.87179,34.08173],[-117.87179,34.08185],[-117.87179,34.08204],[-117.87179,34.08218],[-117.87179,34.08239],[-117.87226,34.08238],[-117.87226,34.0825],[-117.87226,34.08261],[-117.87228,34.08261],[-117.87234,34.08268]]]},"properties":{"District":"4"}},
{"type":"Feature","geometry":{"type":"Polygon","coordinates":[[[-117.89898,34.09209],[-117.89933,34.09209],[-117.90232,34.09209],[-117.90236,34.09209],[-117.90303,34.09209],[-117.90658,34.09208],[-117.90771,34.09208],[-117.90771,34.0915],[-117.90771,34.09059],[-117.90772,34.09016],[-117.90771,34.08904],[-117.90786,34.08902],[-117.90858,34.08898],[-117.90962,34.08891],[-117.91051,34.08885],[-117.91119,34.08881],[-117.91209,34.08874],[-117.91232,34.08873],[-117.91335,34.08866],[-117.91353,34.08865],[-117.91369,34.08864],[-117.91431,34.08859],[-117.91453,34.08858],[-117.91483,34.08855],[-117.91528,34.08852],[-117.91582,34.08849],[-117.91649,34.08835],[-117.91649,34.08787],[-117.91649,34.08756],[-117.91649,34.08719],[-117.91649,34.08653],[-117.91649,34.08634],[-117.91661,34.08634],[-117.9166,34.08527],[-117.91659,34.08504],[-117.9166,34.0848],[-117.9166,34.08465],[-117.91646,34.08465],[-117.91623,34.08465],[-117.91607,34.08465],[-117.916,34.08465],[-117.91579,34.08465],[-117.91577,34.08465],[-117.91554,34.08465],[-117.9155,34.08464],[-117.91545,34.08464],[-117.91535,34.08464],[-117.91531,34.08464],[-117.91508,34.08464],[-117.91491,34.08464],[-117.91485,34.08464],[-117.91462,34.08464],[-117.91453,34.08464],[-117.91439,34.08464],[-117.91419,34.08463],[-117.91416,34.08463],[-117.91399,34.08463],[-117.91387,34.08463],[-117.91379,34.08463],[-117.91359,34.08463],[-117.91339,34.08463],[-117.91332,34.08463],[-117.91319,34.08463],[-117.91299,34.08463],[-117.91278,34.08462],[-117.91219,34.08462],[-117.91196,34.08462],[-117.91186,34.08462],[-117.91172,34.08462],[-117.91154,34.08461],[-117.91141,34.08461],[-117.91108,34.08461],[-117.91085,34.08461],[-117.91069,34.08461],[-117.91033,34.08461],[-117.9102,34.0846],[-117.90979,34.0846],[-117.90939,34.0846],[-117.90912,34.0846],[-117.90899,34.08459],[-117.90892,34.08459],[-117.90879,34.08459],[-117.90859,34.08459],[-117.9084,34.08459],[-117.9082,34.08459],[-117.90795,34.08459],[-117.90778,34.08459],[-117.90778,34.08494],[-117.90779,34.08515],[-117.90779,34.08574],[-117.90779,34.08624],[-117.90768,34.08624],[-117.90679,34.08624],[-117.90632,34.08623],[-117.90561,34.08623],[-117.90539,34.08622],[-117.90537,34.08622],[-117.90536,34.08622],[-117.90535,34.08622],[-117.90512,34.08622],[-117.90395,34.08621],[-117.90338,34.08621],[-117.90337,34.08283],[-117.90337,34.08277],[-117.90336,34.08274],[-117.90336,34.08264],[-117.90336,34.08242],[-117.90336,34.08237],[-117.90336,34.0818],[-117.90336,34.0811],[-117.90334,34.07915],[-117.90334,34.07902],[-117.90334,34.079],[-117.90334,34.07899],[-117.90334,34.07896],[-117.90334,34.07893],[-117.90334,34.07892],[-117.90334,34.07891],[-117.90334,34.0789],[-117.90334,34.07889],[-117.90334,34.07872],[-117.90334,34.07835],[-117.90334,34.07812],[-117.90333,34.07654],[-117.90333,34.07643],[-117.90333,34.07638],[-117.90333,34.07637],[-117.90333,34.07635],[-117.90333,34.07629],[-117.90332,34.07558],[-117.90332,34.0754],[-117.90281,34.07539],[-117.90201,34.07539],[-117.90163,34.07538],[-117.90095,34.07538],[-117.90073,34.07537],[-117.89912,34.07536],[-117.89911,34.07536],[-117.89909,34.07536],[-117.89908,34.07536],[-117.89906,34.07535],[-117.89905,34.07534],[-117.89904,34.07534],[-117.89904,34.07533],[-117.89903,34.07533],[-117.89903,34.07532],[-117.89902,34.07531],[-117.89901,34.0753],[-117.89901,34.07529],[-117.89901,34.07528],[-117.89901,34.07527],[-117.89901,34.0747],[-117.89901,34.0746],[-117.89901,34.07396],[-117.89901,34.07383],[-117.89901,34.07363],[-117.89818,34.07362],[-117.89712,34.07362],[-117.89416,34.07359],[-117.89394,34.07359],[-117.89379,34.07359],[-117.89348,34.07358],[-117.89322,34.07358],[-117.8924,34.07357],[-117.8924,34.07417],[-117.8924,34.07436],[-117.8924,34.07454],[-117.89241,34.07474],[-117.89241,34.07493],[-117.89241,34.07509],[-117.89241,34.07528],[-117.89241,34.07539],[-117.89234,34.07539],[-117.89232,34.07539],[-117.89232,34.07548],[-117.89232,34.07567],[-117.89232,34.07618],[-117.89232,34.07631],[-117.89232,34.07635],[-117.89232,34.07653],[-117.89232,34.0767],[-117.89232,34.07687],[-117.89232,34.07704],[-117.89232,34.07721],[-117.89225,34.07721],[-117.89179,34.07721],[-117.89123,34.0772],[-117.89073,34.07719],[-117.89023,34.07718],[-117.89017,34.07655],[-117.89017,34.07537],[-117.89017,34.07529],[-117.89017,34.07528],[-117.89004,34.07527],[-117.88745,34.07526],[-117.88709,34.07525],[-117.88697,34.07525],[-117.88392,34.07523],[-117.88244,34.07522],[-117.88141,34.07521],[-117.88141,34.07444],[-117.8814,34.07349],[-117.88129,34.07349],[-117.88121,34.07349],[-117.88112,34.07348],[-117.88038,34.07348],[-117.8794,34.07348],[-117.87935,34.07348],[-117.87904,34.07348],[-117.87892,34.07348],[-117.87865,34.07347],[-117.87835,34.07347],[-117.87811,34.07347],[-117.8778,34.07347],[-117.87774,34.07347],[-117.87754,34.07347],[-117.87722,34.07347],[-117.87686,34.07347],[-117.87662,34.07347],[-117.87516,34.07346],[-117.87474,34.07346],[-117.8746,34.07346],[-117.87432,34.07346],[-117.87427,34.07346],[-117.8742,34.07346],[-117.87398,34.07372],[-117.87388,34.07382],[-117.87375,34.07395],[-117.8736,34.07407],[-117.87345,34.07419],[-117.87334,34.07427],[-117.87324,34.07435],[-117.87313,34.07442],[-117.87298,34.07451],[-117.87282,34.0746],[-117.87265,34.07469],[-117.87264,34.0747],[-117.87262,34.07471],[-117.8726,34.07472],[-117.87258,34.07473],[-117.87256,34.07473],[-117.87254,34.07475],[-117.87251,34.07476],[-117.87249,34.07477],[-117.87248,34.07477],[-117.87247,34.07478],[-117.87247,34.0748],[-117.87247,34.07482],[-117.87243,34.07484],[-117.87228,34.07492],[-117.87221,34.07495],[-117.87214,34.07499],[-117.87207,34.07502],[-117.87201,34.07505],[-117.87198,34.07507],[-117.87178,34.07516],[-117.87173,34.07518],[-117.87172,34.07519],[-117.87161,34.07525],[-117.87145,34.07533],[-117.87122,34.07544],[-117.87112,34.07549],[-117.87108,34.07551],[-117.87092,34.07557],[-117.87077,34.07562],[-117.87061,34.07567],[-117.87045,34.07571],[-117.87028,34.07574],[-117.87012,34.07577],[-117.86995,34.07579],[-117.86987,34.07577],[-117.86979,34.07575],[-117.86979,34.07463],[-117.86979,34.07458],[-117.86968,34.07458],[-117.86916,34.07439],[-117.86914,34.07437],[-117.86912,34.07436],[-117.86901,34.07428],[-117.86889,34.07419],[-117.86873,34.07408],[-117.86861,34.07399],[-117.86826,34.07374],[-117.86825,34.07374],[-117.86825,34.07373],[-117.86823,34.07373],[-117.86822,34.07372],[-117.86819,34.07371],[-117.86818,34.07371],[-117.86817,34.0737],[-117.86816,34.0737],[-117.86815,34.0737],[-117.86814,34.07369],[-117.86812,34.07369],[-117.8681,34.07369],[-117.86809,34.07369],[-117.86808,34.07369],[-117.86806,34.07368],[-117.86805,34.07368],[-117.86803,34.07369],[-117.868,34.07369],[-117.86795,34.07369],[-117.86789,34.07369],[-117.86786,34.07369],[-117.86781,34.07369],[-117.86778,34.07369],[-117.86777,34.07369],[-117.86776,34.07369],[-117.86775,34.07369],[-117.86775,34.07368],[-117.86774,34.07368],[-117.86773,34.07368],[-117.86772,34.07368],[-117.86772,34.07367],[-117.86771,34.07367],[-117.8677,34.07367],[-117.86769,34.07366],[-117.86768,34.07366],[-117.86767,34.07365],[-117.86766,34.07365],[-117.86766,34.07364],[-117.86765,34.07364],[-117.86765,34.07363],[-117.86764,34.07362],[-117.86761,34.07361],[-117.8676,34.07359],[-117.86759,34.07357],[-117.86757,34.07355],[-117.86756,34.07354],[-117.86755,34.07351],[-117.86754,34.07349],[-117.86754,34.07348],[-117.86753,34.07347],[-117.86753,34.07346],[-117.86753,34.07345],[-117.86752,34.07344],[-117.86751,34.07342],[-117.86749,34.07341],[-117.86748,34.0734],[-117.86747,34.07338],[-117.86746,34.07337],[-117.86744,34.07336],[-117.86743,34.07336],[-117.86742,34.07335],[-117.86741,34.07334],[-117.8674,34.07334],[-117.86739,34.07334],[-117.86737,34.07333],[-117.86736,34.07333],[-117.86735,34.07333],[-117.86734,34.07332],[-117.86733,34.07332],[-117.86731,34.07332],[-117.86729,34.07332],[-117.86726,34.07332],[-117.86724,34.07332],[-117.86721,34.07331],[-117.86716,34.07331],[-117.86714,34.07331],[-117.86711,34.07331],[-117.86701,34.07331],[-117.86696,34.07332],[-117.86691,34.07331],[-117.86685,34.07331],[-117.86683,34.07331],[-117.86681,34.07331],[-117.86679,34.07331],[-117.86676,34.07331],[-117.86672,34.07331],[-117.8667,34.07331],[-117.86667,34.0733],[-117.86664,34.0733],[-117.86662,34.0733],[-117.86656,34.07329],[-117.86654,34.07328],[-117.86653,34.07328],[-117.86646,34.07326],[-117.86645,34.07326],[-117.86644,34.07325],[-117.86642,34.07325],[-117.86638,34.07324],[-117.86637,34.07324],[-117.86636,34.07324],[-117.86634,34.07324],[-117.86632,34.07323],[-117.8663,34.07323],[-117.86627,34.07323],[-117.86626,34.07323],[-117.86624,34.07323],[-117.86622,34.07323],[-117.86621,34.07322],[-117.86619,34.07322],[-117.86617,34.07322],[-117.86614,34.07323],[-117.86594,34.07322],[-117.86576,34.07321],[-117.86576,34.07319],[-117.86576,34.07316],[-117.86577,34.07312],[-117.86579,34.07308],[-117.8658,34.07304],[-117.86586,34.07292],[-117.86596,34.07271],[-117.86614,34.07235],[-117.86619,34.07225],[-117.86621,34.07223],[-117.86622,34.07221],[-117.86623,34.0722],[-117.86626,34.07217],[-117.86627,34.07216],[-117.86628,34.07215],[-117.8663,34.07214],[-117.86632,34.07213],[-117.86633,34.07212],[-117.86634,34.07211],[-117.86636,34.0721],[-117.86638,34.07209],[-117.86639,34.07209],[-117.86641,34.07208],[-117.86642,34.07207],[-117.86644,34.07207],[-117.86649,34.07205],[-117.86662,34.07203],[-117.86682,34.07199],[-117.8672,34.07191],[-117.86747,34.07185],[-117.86751,34.07185],[-117.8674,34.07182],[-117.8672,34.07178],[-117.86704,34.07174],[-117.86652,34.07161],[-117.86663,34.0714],[-117.86646,34.07133],[-117.86628,34.07127],[-117.86615,34.07123],[-117.86603,34.07119],[-117.86594,34.07117],[-117.86576,34.07112],[-117.8656,34.07109],[-117.86558,34.07109],[-117.86547,34.07106],[-117.86507,34.07099],[-117.86494,34.07097],[-117.8648,34.07092],[-117.86473,34.0709],[-117.86464,34.07087],[-117.86455,34.07085],[-117.86435,34.07079],[-117.86429,34.07078],[-117.86395,34.0707],[-117.8639,34.0707],[-117.86389,34.07069],[-117.86388,34.07068],[-117.86387,34.07067],[-117.86387,34.07066],[-117.86387,34.07065],[-117.86387,34.07063],[-117.86387,34.07062],[-117.86388,34.07061],[-117.86389,34.0706],[-117.8639,34.07059],[-117.86391,34.07058],[-117.86393,34.07058],[-117.86394,34.07057],[-117.86395,34.07057],[-117.86401,34.07057],[-117.86404,34.07043],[-117.86407,34.07032],[-117.86348,34.07053],[-117.86333,34.07058],[-117.86332,34.07055],[-117.86329,34.07049],[-117.86327,34.07044],[-117.86317,34.07034],[-117.86304,34.0702],[-117.86297,34.07013],[-117.86293,34.07009],[-117.86275,34.06989],[-117.86266,34.06986],[-117.86261,34.06984],[-117.86236,34.06975],[-117.86234,34.06953],[-117.86234,34.0695],[-117.86233,34.06947],[-117.86225,34.06944],[-117.86218,34.06941],[-117.86202,34.06935],[-117.86156,34.06906],[-117.86131,34.069],[-117.8612,34.06897],[-117.86108,34.06894],[-117.86066,34.06881],[-117.86058,34.06879],[-117.86038,34.06869],[-117.85989,34.06853],[-117.8592,34.06839],[-117.8591,34.06838],[-117.85909,34.06838],[-117.85907,34.06838],[-117.85868,34.06834],[-117.85805,34.0683],[-117.8578,34.06824],[-117.85692,34.06834],[-117.85661,34.06836],[-117.85639,34.06842],[-117.85619,34.06841],[-117.85629,34.06882],[-117.8564,34.06882],[-117.8565,34.06883],[-117.8566,34.06884],[-117.85665,34.06885],[-117.8567,34.06886],[-117.85675,34.06887],[-117.8568,34.06888],[-117.85689,34.06891],[-117.85693,34.06893],[-117.85697,34.06894],[-117.85701,34.06896],[-117.85705,34.06898],[-117.85709,34.06901],[-117.85713,34.06903],[-117.85717,34.06905],[-117.85718,34.06906],[-117.8572,34.06908],[-117.85724,34.0691],[-117.85727,34.06913],[-117.8573,34.06916],[-117.85734,34.06919],[-117.85736,34.06921],[-117.85738,34.06922],[-117.85741,34.06927],[-117.85751,34.06938],[-117.85761,34.0695],[-117.85774,34.06965],[-117.85801,34.06996],[-117.85806,34.07002],[-117.85809,34.07007],[-117.85811,34.0701],[-117.85812,34.07013],[-117.85815,34.0702],[-117.85815,34.07023],[-117.85816,34.07026],[-117.85817,34.07032],[-117.85829,34.07098],[-117.85829,34.07104],[-117.85829,34.07111],[-117.85829,34.07118],[-117.85827,34.07125],[-117.85827,34.07126],[-117.85826,34.07131],[-117.85823,34.0714],[-117.85822,34.07147],[-117.85821,34.07154],[-117.85821,34.07156],[-117.85821,34.0716],[-117.85821,34.07163],[-117.85821,34.07168],[-117.85823,34.07184],[-117.85829,34.07224],[-117.85833,34.07259],[-117.85863,34.07248],[-117.85912,34.0723],[-117.85947,34.07218],[-117.85971,34.0721],[-117.85987,34.07204],[-117.86012,34.07374],[-117.85945,34.0738],[-117.85945,34.07375],[-117.85937,34.07375],[-117.85877,34.07381],[-117.85882,34.07411],[-117.85887,34.07448],[-117.859,34.07447],[-117.85917,34.07445],[-117.85918,34.07455],[-117.85932,34.07544],[-117.85932,34.07547],[-117.85952,34.07545],[-117.8598,34.07557],[-117.86005,34.07567],[-117.86045,34.07582],[-117.86025,34.07605],[-117.86015,34.07617],[-117.86018,34.07658],[-117.86018,34.07661],[-117.86019,34.0767],[-117.86026,34.07755],[-117.86027,34.07767],[-117.86027,34.07769],[-117.86027,34.07776],[-117.86029,34.07798],[-117.86031,34.07821],[-117.86059,34.07823],[-117.86094,34.0786],[-117.86065,34.07882],[-117.86049,34.07892],[-117.8601,34.07869],[-117.85978,34.07877],[-117.85934,34.07898],[-117.85927,34.07902],[-117.85919,34.07906],[-117.85908,34.07907],[-117.8589,34.0791],[-117.8587,34.07913],[-117.85909,34.07948],[-117.85906,34.07956],[-117.85894,34.07979],[-117.85885,34.07997],[-117.85904,34.0801],[-117.85913,34.08017],[-117.85924,34.08024],[-117.85926,34.08023],[-117.85931,34.0802],[-117.85943,34.08013],[-117.85965,34.08006],[-117.85967,34.08005],[-117.8601,34.07995],[-117.86035,34.07985],[-117.86141,34.0793],[-117.8625,34.07873],[-117.8631,34.07842],[-117.86324,34.07834],[-117.86338,34.07827],[-117.86343,34.07824],[-117.86357,34.07816],[-117.86374,34.07805],[-117.86392,34.07794],[-117.86402,34.07787],[-117.86514,34.07711],[-117.86539,34.07694],[-117.86536,34.0771],[-117.86533,34.07722],[-117.86535,34.07721],[-117.86545,34.07731],[-117.86546,34.07736],[-117.86546,34.0774],[-117.86557,34.0774],[-117.86586,34.0774],[-117.86586,34.07715],[-117.86597,34.07698],[-117.86606,34.07698],[-117.86626,34.07698],[-117.8665,34.07698],[-117.8673,34.07698],[-117.86766,34.07698],[-117.86821,34.07698],[-117.86833,34.07698],[-117.86833,34.07703],[-117.86834,34.07716],[-117.86834,34.07721],[-117.86834,34.07738],[-117.86834,34.07759],[-117.86834,34.07762],[-117.86834,34.0777],[-117.86835,34.07781],[-117.86835,34.07801],[-117.86851,34.07801],[-117.86887,34.07801],[-117.86892,34.07801],[-117.86892,34.07823],[-117.86892,34.07833],[-117.86909,34.07832],[-117.86938,34.07832],[-117.86999,34.07832],[-117.86996,34.07812],[-117.87005,34.07801],[-117.87022,34.07837],[-117.87054,34.07849],[-117.87102,34.07866],[-117.87155,34.07885],[-117.87178,34.07887],[-117.87249,34.07889],[-117.8725,34.07873],[-117.87269,34.07873],[-117.87265,34.0787],[-117.87265,34.07863],[-117.87265,34.07837],[-117.87269,34.07837],[-117.87293,34.07837],[-117.87302,34.07837],[-117.87371,34.07838],[-117.87375,34.07852],[-117.87375,34.07875],[-117.87385,34.07874],[-117.87397,34.07875],[-117.87397,34.07846],[-117.87397,34.0784],[-117.87397,34.07835],[-117.87408,34.07835],[-117.87427,34.07835],[-117.87442,34.07835],[-117.87462,34.07837],[-117.87462,34.07789],[-117.87463,34.07758],[-117.87444,34.07736],[-117.87444,34.07708],[-117.87487,34.07708],[-117.87633,34.07709],[-117.87638,34.07709],[-117.87643,34.07709],[-117.87656,34.07709],[-117.87665,34.07709],[-117.87665,34.07736],[-117.87656,34.07736],[-117.87656,34.07745],[-117.87656,34.07784],[-117.87632,34.07784],[-117.87608,34.07783],[-117.87595,34.07783],[-117.87583,34.07783],[-117.87581,34.07783],[-117.87577,34.07783],[-117.87577,34.07828],[-117.87597,34.07828],[-117.87625,34.07828],[-117.87625,34.07848],[-117.87625,34.07861],[-117.87619,34.07876],[-117.87619,34.07889],[-117.87643,34.07889],[-117.87659,34.07889],[-117.87867,34.07891],[-117.87973,34.07891],[-117.88054,34.07892],[-117.88126,34.07893],[-117.88131,34.07892],[-117.8832,34.07895],[-117.88352,34.07895],[-117.88439,34.07896],[-117.88523,34.07897],[-117.88528,34.07897],[-117.88626,34.07897],[-117.88634,34.07897],[-117.88734,34.07898],[-117.88787,34.07898],[-117.88797,34.07898],[-117.88842,34.07898],[-117.88842,34.07904],[-117.88928,34.07905],[-117.89006,34.07906],[-117.89013,34.07906],[-117.89013,34.08007],[-117.89013,34.08084],[-117.89012,34.08143],[-117.89012,34.08149],[-117.89013,34.08168],[-117.89013,34.08202],[-117.89012,34.08216],[-117.89011,34.08258],[-117.89011,34.08265],[-117.89011,34.08325],[-117.89011,34.08333],[-117.89013,34.08365],[-117.89013,34.08387],[-117.89013,34.08447],[-117.89013,34.08507],[-117.89012,34.08527],[-117.89013,34.08567],[-117.89014,34.08626],[-117.89123,34.08627],[-117.89233,34.08629],[-117.89447,34.0863],[-117.8949,34.0863],[-117.89573,34.08631],[-117.89674,34.08632],[-117.89814,34.08632],[-117.89897,34.08632],[-117.89898,34.08638],[-117.89898,34.0873],[-117.89897,34.08804],[-117.89897,34.08853],[-117.89897,34.08888],[-117.89898,34.08934],[-117.89898,34.08945],[-117.89899,34.08961],[-117.89899,34.08963],[-117.899,34.09023],[-117.89901,34.09057],[-117.89901,34.0908],[-117.89899,34.09157],[-117.89899,34.09163],[-117.89898,34.09209]],[[-117.86379,34.07438],[-117.86424,34.07461],[-117.86439,34.07485],[-117.86447,34.07499],[-117.86461,34.07521],[-117.86466,34.07528],[-117.86453,34.0754],[-117.86426,34.07545],[-117.86397,34.07537],[-117.86375,34.07531],[-117.86347,34.07523],[-117.86327,34.07517],[-117.86308,34.07512],[-117.86301,34.07512],[-117.86295,34.07513],[-117.8624,34.07518],[-117.86182,34.07523],[-117.86169,34.07463],[-117.86163,34.07431],[-117.86195,34.07425],[-117.86228,34.07419],[-117.86246,34.07422],[-117.86277,34.07429],[-117.86308,34.07429],[-117.86354,34.07425],[-117.86379,34.07438]]]},"properties":{"District":"5"}}
]}