{"type":"FeatureCollection", "features": [
{"type":"Feature","geometry":{"type":"Polygon","coordinates":[[[-118.31775,33.94548],[-118.31775,33.94614],[-118.31774,33.9491],[-118.31774,33.95033],[-118.31774,33.95125],[-118.31774,33.95274],[-118.31774,33.95454],[-118.31774,33.95557],[-118.31774,33.95636],[-118.31775,33.95804],[-118.31775,33.95832],[-118.31775,33.95952],[-118.31775,33.95999],[-118.31776,33.96048],[-118.31776,33.96084],[-118.31776,33.96092],[-118.31776,33.96173],[-118.31776,33.96182],[-118.31776,33.96272],[-118.31776,33.96366],[-118.31776,33.96458],[-118.31776,33.96549],[-118.31776,33.96641],[-118.31776,33.96642],[-118.31776,33.96728],[-118.31776,33.96789],[-118.31775,33.9682],[-118.31776,33.9691],[-118.31775,33.97001],[-118.31775,33.97094],[-118.31786,33.97094],[-118.31993,33.97094],[-118.32134,33.97094],[-118.32194,33.97093],[-118.32212,33.97094],[-118.32213,33.97094],[-118.32229,33.97095],[-118.32431,33.97093],[-118.32649,33.97092],[-118.32649,33.97],[-118.32649,33.96911],[-118.32649,33.9691],[-118.3265,33.96818],[-118.3265,33.96728],[-118.32869,33.96727],[-118.33086,33.96727],[-118.33196,33.96727],[-118.33305,33.96725],[-118.33304,33.96783],[-118.33304,33.96812],[-118.33305,33.96862],[-118.33305,33.96907],[-118.33305,33.9691],[-118.33304,33.96929],[-118.33304,33.96998],[-118.33305,33.97089],[-118.33305,33.97129],[-118.33306,33.97172],[-118.33306,33.97183],[-118.33305,33.97222],[-118.33304,33.97269],[-118.33335,33.97268],[-118.33415,33.97267],[-118.33427,33.97267],[-118.33428,33.97269],[-118.33444,33.97269],[-118.33462,33.97269],[-118.33477,33.97269],[-118.33504,33.97269],[-118.33518,33.97269],[-118.33521,33.97269],[-118.33522,33.97269],[-118.33522,33.97303],[-118.33522,33.9732],[-118.33522,33.97338],[-118.33522,33.97372],[-118.33522,33.97376],[-118.33522,33.97435],[-118.33523,33.97448],[-118.33524,33.9745],[-118.33524,33.97504],[-118.33524,33.97565],[-118.33524,33.97566],[-118.33523,33.97598],[-118.33523,33.97686],[-118.33523,33.97751],[-118.33522,33.97812],[-118.33522,33.97885],[-118.33522,33.97893],[-118.33522,33.97977],[-118.33522,33.9806],[-118.33522,33.9818],[-118.33583,33.9818],[-118.33857,33.98177],[-118.33857,33.98086],[-118.33837,33.98008],[-118.33804,33.97944],[-118.33803,33.97943],[-118.33796,33.97934],[-118.33791,33.97922],[-118.33807,33.97915],[-118.33814,33.97913],[-118.33862,33.97893],[-118.34009,33.97829],[-118.34067,33.97805],[-118.34191,33.9775],[-118.342,33.97747],[-118.34207,33.97745],[-118.34215,33.97741],[-118.34229,33.97735],[-118.34241,33.97727],[-118.34248,33.97722],[-118.34251,33.9772],[-118.34254,33.97718],[-118.34257,33.97718],[-118.34261,33.97717],[-118.34264,33.97718],[-118.34269,33.97719],[-118.34273,33.97721],[-118.34332,33.97795],[-118.34425,33.97755],[-118.34434,33.97751],[-118.34431,33.97745],[-118.34421,33.97731],[-118.34414,33.97722],[-118.34411,33.97719],[-118.34407,33.97711],[-118.34404,33.97705],[-118.344,33.97693],[-118.344,33.97689],[-118.34399,33.97682],[-118.34399,33.97667],[-118.34399,33.97661],[-118.344,33.97584],[-118.344,33.97487],[-118.34401,33.97401],[-118.34401,33.97395],[-118.34401,33.97392],[-118.34401,33.9739],[-118.34402,33.97387],[-118.34404,33.97384],[-118.34406,33.97382],[-118.34408,33.9738],[-118.34416,33.97374],[-118.34572,33.97293],[-118.34593,33.97281],[-118.34596,33.97279],[-118.34621,33.97266],[-118.34757,33.9719],[-118.34845,33.97143],[-118.34789,33.9707],[-118.34746,33.97016],[-118.3474,33.97008],[-118.34733,33.96999],[-118.34883,33.96929],[-118.34926,33.96909],[-118.34974,33.96886],[-118.34994,33.96876],[-118.35007,33.9687],[-118.35031,33.96856],[-118.35045,33.96848],[-118.35062,33.96837],[-118.3507,33.96831],[-118.35073,33.96829],[-118.35077,33.96825],[-118.35083,33.96818],[-118.35093,33.96805],[-118.35111,33.96784],[-118.35124,33.96767],[-118.35138,33.96746],[-118.3518,33.96684],[-118.35201,33.96661],[-118.3521,33.96651],[-118.35218,33.96642],[-118.35233,33.96629],[-118.35243,33.9662],[-118.3525,33.96615],[-118.35257,33.9661],[-118.35267,33.96604],[-118.3528,33.96597],[-118.35293,33.96591],[-118.35327,33.96577],[-118.35339,33.96572],[-118.35339,33.96568],[-118.35339,33.96547],[-118.35338,33.96446],[-118.35337,33.96325],[-118.35336,33.96302],[-118.35337,33.96299],[-118.35336,33.96292],[-118.35335,33.96178],[-118.35333,33.96049],[-118.35331,33.95948],[-118.3533,33.95859],[-118.3533,33.95847],[-118.3533,33.95845],[-118.35329,33.95832],[-118.35328,33.95819],[-118.35328,33.95818],[-118.35327,33.95808],[-118.35326,33.95804],[-118.35325,33.95799],[-118.35323,33.95794],[-118.35322,33.95791],[-118.3532,33.95787],[-118.35315,33.95779],[-118.35312,33.95774],[-118.35306,33.95767],[-118.35304,33.95765],[-118.35294,33.95756],[-118.35218,33.95697],[-118.35219,33.95686],[-118.35237,33.95535],[-118.35242,33.95484],[-118.35243,33.9548],[-118.35243,33.95473],[-118.35249,33.95421],[-118.35251,33.9541],[-118.35261,33.95324],[-118.35264,33.95294],[-118.35266,33.95272],[-118.35265,33.95272],[-118.35175,33.95272],[-118.35136,33.95272],[-118.35092,33.95272],[-118.35004,33.95272],[-118.34924,33.95273],[-118.3492,33.95273],[-118.34918,33.95089],[-118.34917,33.95025],[-118.34917,33.95009],[-118.34917,33.9491],[-118.34917,33.94822],[-118.34917,33.94789],[-118.34917,33.94733],[-118.34917,33.94731],[-118.34917,33.94729],[-118.34917,33.94669],[-118.34917,33.94608],[-118.34916,33.94547],[-118.34828,33.94547],[-118.34665,33.94547],[-118.34486,33.94547],[-118.34393,33.94547],[-118.34393,33.9461],[-118.34393,33.94669],[-118.34393,33.9473],[-118.34393,33.9479],[-118.34394,33.94915],[-118.34394,33.95026],[-118.34394,33.95089],[-118.34395,33.9527],[-118.34394,33.95273],[-118.34395,33.95419],[-118.34395,33.9553],[-118.34394,33.95537],[-118.34395,33.95678],[-118.34378,33.95678],[-118.34359,33.95678],[-118.34307,33.95678],[-118.34289,33.95678],[-118.34261,33.95676],[-118.34238,33.95675],[-118.3421,33.95672],[-118.34193,33.95669],[-118.3417,33.95665],[-118.34156,33.95662],[-118.3414,33.9566],[-118.34125,33.95657],[-118.34109,33.95655],[-118.34083,33.95652],[-118.34063,33.95649],[-118.34055,33.95649],[-118.34029,33.95647],[-118.34009,33.95647],[-118.33995,33.95647],[-118.33943,33.95647],[-118.33869,33.95646],[-118.33821,33.95646],[-118.33793,33.95646],[-118.33781,33.95646],[-118.33757,33.95644],[-118.33742,33.95643],[-118.33724,33.95641],[-118.3368,33.95636],[-118.33643,33.95631],[-118.3358,33.95625],[-118.33568,33.95624],[-118.3355,33.95623],[-118.33534,33.95624],[-118.3351,33.95624],[-118.33481,33.95623],[-118.33343,33.95623],[-118.33335,33.95623],[-118.33331,33.95622],[-118.33328,33.95622],[-118.33071,33.95623],[-118.33052,33.95624],[-118.33044,33.95623],[-118.33044,33.95236],[-118.32925,33.95236],[-118.32922,33.94907],[-118.32921,33.94666],[-118.32921,33.9466],[-118.32922,33.94657],[-118.32922,33.94626],[-118.32922,33.94548],[-118.32784,33.94548],[-118.32647,33.94548],[-118.32535,33.94548],[-118.32432,33.94548],[-118.32377,33.94548],[-118.32323,33.94548],[-118.32212,33.94548],[-118.32103,33.94548],[-118.31993,33.94548],[-118.31885,33.94548],[-118.31775,33.94548]]]},"properties":{"DIV_CITY":1}},
{"type":"Feature","geometry":{"type":"MultiPolygon","coordinates":[[[[-118.33857,33.98177],[-118.33962,33.98175],[-118.34016,33.98175],[-118.34068,33.98175],[-118.34175,33.98174],[-118.34193,33.98174],[-118.34286,33.98174],[-118.34397,33.98173],[-118.34423,33.98173],[-118.34457,33.98172],[-118.34541,33.98172],[-118.34736,33.98172],[-118.34783,33.98172],[-118.35,33.98171],[-118.35018,33.98171],[-118.35297,33.9817],[-118.35328,33.9817],[-118.35481,33.98169],[-118.35546,33.98169],[-118.35557,33.98169],[-118.35594,33.98169],[-118.3563,33.98169],[-118.35636,33.98168],[-118.35856,33.98168],[-118.35992,33.98167],[-118.36091,33.98167],[-118.36116,33.98167],[-118.36119,33.98167],[-118.36267,33.98166],[-118.36271,33.98166],[-118.36344,33.98166],[-118.36364,33.98166],[-118.36379,33.98166],[-118.364,33.98166],[-118.36433,33.98166],[-118.36464,33.98166],[-118.36474,33.98166],[-118.36485,33.98165],[-118.36486,33.98165],[-118.36584,33.98165],[-118.36626,33.98165],[-118.36628,33.98166],[-118.36656,33.98181],[-118.36674,33.9819],[-118.36677,33.98186],[-118.3669,33.98168],[-118.36693,33.98165],[-118.36718,33.98165],[-118.36889,33.98164],[-118.37023,33.98164],[-118.37035,33.98164],[-118.37035,33.9816],[-118.37032,33.98123],[-118.37028,33.9806],[-118.37023,33.97994],[-118.37022,33.97987],[-118.37018,33.97921],[-118.37016,33.97894],[-118.37015,33.97883],[-118.37015,33.97879],[-118.37015,33.97864],[-118.37015,33.97861],[-118.37015,33.97829],[-118.37015,33.97825],[-118.37015,33.97782],[-118.37016,33.97777],[-118.37015,33.97732],[-118.37015,33.97678],[-118.37015,33.97579],[-118.37015,33.97552],[-118.37014,33.97506],[-118.37014,33.97497],[-118.37014,33.97492],[-118.37013,33.97445],[-118.37013,33.97413],[-118.37014,33.97369],[-118.37013,33.973],[-118.37013,33.97259],[-118.37013,33.97238],[-118.37013,33.97228],[-118.37012,33.97194],[-118.37011,33.97133],[-118.37011,33.97111],[-118.3701,33.97094],[-118.3701,33.97071],[-118.37011,33.97015],[-118.37011,33.97001],[-118.37011,33.96942],[-118.37011,33.96909],[-118.37011,33.96889],[-118.37012,33.96848],[-118.37011,33.96844],[-118.37011,33.96838],[-118.37011,33.96831],[-118.37011,33.96827],[-118.37011,33.96817],[-118.37011,33.96814],[-118.37013,33.968],[-118.37042,33.968],[-118.37083,33.968],[-118.37238,33.96799],[-118.37283,33.96765],[-118.3729,33.9676],[-118.37284,33.96754],[-118.37277,33.96745],[-118.3727,33.96737],[-118.37263,33.96726],[-118.37255,33.96716],[-118.37255,33.96715],[-118.37248,33.96718],[-118.37193,33.96739],[-118.37173,33.96704],[-118.37172,33.96695],[-118.3717,33.9668],[-118.37168,33.96663],[-118.37165,33.96647],[-118.3716,33.96632],[-118.37158,33.96624],[-118.37155,33.96617],[-118.37154,33.96601],[-118.37152,33.96585],[-118.3715,33.96569],[-118.37149,33.96554],[-118.37147,33.96539],[-118.37145,33.96523],[-118.37144,33.96507],[-118.37142,33.96492],[-118.3714,33.96477],[-118.37139,33.96462],[-118.37138,33.96454],[-118.37137,33.96447],[-118.37136,33.96433],[-118.37134,33.96418],[-118.37131,33.96389],[-118.37128,33.96364],[-118.37124,33.9633],[-118.37069,33.96352],[-118.37056,33.96357],[-118.37031,33.96367],[-118.37018,33.96372],[-118.3701,33.96375],[-118.3699,33.96383],[-118.36974,33.96389],[-118.3697,33.96391],[-118.36955,33.96397],[-118.36945,33.96401],[-118.36875,33.96429],[-118.36633,33.96525],[-118.36639,33.96538],[-118.36644,33.96544],[-118.36649,33.96556],[-118.36652,33.96564],[-118.36657,33.96575],[-118.36658,33.96579],[-118.3666,33.96585],[-118.36662,33.96591],[-118.36665,33.96605],[-118.36667,33.9661],[-118.36668,33.9662],[-118.3667,33.96633],[-118.36671,33.96646],[-118.36671,33.96651],[-118.36672,33.96665],[-118.36672,33.96692],[-118.36673,33.96699],[-118.36672,33.96703],[-118.36671,33.96706],[-118.36669,33.96709],[-118.36668,33.96711],[-118.36666,33.96713],[-118.36661,33.96717],[-118.36657,33.96719],[-118.36648,33.96722],[-118.3664,33.96724],[-118.36635,33.96724],[-118.36631,33.96725],[-118.36579,33.96732],[-118.36575,33.96733],[-118.36571,33.96734],[-118.36568,33.96735],[-118.36565,33.96736],[-118.36563,33.96738],[-118.3656,33.96741],[-118.36558,33.96744],[-118.36558,33.96746],[-118.36557,33.96749],[-118.36557,33.96752],[-118.36557,33.96754],[-118.3656,33.96764],[-118.36562,33.96771],[-118.36571,33.96802],[-118.36572,33.96812],[-118.36573,33.96817],[-118.36573,33.9682],[-118.36572,33.96823],[-118.36571,33.96825],[-118.3657,33.96826],[-118.36568,33.96828],[-118.36564,33.96831],[-118.36561,33.96832],[-118.36558,33.96834],[-118.36553,33.96835],[-118.36544,33.96838],[-118.36541,33.96838],[-118.36537,33.96839],[-118.36533,33.96839],[-118.36512,33.96842],[-118.36407,33.96857],[-118.36389,33.96858],[-118.36375,33.9686],[-118.36366,33.9686],[-118.36358,33.9686],[-118.36348,33.9686],[-118.36344,33.9686],[-118.36326,33.96858],[-118.36309,33.96856],[-118.36298,33.96854],[-118.36288,33.96852],[-118.36277,33.96849],[-118.36269,33.96847],[-118.36254,33.96842],[-118.36246,33.9684],[-118.36242,33.96838],[-118.36237,33.96844],[-118.36234,33.96848],[-118.36233,33.9685],[-118.36226,33.96855],[-118.36214,33.96866],[-118.362,33.96878],[-118.36197,33.96881],[-118.36189,33.96887],[-118.36183,33.96892],[-118.36171,33.96902],[-118.3617,33.96903],[-118.36163,33.96909],[-118.36155,33.96916],[-118.36147,33.96923],[-118.36138,33.9693],[-118.36137,33.96931],[-118.36126,33.9694],[-118.36122,33.96944],[-118.36115,33.9695],[-118.36106,33.96958],[-118.36095,33.96967],[-118.36071,33.96987],[-118.36064,33.96983],[-118.35896,33.96899],[-118.3588,33.9689],[-118.35825,33.96859],[-118.357,33.96789],[-118.35688,33.96782],[-118.35615,33.9674],[-118.35557,33.96707],[-118.35475,33.9666],[-118.35466,33.96653],[-118.35461,33.9665],[-118.35457,33.96648],[-118.35453,33.96646],[-118.35448,33.96645],[-118.35443,33.96644],[-118.35438,33.96645],[-118.35431,33.96646],[-118.35411,33.96647],[-118.35406,33.96647],[-118.35403,33.96647],[-118.35395,33.96651],[-118.35393,33.96652],[-118.3539,33.96654],[-118.35387,33.96657],[-118.35368,33.96674],[-118.35364,33.96668],[-118.35361,33.96663],[-118.35355,33.96653],[-118.3535,33.96641],[-118.35346,33.96631],[-118.35343,33.9662],[-118.35341,33.96605],[-118.3534,33.96598],[-118.3534,33.96597],[-118.35339,33.96587],[-118.35339,33.96572],[-118.35327,33.96577],[-118.35293,33.96591],[-118.3528,33.96597],[-118.35267,33.96604],[-118.35257,33.9661],[-118.3525,33.96615],[-118.35243,33.9662],[-118.35233,33.96629],[-118.35218,33.96642],[-118.3521,33.96651],[-118.35201,33.96661],[-118.3518,33.96684],[-118.35138,33.96746],[-118.35124,33.96767],[-118.35111,33.96784],[-118.35093,33.96805],[-118.35083,33.96818],[-118.35077,33.96825],[-118.35073,33.96829],[-118.3507,33.96831],[-118.35062,33.96837],[-118.35045,33.96848],[-118.35031,33.96856],[-118.35007,33.9687],[-118.34994,33.96876],[-118.34974,33.96886],[-118.34926,33.96909],[-118.34883,33.96929],[-118.34733,33.96999],[-118.3474,33.97008],[-118.34746,33.97016],[-118.34789,33.9707],[-118.34845,33.97143],[-118.34757,33.9719],[-118.34621,33.97266],[-118.34596,33.97279],[-118.34593,33.97281],[-118.34572,33.97293],[-118.34416,33.97374],[-118.34408,33.9738],[-118.34406,33.97382],[-118.34404,33.97384],[-118.34402,33.97387],[-118.34401,33.9739],[-118.34401,33.97392],[-118.34401,33.97395],[-118.34401,33.97401],[-118.344,33.97487],[-118.344,33.97584],[-118.34399,33.97661],[-118.34399,33.97667],[-118.34399,33.97682],[-118.344,33.97689],[-118.344,33.97693],[-118.34404,33.97705],[-118.34407,33.97711],[-118.34411,33.97719],[-118.34414,33.97722],[-118.34421,33.97731],[-118.34431,33.97745],[-118.34434,33.97751],[-118.34425,33.97755],[-118.34332,33.97795],[-118.34273,33.97721],[-118.34269,33.97719],[-118.34264,33.97718],[-118.34261,33.97717],[-118.34257,33.97718],[-118.34254,33.97718],[-118.34251,33.9772],[-118.34248,33.97722],[-118.34241,33.97727],[-118.34229,33.97735],[-118.34215,33.97741],[-118.34207,33.97745],[-118.342,33.97747],[-118.34191,33.9775],[-118.34067,33.97805],[-118.34009,33.97829],[-118.33862,33.97893],[-118.33814,33.97913],[-118.33807,33.97915],[-118.33791,33.97922],[-118.33796,33.97934],[-118.33803,33.97943],[-118.33804,33.97944],[-118.33837,33.98008],[-118.33857,33.98086],[-118.33857,33.98177]]],[[[-118.37444,33.97973],[-118.37426,33.97975],[-118.37394,33.97976],[-118.3721,33.97986],[-118.37182,33.97987],[-118.37182,33.98206],[-118.37184,33.98206],[-118.37198,33.98209],[-118.37214,33.98212],[-118.37239,33.98218],[-118.37324,33.98241],[-118.37423,33.98266],[-118.37433,33.98269],[-118.37445,33.98272],[-118.37502,33.98287],[-118.37511,33.9829],[-118.37516,33.98291],[-118.37525,33.98294],[-118.37531,33.98296],[-118.37543,33.98298],[-118.37549,33.98299],[-118.37557,33.983],[-118.37564,33.983],[-118.37571,33.983],[-118.37586,33.98297],[-118.37588,33.98297],[-118.37595,33.98296],[-118.37601,33.98294],[-118.37637,33.98283],[-118.37669,33.98272],[-118.37672,33.98271],[-118.37679,33.98268],[-118.37618,33.98154],[-118.376,33.98135],[-118.37598,33.98132],[-118.37596,33.9813],[-118.37594,33.98128],[-118.37589,33.98123],[-118.37584,33.98118],[-118.37583,33.98117],[-118.37578,33.98112],[-118.37575,33.98109],[-118.37573,33.98107],[-118.3757,33.98104],[-118.37569,33.98102],[-118.37546,33.98078],[-118.37539,33.98071],[-118.37527,33.98058],[-118.37446,33.97973],[-118.37444,33.97973]]]]},"properties":{"DIV_CITY":2}},
{"type":"Feature","geometry":{"type":"Polygon","coordinates":[[[-118.35339,33.96572],[-118.35339,33.96587],[-118.3534,33.96597],[-118.3534,33.96598],[-118.35341,33.96605],[-118.35343,33.9662],[-118.35346,33.96631],[-118.3535,33.96641],[-118.35355,33.96653],[-118.35361,33.96663],[-118.35364,33.96668],[-118.35368,33.96674],[-118.35387,33.96657],[-118.3539,33.96654],[-118.35393,33.96652],[-118.35395,33.96651],[-118.35403,33.96647],[-118.35406,33.96647],[-118.35411,33.96647],[-118.35431,33.96646],[-118.35438,33.96645],[-118.35443,33.96644],[-118.35448,33.96645],[-118.35453,33.96646],[-118.35457,33.96648],[-118.35461,33.9665],[-118.35466,33.96653],[-118.35475,33.9666],[-118.35557,33.96707],[-118.35615,33.9674],[-118.35688,33.96782],[-118.357,33.96789],[-118.35825,33.96859],[-118.3588,33.9689],[-118.35896,33.96899],[-118.36064,33.96983],[-118.36071,33.96987],[-118.36095,33.96967],[-118.36106,33.96958],[-118.36115,33.9695],[-118.36122,33.96944],[-118.36126,33.9694],[-118.36137,33.96931],[-118.36138,33.9693],[-118.36147,33.96923],[-118.36155,33.96916],[-118.36163,33.96909],[-118.3617,33.96903],[-118.36171,33.96902],[-118.36183,33.96892],[-118.36189,33.96887],[-118.36197,33.96881],[-118.362,33.96878],[-118.36214,33.96866],[-118.36226,33.96855],[-118.36233,33.9685],[-118.36234,33.96848],[-118.36237,33.96844],[-118.36242,33.96838],[-118.36246,33.9684],[-118.36254,33.96842],[-118.36269,33.96847],[-118.36277,33.96849],[-118.36288,33.96852],[-118.36298,33.96854],[-118.36309,33.96856],[-118.36326,33.96858],[-118.36344,33.9686],[-118.36348,33.9686],[-118.36358,33.9686],[-118.36366,33.9686],[-118.36375,33.9686],[-118.36389,33.96858],[-118.36407,33.96857],[-118.36512,33.96842],[-118.36533,33.96839],[-118.36537,33.96839],[-118.36541,33.96838],[-118.36544,33.96838],[-118.36553,33.96835],[-118.36558,33.96834],[-118.36561,33.96832],[-118.36564,33.96831],[-118.36568,33.96828],[-118.3657,33.96826],[-118.36571,33.96825],[-118.36572,33.96823],[-118.36573,33.9682],[-118.36573,33.96817],[-118.36572,33.96812],[-118.36571,33.96802],[-118.36562,33.96771],[-118.3656,33.96764],[-118.36557,33.96754],[-118.36557,33.96752],[-118.36557,33.96749],[-118.36558,33.96746],[-118.36558,33.96744],[-118.3656,33.96741],[-118.36563,33.96738],[-118.36565,33.96736],[-118.36568,33.96735],[-118.36571,33.96734],[-118.36575,33.96733],[-118.36579,33.96732],[-118.36631,33.96725],[-118.36635,33.96724],[-118.3664,33.96724],[-118.36648,33.96722],[-118.36657,33.96719],[-118.36661,33.96717],[-118.36666,33.96713],[-118.36668,33.96711],[-118.36669,33.96709],[-118.36671,33.96706],[-118.36672,33.96703],[-118.36673,33.96699],[-118.36672,33.96692],[-118.36672,33.96665],[-118.36671,33.96651],[-118.36671,33.96646],[-118.3667,33.96633],[-118.36668,33.9662],[-118.36667,33.9661],[-118.36665,33.96605],[-118.36662,33.96591],[-118.3666,33.96585],[-118.36658,33.96579],[-118.36657,33.96575],[-118.36652,33.96564],[-118.36649,33.96556],[-118.36644,33.96544],[-118.36639,33.96538],[-118.36633,33.96525],[-118.36875,33.96429],[-118.36945,33.96401],[-118.36955,33.96397],[-118.3697,33.96391],[-118.36974,33.96389],[-118.3699,33.96383],[-118.3701,33.96375],[-118.37018,33.96372],[-118.37031,33.96367],[-118.37056,33.96357],[-118.37069,33.96352],[-118.37124,33.9633],[-118.37127,33.96329],[-118.37359,33.96237],[-118.37436,33.96205],[-118.37502,33.96179],[-118.37533,33.96167],[-118.37546,33.9616],[-118.37586,33.96141],[-118.37597,33.96135],[-118.37611,33.96127],[-118.37619,33.96122],[-118.3763,33.96115],[-118.37648,33.96102],[-118.37665,33.96089],[-118.37687,33.96072],[-118.37712,33.9605],[-118.37723,33.9604],[-118.37735,33.96029],[-118.37748,33.96013],[-118.37767,33.95991],[-118.37781,33.95973],[-118.37792,33.95958],[-118.378,33.95945],[-118.37805,33.95937],[-118.37814,33.9592],[-118.37826,33.95897],[-118.37829,33.95891],[-118.37867,33.95892],[-118.37868,33.95747],[-118.3787,33.95731],[-118.37871,33.95722],[-118.37871,33.95705],[-118.37871,33.95624],[-118.37871,33.95561],[-118.37871,33.95304],[-118.37871,33.95266],[-118.37704,33.95266],[-118.37532,33.95267],[-118.37502,33.95267],[-118.37432,33.95267],[-118.37355,33.95267],[-118.37255,33.95268],[-118.37181,33.95268],[-118.37097,33.95268],[-118.37007,33.95269],[-118.37007,33.95212],[-118.37007,33.95201],[-118.37007,33.95023],[-118.37007,33.95019],[-118.37007,33.94933],[-118.37007,33.94912],[-118.37007,33.94793],[-118.37007,33.94776],[-118.37006,33.94701],[-118.37006,33.94651],[-118.37006,33.94635],[-118.37006,33.94633],[-118.37006,33.94543],[-118.36909,33.94543],[-118.36908,33.94351],[-118.3692,33.94336],[-118.36921,33.94335],[-118.36922,33.94334],[-118.36923,33.94333],[-118.36924,33.94332],[-118.36925,33.94331],[-118.36926,33.94331],[-118.36926,33.9433],[-118.36927,33.9433],[-118.36928,33.94329],[-118.36928,33.94328],[-118.36929,33.94328],[-118.3693,33.94327],[-118.36931,33.94327],[-118.36931,33.94326],[-118.36932,33.94326],[-118.36933,33.94325],[-118.36934,33.94325],[-118.36935,33.94325],[-118.36935,33.94324],[-118.36936,33.94324],[-118.36937,33.94323],[-118.36938,33.94323],[-118.36939,33.94322],[-118.3694,33.94322],[-118.36941,33.94322],[-118.36941,33.94321],[-118.36942,33.94321],[-118.36943,33.94321],[-118.36944,33.9432],[-118.36945,33.9432],[-118.36946,33.9432],[-118.36947,33.94319],[-118.36948,33.94319],[-118.36949,33.94319],[-118.3695,33.94319],[-118.36951,33.94318],[-118.36952,33.94318],[-118.36954,33.94318],[-118.36954,33.94299],[-118.36954,33.94289],[-118.36942,33.94283],[-118.36934,33.94279],[-118.36927,33.94275],[-118.36921,33.94272],[-118.36913,33.94259],[-118.36908,33.94247],[-118.36909,33.94181],[-118.36875,33.94182],[-118.36857,33.94182],[-118.36796,33.94183],[-118.36796,33.94226],[-118.36794,33.94252],[-118.36736,33.94349],[-118.36714,33.9441],[-118.36696,33.94462],[-118.36667,33.94462],[-118.36631,33.94462],[-118.36584,33.94462],[-118.3657,33.94462],[-118.36561,33.94462],[-118.36561,33.94466],[-118.36461,33.94466],[-118.36361,33.94466],[-118.36352,33.94466],[-118.36344,33.94466],[-118.36299,33.94466],[-118.36299,33.9447],[-118.36299,33.94496],[-118.36291,33.94496],[-118.36253,33.94496],[-118.36236,33.94496],[-118.36236,33.94501],[-118.3619,33.94501],[-118.3619,33.94467],[-118.36144,33.94467],[-118.36134,33.94466],[-118.36123,33.94466],[-118.36078,33.94466],[-118.36032,33.94466],[-118.36032,33.94449],[-118.36032,33.94432],[-118.36016,33.94432],[-118.35975,33.94432],[-118.3597,33.94432],[-118.3597,33.9442],[-118.3597,33.94408],[-118.35924,33.94408],[-118.35908,33.94408],[-118.35908,33.94432],[-118.35841,33.94432],[-118.35833,33.94432],[-118.35827,33.94432],[-118.3581,33.94432],[-118.35808,33.94432],[-118.35808,33.94413],[-118.35808,33.94397],[-118.35755,33.94397],[-118.35708,33.94397],[-118.35699,33.94397],[-118.35699,33.94411],[-118.35699,33.9443],[-118.35691,33.9443],[-118.35646,33.94431],[-118.35646,33.94444],[-118.35646,33.9445],[-118.35646,33.94454],[-118.35646,33.94466],[-118.35601,33.94466],[-118.35592,33.94466],[-118.35592,33.94464],[-118.35592,33.94454],[-118.35585,33.94454],[-118.35539,33.94454],[-118.35494,33.94454],[-118.35484,33.94454],[-118.35484,33.94363],[-118.35484,33.94183],[-118.35378,33.94183],[-118.35324,33.94183],[-118.35265,33.94183],[-118.35262,33.94183],[-118.35201,33.94183],[-118.35201,33.94273],[-118.35044,33.94273],[-118.34828,33.94273],[-118.34828,33.94363],[-118.34828,33.94454],[-118.34828,33.94547],[-118.34916,33.94547],[-118.34917,33.94608],[-118.34917,33.94669],[-118.34917,33.94729],[-118.34917,33.94731],[-118.34917,33.94733],[-118.34917,33.94789],[-118.34917,33.94822],[-118.34917,33.9491],[-118.34917,33.95009],[-118.34917,33.95025],[-118.34918,33.95089],[-118.3492,33.95273],[-118.34924,33.95273],[-118.35004,33.95272],[-118.35092,33.95272],[-118.35136,33.95272],[-118.35175,33.95272],[-118.35265,33.95272],[-118.35266,33.95272],[-118.35264,33.95294],[-118.35261,33.95324],[-118.35251,33.9541],[-118.35249,33.95421],[-118.35243,33.95473],[-118.35243,33.9548],[-118.35237,33.95535],[-118.35219,33.95686],[-118.35218,33.95697],[-118.35294,33.95756],[-118.35304,33.95765],[-118.35306,33.95767],[-118.35312,33.95774],[-118.35315,33.95779],[-118.3532,33.95787],[-118.35322,33.95791],[-118.35323,33.95794],[-118.35325,33.95799],[-118.35326,33.95804],[-118.35327,33.95808],[-118.35328,33.95818],[-118.35328,33.95819],[-118.35329,33.95832],[-118.3533,33.95845],[-118.3533,33.95847],[-118.3533,33.95859],[-118.35331,33.95948],[-118.35333,33.96049],[-118.35335,33.96178],[-118.35336,33.96292],[-118.35337,33.96299],[-118.35336,33.96302],[-118.35337,33.96325],[-118.35338,33.96446],[-118.35339,33.96547],[-118.35339,33.96568],[-118.35339,33.96572]]]},"properties":{"DIV_CITY":3}},
{"type":"Feature","geometry":{"type":"Polygon","coordinates":[[[-118.33328,33.95622],[-118.33331,33.95622],[-118.33335,33.95623],[-118.33343,33.95623],[-118.33481,33.95623],[-118.3351,33.95624],[-118.33534,33.95624],[-118.3355,33.95623],[-118.33568,33.95624],[-118.3358,33.95625],[-118.33643,33.95631],[-118.3368,33.95636],[-118.33724,33.95641],[-118.33742,33.95643],[-118.33757,33.95644],[-118.33781,33.95646],[-118.33793,33.95646],[-118.33821,33.95646],[-118.33869,33.95646],[-118.33943,33.95647],[-118.33995,33.95647],[-118.34009,33.95647],[-118.34029,33.95647],[-118.34055,33.95649],[-118.34063,33.95649],[-118.34083,33.95652],[-118.34109,33.95655],[-118.34125,33.95657],[-118.3414,33.9566],[-118.34156,33.95662],[-118.3417,33.95665],[-118.34193,33.95669],[-118.3421,33.95672],[-118.34238,33.95675],[-118.34261,33.95676],[-118.34289,33.95678],[-118.34307,33.95678],[-118.34359,33.95678],[-118.34378,33.95678],[-118.34395,33.95678],[-118.34394,33.95537],[-118.34395,33.9553],[-118.34395,33.95419],[-118.34394,33.95273],[-118.34395,33.9527],[-118.34394,33.95089],[-118.34394,33.95026],[-118.34394,33.94915],[-118.34393,33.9479],[-118.34393,33.9473],[-118.34393,33.94669],[-118.34393,33.9461],[-118.34393,33.94547],[-118.34486,33.94547],[-118.34665,33.94547],[-118.34828,33.94547],[-118.34828,33.94454],[-118.34828,33.94363],[-118.34828,33.94273],[-118.34779,33.94273],[-118.34779,33.94265],[-118.34779,33.9425],[-118.34779,33.94239],[-118.34779,33.94235],[-118.34759,33.94235],[-118.34758,33.94235],[-118.34737,33.94235],[-118.34737,33.94229],[-118.34737,33.94228],[-118.34723,33.94228],[-118.34723,33.94229],[-118.34723,33.94233],[-118.34709,33.94233],[-118.34709,33.94265],[-118.34709,33.94272],[-118.34678,33.94272],[-118.34445,33.94272],[-118.34445,33.94266],[-118.34445,33.94227],[-118.34445,33.94204],[-118.34445,33.94189],[-118.34445,33.94184],[-118.34445,33.94175],[-118.34445,33.9414],[-118.34445,33.94137],[-118.34457,33.94137],[-118.34459,33.94137],[-118.34459,33.94098],[-118.34459,33.94085],[-118.34454,33.94085],[-118.34454,33.94008],[-118.34454,33.94003],[-118.34454,33.93999],[-118.34444,33.93999],[-118.3444,33.93999],[-118.3444,33.93913],[-118.34443,33.93913],[-118.34465,33.93913],[-118.34465,33.93904],[-118.34465,33.9387],[-118.34465,33.93831],[-118.34465,33.93822],[-118.34472,33.93822],[-118.34509,33.93822],[-118.34533,33.93822],[-118.34536,33.93822],[-118.34536,33.93809],[-118.34536,33.93787],[-118.34536,33.93782],[-118.34553,33.93782],[-118.34555,33.93782],[-118.34558,33.93782],[-118.34558,33.93751],[-118.34558,33.93746],[-118.34604,33.93746],[-118.34611,33.93746],[-118.3461,33.93675],[-118.3461,33.93673],[-118.34587,33.93673],[-118.34506,33.93674],[-118.34506,33.93458],[-118.34506,33.93452],[-118.34505,33.9335],[-118.34557,33.9335],[-118.34557,33.93314],[-118.3461,33.93314],[-118.3461,33.93303],[-118.3461,33.93274],[-118.34614,33.93272],[-118.34617,33.9327],[-118.34619,33.93267],[-118.34621,33.93265],[-118.34621,33.93262],[-118.34621,33.93258],[-118.3462,33.93255],[-118.34618,33.9325],[-118.34615,33.93246],[-118.3461,33.9324],[-118.34597,33.93223],[-118.34591,33.93216],[-118.34585,33.9321],[-118.34579,33.93204],[-118.34571,33.932],[-118.34501,33.93159],[-118.34391,33.93096],[-118.343,33.93096],[-118.34264,33.93096],[-118.33989,33.93097],[-118.33947,33.93097],[-118.33937,33.93097],[-118.3363,33.93097],[-118.33629,33.93097],[-118.33629,33.93081],[-118.33629,33.93021],[-118.33629,33.9302],[-118.33629,33.93004],[-118.33629,33.92998],[-118.33629,33.92991],[-118.33629,33.92949],[-118.33629,33.92948],[-118.33646,33.92948],[-118.33662,33.92948],[-118.33679,33.92948],[-118.33695,33.92948],[-118.33712,33.92948],[-118.33728,33.92948],[-118.3373,33.92948],[-118.33736,33.92948],[-118.33738,33.92948],[-118.33738,33.92931],[-118.33738,33.92901],[-118.33737,33.92805],[-118.33738,33.92719],[-118.33681,33.92611],[-118.33672,33.92595],[-118.33671,33.92595],[-118.33648,33.92582],[-118.33623,33.92569],[-118.336,33.92559],[-118.33588,33.92555],[-118.33573,33.92549],[-118.33558,33.92545],[-118.33525,33.92535],[-118.33517,33.92533],[-118.33516,33.92533],[-118.33501,33.9253],[-118.3347,33.92527],[-118.33455,33.92527],[-118.33425,33.92527],[-118.3339,33.92528],[-118.33337,33.92528],[-118.33335,33.92528],[-118.33298,33.92529],[-118.33203,33.92529],[-118.33047,33.92529],[-118.32951,33.92535],[-118.32698,33.9255],[-118.32686,33.92555],[-118.32677,33.92558],[-118.32668,33.92562],[-118.32661,33.92567],[-118.32656,33.92574],[-118.32652,33.92582],[-118.32651,33.92586],[-118.32651,33.92648],[-118.32651,33.92674],[-118.32628,33.92675],[-118.32586,33.92675],[-118.32577,33.92674],[-118.32577,33.92676],[-118.32578,33.92881],[-118.32584,33.92881],[-118.32627,33.92881],[-118.32651,33.9288],[-118.32651,33.92914],[-118.3265,33.92915],[-118.32524,33.92915],[-118.32465,33.92915],[-118.32457,33.92915],[-118.32402,33.92915],[-118.32352,33.92915],[-118.32303,33.92915],[-118.323,33.92915],[-118.32283,33.92915],[-118.32267,33.92915],[-118.32249,33.92915],[-118.32232,33.92915],[-118.32214,33.92915],[-118.32214,33.92918],[-118.32214,33.92932],[-118.32214,33.92946],[-118.32214,33.9296],[-118.32214,33.92974],[-118.32214,33.92989],[-118.32214,33.93006],[-118.32214,33.93021],[-118.32214,33.93022],[-118.32214,33.93038],[-118.32214,33.93055],[-118.32214,33.93071],[-118.32214,33.93083],[-118.32202,33.93083],[-118.32203,33.93077],[-118.32171,33.93077],[-118.3189,33.93078],[-118.318,33.93078],[-118.3178,33.93078],[-118.31778,33.93078],[-118.31778,33.93098],[-118.31778,33.9335],[-118.31778,33.93428],[-118.31778,33.93505],[-118.31778,33.93542],[-118.31778,33.93582],[-118.31777,33.93658],[-118.31778,33.93735],[-118.31778,33.93777],[-118.31777,33.93801],[-118.31777,33.93823],[-118.31777,33.93903],[-118.31776,33.93996],[-118.31776,33.93999],[-118.31776,33.94186],[-118.31775,33.94289],[-118.31775,33.94397],[-118.31775,33.94444],[-118.31775,33.94548],[-118.31885,33.94548],[-118.31993,33.94548],[-118.32103,33.94548],[-118.32212,33.94548],[-118.32323,33.94548],[-118.32377,33.94548],[-118.32432,33.94548],[-118.32535,33.94548],[-118.32647,33.94548],[-118.32784,33.94548],[-118.32922,33.94548],[-118.32922,33.94626],[-118.32922,33.94657],[-118.32921,33.9466],[-118.32921,33.94666],[-118.32922,33.94907],[-118.32925,33.95236],[-118.33044,33.95236],[-118.33044,33.95623],[-118.33052,33.95624],[-118.33071,33.95623],[-118.33237,33.95623],[-118.33328,33.95622]]]},"properties":{"DIV_CITY":4}}
]}