{"type":"FeatureCollection", "features": [
{"type":"Feature","geometry":{"type":"Polygon","coordinates":[[[-118.2687,34.04671],[-118.25936,34.05253],[-118.25402,34.05819],[-118.24892,34.06264],[-118.24634,34.05975],[-118.24312,34.05732],[-118.24116,34.05906],[-118.23955,34.05827],[-118.23785,34.05825],[-118.23525,34.06131],[-118.23314,34.06161],[-118.23238,34.06052],[-118.23293,34.05949],[-118.23198,34.05836],[-118.23195,34.05663],[-118.22709,34.05493],[-118.22625,34.05593],[-118.22692,34.06163],[-118.22453,34.06761],[-118.21893,34.06596],[-118.21153,34.06602],[-118.21173,34.0737],[-118.20909,34.07374],[-118.20915,34.07665],[-118.20785,34.07666],[-118.20734,34.07733],[-118.20652,34.07681],[-118.20602,34.07735],[-118.20607,34.07794],[-118.20767,34.07858],[-118.20592,34.07848],[-118.20544,34.07798],[-118.20547,34.07919],[-118.20405,34.07921],[-118.20408,34.08047],[-118.20289,34.08049],[-118.20295,34.08267],[-118.20055,34.08275],[-118.2002,34.08453],[-118.19581,34.08499],[-118.19286,34.08592],[-118.19292,34.09104],[-118.19115,34.09111],[-118.19118,34.0929],[-118.19051,34.09293],[-118.19091,34.09488],[-118.19033,34.09489],[-118.18947,34.09852],[-118.19072,34.09851],[-118.18976,34.10082],[-118.19094,34.10117],[-118.18928,34.10339],[-118.18935,34.10394],[-118.1912,34.10397],[-118.18618,34.10778],[-118.18912,34.1114],[-118.18844,34.11174],[-118.18941,34.11311],[-118.18842,34.11343],[-118.18857,34.114],[-118.18537,34.11532],[-118.18409,34.11525],[-118.18744,34.11751],[-118.1883,34.11709],[-118.18967,34.11795],[-118.19019,34.11769],[-118.1981,34.11905],[-118.19918,34.11927],[-118.19919,34.1196],[-118.2121,34.122],[-118.21307,34.12184],[-118.21298,34.12215],[-118.21417,34.12245],[-118.21443,34.1221],[-118.21455,34.12245],[-118.21588,34.12238],[-118.21579,34.12271],[-118.21633,34.12248],[-118.21836,34.1232],[-118.21864,34.12292],[-118.22072,34.12332],[-118.22059,34.12363],[-118.22123,34.12375],[-118.2207,34.12413],[-118.22223,34.1252],[-118.22632,34.12357],[-118.22837,34.1252],[-118.22923,34.12236],[-118.23128,34.12008],[-118.24271,34.11411],[-118.24744,34.11115],[-118.24874,34.11005],[-118.2495,34.10861],[-118.24543,34.10757],[-118.24324,34.10591],[-118.24238,34.10398],[-118.24223,34.09952],[-118.23938,34.09548],[-118.23717,34.09423],[-118.23226,34.09312],[-118.22944,34.09051],[-118.22838,34.08837],[-118.22738,34.08147],[-118.22798,34.08306],[-118.23765,34.08918],[-118.23822,34.08827],[-118.24049,34.08924],[-118.24122,34.08779],[-118.24366,34.08526],[-118.24414,34.08269],[-118.24489,34.08242],[-118.24524,34.08166],[-118.24403,34.08185],[-118.24289,34.08342],[-118.24134,34.08376],[-118.24251,34.08071],[-118.24402,34.07892],[-118.24803,34.08081],[-118.24897,34.07856],[-118.24892,34.07732],[-118.25116,34.07867],[-118.24994,34.07731],[-118.25064,34.07643],[-118.24896,34.07343],[-118.25735,34.07676],[-118.25965,34.07311],[-118.26002,34.07127],[-118.25959,34.06983],[-118.25805,34.06916],[-118.25896,34.06776],[-118.26087,34.06814],[-118.25944,34.06178],[-118.26376,34.06373],[-118.26428,34.06333],[-118.26593,34.06408],[-118.26562,34.06457],[-118.27031,34.06668],[-118.27268,34.06297],[-118.27344,34.06312],[-118.27927,34.06651],[-118.28325,34.06819],[-118.28583,34.06899],[-118.2879,34.06898],[-118.28789,34.06818],[-118.2886,34.06818],[-118.28847,34.06678],[-118.28996,34.06702],[-118.28994,34.06518],[-118.28568,34.0652],[-118.28567,34.06372],[-118.28422,34.06371],[-118.28231,34.06287],[-118.28421,34.05995],[-118.28422,34.06081],[-118.28784,34.06079],[-118.28783,34.05979],[-118.29111,34.05978],[-118.29099,34.05242],[-118.29162,34.05254],[-118.29162,34.05092],[-118.29999,34.05088],[-118.29998,34.04723],[-118.30076,34.04248],[-118.30028,34.03716],[-118.28675,34.03679],[-118.28402,34.03704],[-118.28398,34.0317],[-118.2747,34.02757],[-118.27467,34.03416],[-118.27346,34.04169],[-118.27191,34.04433],[-118.2687,34.04671]]]},"properties":{"District":1}},
{"type":"Feature","geometry":{"type":"Polygon","coordinates":[[[-118.33733,34.22104],[-118.33959,34.22097],[-118.33981,34.22458],[-118.34419,34.22451],[-118.3444,34.22813],[-118.36534,34.22871],[-118.35923,34.22239],[-118.35969,34.22158],[-118.36656,34.22212],[-118.36904,34.21907],[-118.36693,34.21763],[-118.36833,34.2157],[-118.37035,34.2157],[-118.37034,34.20844],[-118.39653,34.20847],[-118.39653,34.22165],[-118.42263,34.22167],[-118.42674,34.20735],[-118.4487,34.2117],[-118.44877,34.2012],[-118.44,34.2012],[-118.44,34.19394],[-118.44655,34.19393],[-118.44654,34.18766],[-118.43999,34.18766],[-118.43999,34.1794],[-118.43998,34.17213],[-118.41371,34.17214],[-118.41236,34.16229],[-118.41125,34.16024],[-118.40927,34.15882],[-118.40421,34.15714],[-118.39893,34.15284],[-118.39685,34.15168],[-118.39275,34.15037],[-118.38773,34.15037],[-118.38761,34.14261],[-118.38633,34.14159],[-118.38352,34.14064],[-118.38146,34.14053],[-118.37715,34.14156],[-118.37382,34.14328],[-118.37142,34.14373],[-118.36748,34.14361],[-118.36618,34.14086],[-118.36488,34.13936],[-118.36285,34.13785],[-118.36205,34.13897],[-118.36082,34.14111],[-118.36116,34.14275],[-118.35942,34.14271],[-118.35941,34.14311],[-118.35385,34.14299],[-118.34751,34.14214],[-118.34505,34.14245],[-118.34513,34.14264],[-118.35312,34.16129],[-118.35716,34.16129],[-118.35717,34.16484],[-118.35467,34.16491],[-118.35777,34.17217],[-118.36116,34.19466],[-118.37016,34.19635],[-118.37016,34.20101],[-118.36214,34.20113],[-118.36301,34.20686],[-118.33994,34.20651],[-118.33982,34.2112],[-118.33775,34.21128],[-118.33772,34.21259],[-118.33604,34.21431],[-118.33643,34.21457],[-118.33456,34.21562],[-118.33733,34.22104]]]},"properties":{"District":2}},
{"type":"Feature","geometry":{"type":"Polygon","coordinates":[[[-118.5492,34.22053],[-118.56231,34.22034],[-118.56231,34.22823],[-118.57106,34.22822],[-118.57106,34.23185],[-118.58084,34.23193],[-118.58182,34.23272],[-118.58212,34.23474],[-118.58307,34.2354],[-118.6051,34.23545],[-118.60284,34.23149],[-118.60262,34.23029],[-118.60322,34.22887],[-118.60512,34.22749],[-118.60583,34.22638],[-118.60608,34.21966],[-118.61473,34.21953],[-118.61464,34.18646],[-118.64409,34.18664],[-118.65447,34.18463],[-118.65716,34.18463],[-118.65995,34.18376],[-118.66486,34.18393],[-118.66818,34.18494],[-118.66817,34.17676],[-118.6586,34.17675],[-118.6586,34.17606],[-118.65921,34.17574],[-118.65861,34.17568],[-118.65864,34.16944],[-118.65428,34.16943],[-118.65429,34.16573],[-118.64555,34.1657],[-118.64556,34.16199],[-118.64199,34.16198],[-118.63975,34.15909],[-118.64128,34.15832],[-118.64128,34.15679],[-118.63858,34.1577],[-118.63217,34.15053],[-118.63126,34.15109],[-118.63027,34.15039],[-118.629,34.14728],[-118.61498,34.14728],[-118.61499,34.14927],[-118.565,34.13026],[-118.56481,34.13112],[-118.56403,34.13115],[-118.56006,34.13003],[-118.55723,34.12657],[-118.55616,34.12707],[-118.55586,34.12818],[-118.55463,34.12802],[-118.55383,34.12867],[-118.55363,34.12825],[-118.55483,34.12702],[-118.5546,34.12653],[-118.55242,34.12597],[-118.5495,34.12644],[-118.5481,34.12583],[-118.54442,34.12655],[-118.54207,34.12755],[-118.54166,34.12894],[-118.53932,34.1298],[-118.53943,34.13116],[-118.53781,34.13117],[-118.53737,34.13064],[-118.5374,34.13314],[-118.53159,34.13326],[-118.5316,34.1448],[-118.5332,34.147],[-118.53161,34.147],[-118.53161,34.1513],[-118.531,34.15076],[-118.5303,34.15086],[-118.52724,34.15865],[-118.52731,34.18661],[-118.5291,34.18661],[-118.53167,34.18808],[-118.53168,34.19023],[-118.53722,34.19056],[-118.53686,34.19325],[-118.53859,34.19319],[-118.5386,34.1993],[-118.52733,34.19931],[-118.52734,34.20477],[-118.53666,34.20476],[-118.53667,34.20839],[-118.54049,34.20839],[-118.54045,34.21565],[-118.54918,34.21563],[-118.5492,34.22053]]]},"properties":{"District":3}},
{"type":"Feature","geometry":{"type":"Polygon","coordinates":[[[-118.51861,34.20841],[-118.51862,34.22099],[-118.5492,34.22053],[-118.54918,34.21563],[-118.54045,34.21565],[-118.54049,34.20839],[-118.53667,34.20839],[-118.53666,34.20476],[-118.52734,34.20477],[-118.52733,34.19931],[-118.5386,34.1993],[-118.53859,34.19319],[-118.53686,34.19325],[-118.53722,34.19056],[-118.53168,34.19023],[-118.53167,34.18808],[-118.5291,34.18661],[-118.52731,34.18661],[-118.52724,34.15865],[-118.5303,34.15086],[-118.531,34.15076],[-118.53161,34.1513],[-118.53161,34.147],[-118.5332,34.147],[-118.5316,34.1448],[-118.53159,34.13326],[-118.5374,34.13314],[-118.53737,34.13064],[-118.5361,34.1303],[-118.53477,34.13165],[-118.53409,34.12991],[-118.53347,34.12994],[-118.53267,34.13096],[-118.53188,34.12965],[-118.52183,34.128],[-118.52073,34.12875],[-118.51887,34.12908],[-118.51301,34.12904],[-118.51115,34.12985],[-118.51042,34.13063],[-118.50853,34.13113],[-118.5073,34.13027],[-118.50687,34.1293],[-118.5039,34.12769],[-118.50285,34.12821],[-118.50306,34.12929],[-118.5023,34.1305],[-118.50191,34.13021],[-118.50245,34.12937],[-118.50125,34.12903],[-118.49696,34.13065],[-118.49529,34.12995],[-118.49282,34.1311],[-118.49068,34.13123],[-118.48901,34.13014],[-118.48477,34.12994],[-118.48253,34.13062],[-118.48053,34.12986],[-118.47933,34.12906],[-118.47888,34.12679],[-118.47748,34.1262],[-118.47387,34.12669],[-118.47077,34.13008],[-118.46979,34.13028],[-118.46897,34.12959],[-118.46749,34.12938],[-118.4656,34.13022],[-118.46414,34.13012],[-118.46292,34.13109],[-118.46082,34.13034],[-118.45919,34.13051],[-118.45549,34.13292],[-118.45463,34.13289],[-118.45314,34.13199],[-118.44953,34.13186],[-118.44634,34.13052],[-118.44335,34.13031],[-118.44065,34.13151],[-118.43943,34.13121],[-118.43844,34.1316],[-118.43505,34.13058],[-118.43284,34.13185],[-118.43102,34.13167],[-118.43004,34.13206],[-118.42934,34.13132],[-118.42678,34.13122],[-118.42465,34.13021],[-118.42144,34.12992],[-118.42081,34.1285],[-118.41942,34.12759],[-118.41681,34.12721],[-118.41542,34.12641],[-118.41459,34.12697],[-118.41403,34.12899],[-118.4132,34.12895],[-118.41219,34.12957],[-118.40761,34.12948],[-118.4062,34.12753],[-118.40393,34.12785],[-118.40302,34.12531],[-118.40089,34.12411],[-118.39814,34.12145],[-118.39818,34.11988],[-118.39758,34.11918],[-118.39624,34.11912],[-118.39441,34.12007],[-118.39378,34.11817],[-118.393,34.11858],[-118.39229,34.11821],[-118.39218,34.11374],[-118.39183,34.11374],[-118.3916,34.11243],[-118.39115,34.11243],[-118.39059,34.10921],[-118.39233,34.10633],[-118.3921,34.09906],[-118.39542,34.09618],[-118.39652,34.09619],[-118.39652,34.09507],[-118.39593,34.09502],[-118.39586,34.09106],[-118.38605,34.09104],[-118.38606,34.09247],[-118.38498,34.09356],[-118.3812,34.09333],[-118.38119,34.09211],[-118.37659,34.09475],[-118.37259,34.09569],[-118.36875,34.09798],[-118.36821,34.09798],[-118.36818,34.09709],[-118.36735,34.09688],[-118.36447,34.09714],[-118.3643,34.10128],[-118.35953,34.1017],[-118.35188,34.10165],[-118.35189,34.10118],[-118.35092,34.10073],[-118.35101,34.09802],[-118.34596,34.09798],[-118.34575,34.09719],[-118.3452,34.09718],[-118.34521,34.09798],[-118.34413,34.09797],[-118.34588,34.10369],[-118.34521,34.10395],[-118.33838,34.10414],[-118.33748,34.10518],[-118.30929,34.10539],[-118.30928,34.10264],[-118.3075,34.10265],[-118.30755,34.10218],[-118.30494,34.10249],[-118.30493,34.10211],[-118.30427,34.1025],[-118.30276,34.10209],[-118.30055,34.10226],[-118.30055,34.10176],[-118.29279,34.10174],[-118.28414,34.09582],[-118.27603,34.09566],[-118.2729,34.09878],[-118.27192,34.10593],[-118.27071,34.10638],[-118.27014,34.10756],[-118.26877,34.10693],[-118.26813,34.10525],[-118.26656,34.10525],[-118.26655,34.09632],[-118.26602,34.09563],[-118.26092,34.10037],[-118.25923,34.10073],[-118.25921,34.10448],[-118.25586,34.10657],[-118.26279,34.11016],[-118.26641,34.11264],[-118.26539,34.11371],[-118.26826,34.11741],[-118.27271,34.12763],[-118.27862,34.14824],[-118.27934,34.15321],[-118.279,34.15321],[-118.27933,34.1551],[-118.28055,34.15635],[-118.28268,34.15678],[-118.28797,34.15567],[-118.29146,34.15571],[-118.29548,34.1588],[-118.29743,34.15888],[-118.29884,34.15761],[-118.30435,34.15884],[-118.30726,34.16096],[-118.30874,34.16144],[-118.31033,34.16077],[-118.31292,34.154],[-118.31583,34.15446],[-118.31769,34.15632],[-118.32212,34.15573],[-118.33008,34.14975],[-118.33104,34.14832],[-118.33665,34.1465],[-118.33882,34.14523],[-118.34087,34.14551],[-118.34513,34.14264],[-118.34505,34.14245],[-118.34324,34.13822],[-118.34404,34.13785],[-118.34423,34.13607],[-118.34587,34.13468],[-118.34658,34.13465],[-118.34673,34.1339],[-118.34779,34.13347],[-118.34747,34.13315],[-118.34847,34.13289],[-118.34879,34.13139],[-118.35163,34.13413],[-118.35347,34.13404],[-118.35707,34.13508],[-118.35781,34.13799],[-118.35888,34.13805],[-118.35883,34.13865],[-118.35736,34.13834],[-118.35727,34.13926],[-118.35983,34.13935],[-118.35983,34.13873],[-118.36205,34.13897],[-118.36285,34.13785],[-118.36488,34.13936],[-118.36618,34.14086],[-118.36748,34.14361],[-118.37142,34.14373],[-118.37382,34.14328],[-118.37715,34.14156],[-118.38146,34.14053],[-118.38352,34.14064],[-118.38633,34.14159],[-118.38761,34.14261],[-118.38773,34.15037],[-118.39275,34.15037],[-118.39685,34.15168],[-118.39893,34.15284],[-118.40421,34.15714],[-118.40927,34.15882],[-118.41125,34.16024],[-118.41236,34.16229],[-118.41371,34.17214],[-118.43998,34.17213],[-118.43999,34.1794],[-118.46966,34.17939],[-118.46782,34.17573],[-118.46753,34.17095],[-118.46941,34.16627],[-118.46948,34.161],[-118.47297,34.16444],[-118.47518,34.1653],[-118.49237,34.16551],[-118.49237,34.16702],[-118.49465,34.16747],[-118.49644,34.16841],[-118.49927,34.17203],[-118.50547,34.17224],[-118.50548,34.18024],[-118.51582,34.18015],[-118.51581,34.183],[-118.51851,34.18299],[-118.51861,34.20841]]]},"properties":{"District":4}},
{"type":"Feature","geometry":{"type":"Polygon","coordinates":[[[-118.3916,34.11243],[-118.39183,34.11374],[-118.39218,34.11374],[-118.39229,34.11821],[-118.393,34.11858],[-118.39378,34.11817],[-118.39441,34.12007],[-118.39624,34.11912],[-118.39758,34.11918],[-118.39818,34.11988],[-118.39814,34.12145],[-118.40089,34.12411],[-118.40302,34.12531],[-118.40393,34.12785],[-118.4062,34.12753],[-118.40761,34.12948],[-118.41219,34.12957],[-118.4132,34.12895],[-118.41403,34.12899],[-118.41459,34.12697],[-118.41542,34.12641],[-118.41681,34.12721],[-118.41942,34.12759],[-118.42081,34.1285],[-118.42144,34.12992],[-118.42465,34.13021],[-118.42678,34.13122],[-118.42934,34.13132],[-118.43004,34.13206],[-118.43102,34.13167],[-118.43284,34.13185],[-118.43505,34.13058],[-118.43844,34.1316],[-118.43943,34.13121],[-118.44065,34.13151],[-118.44335,34.13031],[-118.44634,34.13052],[-118.44953,34.13186],[-118.45314,34.13199],[-118.45463,34.13289],[-118.45549,34.13292],[-118.45919,34.13051],[-118.46082,34.13034],[-118.46292,34.13109],[-118.46414,34.13012],[-118.4656,34.13022],[-118.46749,34.12938],[-118.46897,34.12959],[-118.46979,34.13028],[-118.47077,34.13008],[-118.47387,34.12669],[-118.47748,34.1262],[-118.47888,34.12679],[-118.47933,34.12906],[-118.48053,34.12986],[-118.48024,34.12767],[-118.47846,34.12449],[-118.48256,34.11864],[-118.48283,34.1111],[-118.47778,34.10372],[-118.47899,34.09819],[-118.47859,34.09721],[-118.4772,34.09663],[-118.47659,34.09544],[-118.47425,34.08284],[-118.47263,34.08014],[-118.45551,34.06005],[-118.45508,34.0603],[-118.45953,34.06547],[-118.4548,34.06673],[-118.45423,34.06513],[-118.44579,34.05533],[-118.4491,34.05336],[-118.44833,34.05246],[-118.44911,34.052],[-118.44819,34.04958],[-118.4486,34.04933],[-118.43978,34.0391],[-118.43747,34.03451],[-118.43313,34.03097],[-118.41831,34.01217],[-118.40698,34.01861],[-118.40565,34.01689],[-118.40045,34.02],[-118.4013,34.02109],[-118.40062,34.02148],[-118.40026,34.02087],[-118.3995,34.0213],[-118.39911,34.02079],[-118.39749,34.02179],[-118.39836,34.02292],[-118.39395,34.02571],[-118.39346,34.02538],[-118.3929,34.02613],[-118.38777,34.02907],[-118.39093,34.03121],[-118.38966,34.03343],[-118.38608,34.04678],[-118.38312,34.04572],[-118.37683,34.04454],[-118.37613,34.0471],[-118.37614,34.05239],[-118.37238,34.05168],[-118.37209,34.05255],[-118.36792,34.05175],[-118.36773,34.05216],[-118.36722,34.05206],[-118.36437,34.05825],[-118.36247,34.05796],[-118.35924,34.05556],[-118.35098,34.05256],[-118.3491,34.05729],[-118.3339,34.05695],[-118.32792,34.05526],[-118.32297,34.05469],[-118.31694,34.05254],[-118.30962,34.05264],[-118.30965,34.05968],[-118.31436,34.05989],[-118.3142,34.0617],[-118.32654,34.0619],[-118.32661,34.08203],[-118.32703,34.08203],[-118.32661,34.08217],[-118.32661,34.08349],[-118.34406,34.0838],[-118.34407,34.0889],[-118.35281,34.08897],[-118.35281,34.08715],[-118.36281,34.0872],[-118.36282,34.08874],[-118.36328,34.08898],[-118.36645,34.08893],[-118.36644,34.08715],[-118.37032,34.08709],[-118.37032,34.08561],[-118.3725,34.08544],[-118.37251,34.09026],[-118.37414,34.08996],[-118.37696,34.08863],[-118.37705,34.08304],[-118.37031,34.08316],[-118.37031,34.08017],[-118.37432,34.08017],[-118.37432,34.08194],[-118.37518,34.08194],[-118.37518,34.08016],[-118.37724,34.08014],[-118.37691,34.07897],[-118.37758,34.07875],[-118.37718,34.0766],[-118.39073,34.07651],[-118.39072,34.07212],[-118.38386,34.07213],[-118.38377,34.06969],[-118.37619,34.06941],[-118.37582,34.07006],[-118.37204,34.06387],[-118.37226,34.0622],[-118.37602,34.05962],[-118.37728,34.05953],[-118.37734,34.06296],[-118.38345,34.06294],[-118.38358,34.0571],[-118.40327,34.05684],[-118.40593,34.05711],[-118.40594,34.05484],[-118.40546,34.05487],[-118.4053,34.05441],[-118.40613,34.05415],[-118.40559,34.05297],[-118.40618,34.05275],[-118.41156,34.06043],[-118.41222,34.06011],[-118.41418,34.06285],[-118.41353,34.06317],[-118.41726,34.06839],[-118.41638,34.06884],[-118.41845,34.07231],[-118.41962,34.07259],[-118.42094,34.07543],[-118.42185,34.0751],[-118.4233,34.07569],[-118.42278,34.07705],[-118.42384,34.07975],[-118.4228,34.07994],[-118.42279,34.0831],[-118.42697,34.08305],[-118.42705,34.09064],[-118.42267,34.09065],[-118.4227,34.09428],[-118.41396,34.09427],[-118.41178,34.09226],[-118.41148,34.0935],[-118.40945,34.09486],[-118.40951,34.09614],[-118.40865,34.09715],[-118.40915,34.09768],[-118.40871,34.10151],[-118.40542,34.10147],[-118.40533,34.09631],[-118.40243,34.09367],[-118.40169,34.09421],[-118.4014,34.09384],[-118.4009,34.094],[-118.40105,34.10875],[-118.39868,34.10876],[-118.40006,34.11092],[-118.3992,34.11147],[-118.39659,34.11164],[-118.3966,34.11242],[-118.3916,34.11243]],[[-118.41605,34.11251],[-118.41588,34.11197],[-118.41397,34.11199],[-118.41398,34.11073],[-118.4118,34.1107],[-118.41182,34.10889],[-118.40975,34.10886],[-118.40976,34.10516],[-118.41744,34.1052],[-118.4175,34.1125],[-118.41605,34.11251]]]},"properties":{"District":5}},
{"type":"Feature","geometry":{"type":"Polygon","coordinates":[[[-118.36534,34.22871],[-118.36649,34.22993],[-118.36788,34.23914],[-118.36714,34.24181],[-118.36831,34.24201],[-118.36902,34.2415],[-118.3706,34.24299],[-118.36983,34.24355],[-118.37141,34.24504],[-118.37063,34.2456],[-118.37381,34.24857],[-118.37613,34.24688],[-118.3781,34.24797],[-118.37841,34.24775],[-118.37926,34.24855],[-118.37895,34.24878],[-118.37996,34.24975],[-118.37846,34.25219],[-118.37818,34.25506],[-118.38174,34.25575],[-118.38267,34.25435],[-118.38486,34.25642],[-118.39055,34.25747],[-118.41627,34.23868],[-118.43858,34.25983],[-118.44216,34.26465],[-118.4518,34.25184],[-118.45055,34.25062],[-118.45181,34.24994],[-118.4531,34.24601],[-118.45613,34.24259],[-118.45775,34.23547],[-118.46105,34.23549],[-118.46109,34.23186],[-118.473,34.23194],[-118.47311,34.22139],[-118.49256,34.22128],[-118.49432,34.22063],[-118.49911,34.22158],[-118.49894,34.2207],[-118.50149,34.22122],[-118.50989,34.22111],[-118.50988,34.20842],[-118.51861,34.20841],[-118.51851,34.18299],[-118.51581,34.183],[-118.51582,34.18015],[-118.50548,34.18024],[-118.50547,34.17224],[-118.49927,34.17203],[-118.49644,34.16841],[-118.49465,34.16747],[-118.49237,34.16702],[-118.49237,34.16551],[-118.47518,34.1653],[-118.47297,34.16444],[-118.46948,34.161],[-118.46941,34.16627],[-118.46753,34.17095],[-118.46782,34.17573],[-118.46966,34.17939],[-118.43999,34.1794],[-118.43999,34.18766],[-118.44654,34.18766],[-118.44655,34.19393],[-118.44,34.19394],[-118.44,34.2012],[-118.44877,34.2012],[-118.4487,34.2117],[-118.42674,34.20735],[-118.42263,34.22167],[-118.39653,34.22165],[-118.39653,34.20847],[-118.37034,34.20844],[-118.37035,34.2157],[-118.36833,34.2157],[-118.36693,34.21763],[-118.36904,34.21907],[-118.36656,34.22212],[-118.35969,34.22158],[-118.35923,34.22239],[-118.36534,34.22871]]]},"properties":{"District":6}},
{"type":"Feature","geometry":{"type":"Polygon","coordinates":[[[-118.33733,34.22104],[-118.33747,34.22132],[-118.26688,34.22185],[-118.26675,34.2408],[-118.26604,34.24036],[-118.26601,34.24394],[-118.26668,34.25078],[-118.26531,34.25027],[-118.26528,34.25238],[-118.25651,34.25227],[-118.2567,34.26719],[-118.23891,34.26709],[-118.2388,34.28159],[-118.27355,34.28167],[-118.27369,34.27807],[-118.28671,34.27834],[-118.2863,34.29265],[-118.29063,34.29272],[-118.29062,34.29323],[-118.29941,34.29326],[-118.29949,34.2861],[-118.32693,34.28607],[-118.32684,34.28244],[-118.35174,34.28248],[-118.35175,34.27884],[-118.35472,34.27885],[-118.36053,34.27997],[-118.36133,34.27973],[-118.36429,34.28077],[-118.36742,34.28037],[-118.36891,34.28326],[-118.36953,34.28347],[-118.37019,34.2819],[-118.37136,34.28235],[-118.36985,34.28613],[-118.37353,34.28615],[-118.37353,34.28317],[-118.37265,34.28284],[-118.37469,34.28283],[-118.37481,34.28366],[-118.37712,34.28337],[-118.38577,34.28482],[-118.38463,34.28818],[-118.38463,34.28974],[-118.38693,34.28974],[-118.38692,34.29154],[-118.38238,34.29153],[-118.38238,34.29333],[-118.38296,34.29333],[-118.38289,34.29696],[-118.3874,34.29697],[-118.38741,34.29879],[-118.39365,34.29879],[-118.39372,34.29698],[-118.39676,34.29699],[-118.397,34.29335],[-118.39983,34.29342],[-118.40027,34.29253],[-118.4016,34.28643],[-118.40618,34.28593],[-118.40941,34.28902],[-118.41036,34.29197],[-118.40897,34.29181],[-118.40908,34.29366],[-118.40352,34.29352],[-118.40347,34.29711],[-118.40122,34.29707],[-118.40106,34.30068],[-118.40561,34.30073],[-118.40548,34.30792],[-118.40376,34.30792],[-118.40389,34.31005],[-118.40334,34.31003],[-118.40303,34.30939],[-118.40185,34.30988],[-118.40093,34.30969],[-118.40075,34.31647],[-118.39757,34.31701],[-118.39654,34.31742],[-118.39629,34.31807],[-118.39627,34.31987],[-118.40067,34.31955],[-118.40273,34.3213],[-118.40492,34.32208],[-118.40521,34.32982],[-118.41359,34.32989],[-118.4136,34.32741],[-118.41222,34.32591],[-118.4136,34.32511],[-118.4136,34.32469],[-118.41591,34.32449],[-118.41906,34.32566],[-118.42076,34.32558],[-118.42075,34.32773],[-118.41947,34.32793],[-118.41823,34.3295],[-118.41902,34.32989],[-118.41947,34.32988],[-118.41948,34.32917],[-118.42,34.32917],[-118.41999,34.32988],[-118.47235,34.33012],[-118.49273,34.33063],[-118.50382,34.33731],[-118.50663,34.33519],[-118.50512,34.3334],[-118.50264,34.32749],[-118.5017,34.32392],[-118.49461,34.3199],[-118.49218,34.318],[-118.48559,34.30939],[-118.46768,34.29088],[-118.46746,34.28822],[-118.47197,34.27179],[-118.47221,34.2488],[-118.47282,34.24556],[-118.473,34.23194],[-118.46109,34.23186],[-118.46105,34.23549],[-118.45775,34.23547],[-118.45613,34.24259],[-118.4531,34.24601],[-118.45181,34.24994],[-118.45055,34.25062],[-118.4518,34.25184],[-118.44216,34.26465],[-118.43858,34.25983],[-118.41627,34.23868],[-118.39055,34.25747],[-118.38486,34.25642],[-118.38267,34.25435],[-118.38174,34.25575],[-118.37818,34.25506],[-118.37846,34.25219],[-118.37996,34.24975],[-118.37895,34.24878],[-118.37926,34.24855],[-118.37841,34.24775],[-118.3781,34.24797],[-118.37613,34.24688],[-118.37381,34.24857],[-118.37063,34.2456],[-118.37141,34.24504],[-118.36983,34.24355],[-118.3706,34.24299],[-118.36902,34.2415],[-118.36831,34.24201],[-118.36714,34.24181],[-118.36788,34.23914],[-118.36649,34.22993],[-118.36534,34.22871],[-118.3444,34.22813],[-118.34419,34.22451],[-118.33981,34.22458],[-118.33959,34.22097],[-118.33733,34.22104]],[[-118.44008,34.27611],[-118.44382,34.27338],[-118.45602,34.28491],[-118.44945,34.2897],[-118.45001,34.29041],[-118.44919,34.29115],[-118.44541,34.2945],[-118.44471,34.29388],[-118.43258,34.30469],[-118.42141,34.29438],[-118.41857,34.29646],[-118.4158,34.29385],[-118.41864,34.29177],[-118.41714,34.29036],[-118.43066,34.2805],[-118.43381,34.27769],[-118.4356,34.27938],[-118.44008,34.27611]]]},"properties":{"District":7}},
{"type":"Feature","geometry":{"type":"Polygon","coordinates":[[[-118.30028,34.03716],[-118.309,34.03726],[-118.3089,34.02556],[-118.31765,34.02555],[-118.31767,34.01913],[-118.31825,34.01828],[-118.31822,34.00369],[-118.33195,34.00364],[-118.33347,34.00495],[-118.33498,34.00744],[-118.33489,34.01461],[-118.33609,34.01466],[-118.33911,34.01093],[-118.3411,34.01008],[-118.34261,34.00872],[-118.34493,34.01006],[-118.34956,34.01177],[-118.35165,34.01189],[-118.35199,34.01141],[-118.35458,34.01222],[-118.35562,34.01222],[-118.35781,34.00913],[-118.35777,34.00719],[-118.35939,34.00154],[-118.35774,33.99711],[-118.35699,33.99788],[-118.35613,34.00063],[-118.35139,34.00469],[-118.34963,34.00511],[-118.34614,34.00463],[-118.34189,34.00471],[-118.33569,34.00811],[-118.335,34.00612],[-118.33179,34.00238],[-118.33151,33.99842],[-118.33164,33.99634],[-118.33729,33.99631],[-118.33727,33.98948],[-118.33779,33.98948],[-118.33728,33.9885],[-118.34249,33.98846],[-118.3425,33.98942],[-118.35269,33.98934],[-118.3527,33.98306],[-118.35848,33.98305],[-118.35855,33.98167],[-118.33529,33.98171],[-118.33522,33.9727],[-118.33308,33.97271],[-118.33308,33.96725],[-118.32659,33.96727],[-118.32658,33.97079],[-118.31774,33.97081],[-118.31775,33.94547],[-118.31338,33.94547],[-118.3134,33.93822],[-118.30904,33.93822],[-118.30903,33.94184],[-118.3052,33.94184],[-118.30519,33.94547],[-118.30247,33.94548],[-118.30241,33.95],[-118.30027,33.95],[-118.3003,33.9595],[-118.29161,33.9595],[-118.29168,33.9287],[-118.28083,33.92873],[-118.28058,33.931],[-118.26924,33.93119],[-118.25735,33.93485],[-118.25482,33.93525],[-118.25552,33.93697],[-118.257,33.93774],[-118.25869,33.93782],[-118.25869,33.9383],[-118.25418,33.93828],[-118.25412,33.94328],[-118.25365,33.94328],[-118.25355,33.95119],[-118.25404,33.95108],[-118.25405,33.95027],[-118.27171,33.95019],[-118.27168,33.9601],[-118.28072,33.96008],[-118.28075,33.98238],[-118.29015,33.98191],[-118.29149,33.98221],[-118.29149,33.98324],[-118.30026,33.98325],[-118.30019,34.01087],[-118.29155,34.01087],[-118.29155,34.0284],[-118.28883,34.02839],[-118.28883,34.03277],[-118.28644,34.03277],[-118.28398,34.0317],[-118.28402,34.03704],[-118.28675,34.03679],[-118.30028,34.03716]]]},"properties":{"District":8}},
{"type":"Feature","geometry":{"type":"Polygon","coordinates":[[[-118.23972,34.0148],[-118.23954,34.01998],[-118.24423,34.0209],[-118.25056,34.02444],[-118.27083,34.03384],[-118.26948,34.03595],[-118.27056,34.03671],[-118.26803,34.04066],[-118.26393,34.04501],[-118.2687,34.04671],[-118.27191,34.04433],[-118.27346,34.04169],[-118.27467,34.03416],[-118.2747,34.02757],[-118.28398,34.0317],[-118.28644,34.03277],[-118.28883,34.03277],[-118.28883,34.02839],[-118.29155,34.0284],[-118.29155,34.01087],[-118.30019,34.01087],[-118.30026,33.98325],[-118.29149,33.98324],[-118.29149,33.98221],[-118.29015,33.98191],[-118.28075,33.98238],[-118.28072,33.96008],[-118.27168,33.9601],[-118.27171,33.95019],[-118.25405,33.95027],[-118.25404,33.95108],[-118.25594,33.95307],[-118.25632,33.9895],[-118.23794,33.9894],[-118.23972,34.0148]]]},"properties":{"District":9}},
{"type":"Feature","geometry":{"type":"Polygon","coordinates":[[[-118.2879,34.06898],[-118.29167,34.06906],[-118.2917,34.07633],[-118.30852,34.07626],[-118.30855,34.07989],[-118.30918,34.07988],[-118.30916,34.07625],[-118.31017,34.07601],[-118.30973,34.07587],[-118.30969,34.07114],[-118.31026,34.07089],[-118.31025,34.06911],[-118.30975,34.06897],[-118.30973,34.06352],[-118.31404,34.06332],[-118.3142,34.0617],[-118.31436,34.05989],[-118.30965,34.05968],[-118.30962,34.05264],[-118.31694,34.05254],[-118.32297,34.05469],[-118.32792,34.05526],[-118.3339,34.05695],[-118.3491,34.05729],[-118.35098,34.05256],[-118.35924,34.05556],[-118.36247,34.05796],[-118.36437,34.05825],[-118.36722,34.05206],[-118.36773,34.05216],[-118.36792,34.05175],[-118.37209,34.05255],[-118.37238,34.05168],[-118.37614,34.05239],[-118.37613,34.0471],[-118.37683,34.04454],[-118.38312,34.04572],[-118.38608,34.04678],[-118.38966,34.03343],[-118.39093,34.03121],[-118.38777,34.02907],[-118.38718,34.0294],[-118.38641,34.02891],[-118.38422,34.03022],[-118.37593,34.03242],[-118.36959,34.03508],[-118.37191,34.02993],[-118.37365,34.03043],[-118.37624,34.0286],[-118.3771,34.02624],[-118.37649,34.02592],[-118.37685,34.02385],[-118.37796,34.02139],[-118.38139,34.02085],[-118.38133,34.02058],[-118.37799,34.01802],[-118.37593,34.01809],[-118.3758,34.01852],[-118.37276,34.01836],[-118.37415,34.01514],[-118.37319,34.01192],[-118.37266,34.01584],[-118.36673,34.01563],[-118.36718,34.00709],[-118.36504,34.00556],[-118.36266,34.00632],[-118.36145,34.00771],[-118.36145,34.00834],[-118.35781,34.00913],[-118.35562,34.01222],[-118.35458,34.01222],[-118.35199,34.01141],[-118.35165,34.01189],[-118.34956,34.01177],[-118.34493,34.01006],[-118.34261,34.00872],[-118.3411,34.01008],[-118.33911,34.01093],[-118.33609,34.01466],[-118.33489,34.01461],[-118.33498,34.00744],[-118.33347,34.00495],[-118.33195,34.00364],[-118.31822,34.00369],[-118.31825,34.01828],[-118.31767,34.01913],[-118.31765,34.02555],[-118.3089,34.02556],[-118.309,34.03726],[-118.30028,34.03716],[-118.30076,34.04248],[-118.29998,34.04723],[-118.29999,34.05088],[-118.29162,34.05092],[-118.29162,34.05254],[-118.29099,34.05242],[-118.29111,34.05978],[-118.28783,34.05979],[-118.28784,34.06079],[-118.28422,34.06081],[-118.28421,34.05995],[-118.28231,34.06287],[-118.28422,34.06371],[-118.28567,34.06372],[-118.28568,34.0652],[-118.28994,34.06518],[-118.28996,34.06702],[-118.28847,34.06678],[-118.2886,34.06818],[-118.28789,34.06818],[-118.2879,34.06898]]]},"properties":{"District":10}},
{"type":"Feature","geometry":{"type":"Polygon","coordinates":[[[-118.48053,34.12986],[-118.48253,34.13062],[-118.48477,34.12994],[-118.48901,34.13014],[-118.49068,34.13123],[-118.49282,34.1311],[-118.49529,34.12995],[-118.49696,34.13065],[-118.50125,34.12903],[-118.50245,34.12937],[-118.50191,34.13021],[-118.5023,34.1305],[-118.50306,34.12929],[-118.50285,34.12821],[-118.5039,34.12769],[-118.50687,34.1293],[-118.5073,34.13027],[-118.50853,34.13113],[-118.51042,34.13063],[-118.51115,34.12985],[-118.51301,34.12904],[-118.51887,34.12908],[-118.52073,34.12875],[-118.52183,34.128],[-118.53188,34.12965],[-118.53267,34.13096],[-118.53347,34.12994],[-118.53409,34.12991],[-118.53477,34.13165],[-118.5361,34.1303],[-118.53737,34.13064],[-118.53781,34.13117],[-118.53943,34.13116],[-118.53932,34.1298],[-118.54166,34.12894],[-118.54207,34.12755],[-118.54442,34.12655],[-118.5481,34.12583],[-118.5495,34.12644],[-118.55242,34.12597],[-118.5546,34.12653],[-118.55483,34.12702],[-118.55363,34.12825],[-118.55383,34.12867],[-118.55463,34.12802],[-118.55586,34.12818],[-118.55616,34.12707],[-118.55723,34.12657],[-118.56006,34.13003],[-118.56403,34.13115],[-118.56481,34.13112],[-118.565,34.13026],[-118.59922,34.07434],[-118.57041,34.06935],[-118.57012,34.04712],[-118.56715,34.04139],[-118.56293,34.04066],[-118.55637,34.0379],[-118.55417,34.03789],[-118.5527,34.03862],[-118.54998,34.03911],[-118.545,34.0384],[-118.52616,34.03046],[-118.52279,34.0287],[-118.51758,34.02506],[-118.51525,34.02694],[-118.51273,34.02998],[-118.5095,34.03285],[-118.5086,34.03307],[-118.50872,34.03397],[-118.5077,34.03627],[-118.50836,34.03916],[-118.50756,34.04008],[-118.50459,34.0413],[-118.50398,34.04073],[-118.49443,34.05062],[-118.48383,34.04156],[-118.47915,34.04519],[-118.47903,34.04569],[-118.47845,34.04563],[-118.47837,34.04616],[-118.4772,34.04663],[-118.45932,34.03133],[-118.45773,34.03165],[-118.45717,34.02975],[-118.45305,34.02807],[-118.44353,34.01658],[-118.48336,33.99551],[-118.4766,33.98726],[-118.4761,33.98577],[-118.47405,33.98511],[-118.47082,33.98193],[-118.46199,33.97097],[-118.4601,33.96793],[-118.45967,33.9658],[-118.46006,33.96384],[-118.46201,33.96272],[-118.45981,33.96369],[-118.4584,33.96152],[-118.46045,33.96045],[-118.45821,33.96142],[-118.45754,33.9607],[-118.45684,33.96091],[-118.45552,33.96047],[-118.45416,33.95955],[-118.45242,33.95708],[-118.44928,33.95217],[-118.44847,33.95056],[-118.44871,33.9502],[-118.44807,33.94999],[-118.44423,33.94328],[-118.44009,33.93788],[-118.43658,33.93082],[-118.43369,33.92356],[-118.433,33.92323],[-118.43061,33.9192],[-118.42989,33.91708],[-118.43027,33.91682],[-118.42946,33.91632],[-118.42223,33.91633],[-118.42223,33.91996],[-118.4244,33.91996],[-118.42441,33.92177],[-118.42658,33.92177],[-118.42659,33.92359],[-118.42767,33.92359],[-118.42768,33.92721],[-118.42877,33.92721],[-118.42878,33.93082],[-118.42496,33.93122],[-118.37874,33.93091],[-118.37874,33.92901],[-118.36839,33.92903],[-118.36839,33.93084],[-118.37013,33.93084],[-118.37018,33.95259],[-118.37889,33.95256],[-118.37891,33.95801],[-118.37653,33.96107],[-118.37125,33.96337],[-118.37163,33.96686],[-118.37283,33.96765],[-118.37238,33.96799],[-118.37013,33.968],[-118.37016,33.98164],[-118.35855,33.98167],[-118.35848,33.98305],[-118.37182,33.98301],[-118.37182,33.97724],[-118.37721,33.97694],[-118.38032,33.97628],[-118.38604,33.97662],[-118.39766,33.98207],[-118.39847,33.98318],[-118.3949,33.98386],[-118.39878,33.98813],[-118.40134,33.98655],[-118.40615,33.98947],[-118.40516,33.99051],[-118.40789,33.99213],[-118.4059,33.99299],[-118.40506,33.99467],[-118.40283,33.99584],[-118.401,33.99913],[-118.40109,33.99985],[-118.40164,33.99992],[-118.40081,34.00143],[-118.39983,34.00162],[-118.40277,34.00349],[-118.4059,33.99924],[-118.40909,34.00122],[-118.40965,34.00049],[-118.41437,34.00367],[-118.41615,34.00045],[-118.41965,33.99763],[-118.4312,33.99638],[-118.43031,33.99032],[-118.42976,33.98987],[-118.43088,33.98933],[-118.43245,33.99153],[-118.4371,33.99532],[-118.44696,33.99056],[-118.4484,33.99334],[-118.4447,33.99434],[-118.44339,33.99536],[-118.44247,33.9936],[-118.43038,33.99967],[-118.4307,34.00009],[-118.42833,34.00134],[-118.4259,33.99809],[-118.42024,33.99878],[-118.41818,34.00067],[-118.42109,34.00436],[-118.41736,34.00658],[-118.41938,34.00914],[-118.42007,34.00876],[-118.42138,34.01043],[-118.41831,34.01217],[-118.43313,34.03097],[-118.43747,34.03451],[-118.43978,34.0391],[-118.4486,34.04933],[-118.45229,34.04713],[-118.45409,34.04922],[-118.45659,34.04772],[-118.46797,34.06092],[-118.46891,34.06588],[-118.46674,34.06771],[-118.46535,34.06699],[-118.46321,34.06507],[-118.46283,34.06311],[-118.46111,34.06005],[-118.45879,34.05808],[-118.45551,34.06005],[-118.47263,34.08014],[-118.47425,34.08284],[-118.47659,34.09544],[-118.4772,34.09663],[-118.47859,34.09721],[-118.47899,34.09819],[-118.47778,34.10372],[-118.48283,34.1111],[-118.48256,34.11864],[-118.47846,34.12449],[-118.48024,34.12767],[-118.48053,34.12986]],[[-118.45487,33.98637],[-118.4415,33.98337],[-118.43878,33.98048],[-118.43227,33.97502],[-118.45131,33.96424],[-118.45469,33.96979],[-118.45865,33.97511],[-118.46143,33.97836],[-118.46181,33.97828],[-118.46207,33.97956],[-118.4633,33.98101],[-118.45487,33.98637]],[[-118.41488,33.98425],[-118.41345,33.98511],[-118.40904,33.98134],[-118.40997,33.98093],[-118.41019,33.9813],[-118.41247,33.9803],[-118.41488,33.98425]]]},"properties":{"District":11}},
{"type":"Feature","geometry":{"type":"Polygon","coordinates":[[[-118.473,34.23194],[-118.47282,34.24556],[-118.47221,34.2488],[-118.47197,34.27179],[-118.46746,34.28822],[-118.46768,34.29088],[-118.48559,34.30939],[-118.49218,34.318],[-118.49461,34.3199],[-118.5017,34.32392],[-118.50264,34.32749],[-118.50512,34.3334],[-118.50663,34.33519],[-118.53402,34.31454],[-118.54631,34.31734],[-118.54552,34.31566],[-118.54711,34.31336],[-118.54368,34.30572],[-118.54431,34.30395],[-118.54335,34.30326],[-118.54083,34.29882],[-118.55405,34.29642],[-118.5574,34.29925],[-118.55978,34.2992],[-118.56211,34.2988],[-118.5661,34.29582],[-118.56872,34.29464],[-118.57016,34.29536],[-118.57177,34.29862],[-118.5851,34.30348],[-118.58812,34.30293],[-118.59267,34.28722],[-118.59171,34.28024],[-118.59258,34.27804],[-118.59615,34.27462],[-118.60428,34.27762],[-118.60754,34.27785],[-118.62506,34.27521],[-118.62866,34.27351],[-118.63349,34.26967],[-118.63256,34.26343],[-118.63246,34.23858],[-118.62996,34.23859],[-118.63148,34.23702],[-118.64699,34.23809],[-118.64972,34.22712],[-118.65287,34.22712],[-118.65287,34.22756],[-118.6533,34.22756],[-118.6533,34.22711],[-118.65406,34.22711],[-118.65406,34.2235],[-118.6584,34.2235],[-118.65841,34.21642],[-118.65239,34.21642],[-118.65325,34.21295],[-118.66275,34.2129],[-118.66278,34.20935],[-118.66781,34.20933],[-118.66806,34.19498],[-118.65849,34.19497],[-118.65849,34.19677],[-118.65662,34.19676],[-118.65746,34.18992],[-118.65959,34.18925],[-118.66131,34.18946],[-118.66314,34.19003],[-118.66336,34.19051],[-118.66352,34.19015],[-118.66815,34.19134],[-118.66818,34.18494],[-118.66486,34.18393],[-118.65995,34.18376],[-118.65716,34.18463],[-118.65447,34.18463],[-118.64409,34.18664],[-118.61464,34.18646],[-118.61473,34.21953],[-118.60608,34.21966],[-118.60583,34.22638],[-118.60512,34.22749],[-118.60322,34.22887],[-118.60262,34.23029],[-118.60284,34.23149],[-118.6051,34.23545],[-118.58307,34.2354],[-118.58212,34.23474],[-118.58182,34.23272],[-118.58084,34.23193],[-118.57106,34.23185],[-118.57106,34.22822],[-118.56231,34.22823],[-118.56231,34.22034],[-118.5492,34.22053],[-118.51862,34.22099],[-118.51861,34.20841],[-118.50988,34.20842],[-118.50989,34.22111],[-118.50149,34.22122],[-118.49894,34.2207],[-118.49911,34.22158],[-118.49432,34.22063],[-118.49256,34.22128],[-118.47311,34.22139],[-118.473,34.23194]]]},"properties":{"District":12}},
{"type":"Feature","geometry":{"type":"Polygon","coordinates":[[[-118.279,34.15321],[-118.27934,34.15321],[-118.27862,34.14824],[-118.27271,34.12763],[-118.26826,34.11741],[-118.26539,34.11371],[-118.26641,34.11264],[-118.26279,34.11016],[-118.25586,34.10657],[-118.25921,34.10448],[-118.25923,34.10073],[-118.26092,34.10037],[-118.26602,34.09563],[-118.26655,34.09632],[-118.26656,34.10525],[-118.26813,34.10525],[-118.26877,34.10693],[-118.27014,34.10756],[-118.27071,34.10638],[-118.27192,34.10593],[-118.2729,34.09878],[-118.27603,34.09566],[-118.28414,34.09582],[-118.29279,34.10174],[-118.30055,34.10176],[-118.30055,34.10226],[-118.30276,34.10209],[-118.30427,34.1025],[-118.30493,34.10211],[-118.30494,34.10249],[-118.30755,34.10218],[-118.3075,34.10265],[-118.30928,34.10264],[-118.30929,34.10539],[-118.33748,34.10518],[-118.33838,34.10414],[-118.34521,34.10395],[-118.34588,34.10369],[-118.34413,34.09797],[-118.34521,34.09798],[-118.3452,34.09718],[-118.34575,34.09719],[-118.34596,34.09798],[-118.35101,34.09802],[-118.35092,34.10073],[-118.35189,34.10118],[-118.35188,34.10165],[-118.35953,34.1017],[-118.3643,34.10128],[-118.36447,34.09714],[-118.36166,34.09718],[-118.36165,34.09454],[-118.34339,34.09442],[-118.3434,34.0889],[-118.34407,34.0889],[-118.34406,34.0838],[-118.32661,34.08349],[-118.32661,34.08217],[-118.32703,34.08203],[-118.32661,34.08203],[-118.32654,34.0619],[-118.3142,34.0617],[-118.31404,34.06332],[-118.30973,34.06352],[-118.30975,34.06897],[-118.31025,34.06911],[-118.31026,34.07089],[-118.30969,34.07114],[-118.30973,34.07587],[-118.31017,34.07601],[-118.30916,34.07625],[-118.30918,34.07988],[-118.30855,34.07989],[-118.30852,34.07626],[-118.2917,34.07633],[-118.29167,34.06906],[-118.2879,34.06898],[-118.28583,34.06899],[-118.28325,34.06819],[-118.27927,34.06651],[-118.27344,34.06312],[-118.27268,34.06297],[-118.27031,34.06668],[-118.26562,34.06457],[-118.26593,34.06408],[-118.26428,34.06333],[-118.26376,34.06373],[-118.25944,34.06178],[-118.26087,34.06814],[-118.25896,34.06776],[-118.25805,34.06916],[-118.25959,34.06983],[-118.26002,34.07127],[-118.25965,34.07311],[-118.25735,34.07676],[-118.24896,34.07343],[-118.25064,34.07643],[-118.24994,34.07731],[-118.25116,34.07867],[-118.24892,34.07732],[-118.24897,34.07856],[-118.24803,34.08081],[-118.24402,34.07892],[-118.24251,34.08071],[-118.24134,34.08376],[-118.24289,34.08342],[-118.24403,34.08185],[-118.24524,34.08166],[-118.24489,34.08242],[-118.24414,34.08269],[-118.24366,34.08526],[-118.24122,34.08779],[-118.24049,34.08924],[-118.23822,34.08827],[-118.23765,34.08918],[-118.22798,34.08306],[-118.22738,34.08147],[-118.22838,34.08837],[-118.22944,34.09051],[-118.23226,34.09312],[-118.23717,34.09423],[-118.23938,34.09548],[-118.24223,34.09952],[-118.24238,34.10398],[-118.24324,34.10591],[-118.24543,34.10757],[-118.2495,34.10861],[-118.24874,34.11005],[-118.24744,34.11115],[-118.24271,34.11411],[-118.23128,34.12008],[-118.22923,34.12236],[-118.22837,34.1252],[-118.22963,34.13293],[-118.22958,34.13561],[-118.23372,34.1356],[-118.23373,34.13451],[-118.23629,34.1345],[-118.23662,34.13272],[-118.23525,34.12672],[-118.25328,34.12445],[-118.25365,34.12331],[-118.25115,34.12095],[-118.25427,34.11877],[-118.25884,34.12303],[-118.26236,34.12768],[-118.2756,34.15322],[-118.279,34.15321]]]},"properties":{"District":13}},
{"type":"Feature","geometry":{"type":"Polygon","coordinates":[[[-118.23972,34.0148],[-118.22582,34.01524],[-118.22581,34.01494],[-118.2237,34.01494],[-118.22341,34.01537],[-118.22324,34.01495],[-118.21716,34.01497],[-118.21716,34.0155],[-118.21271,34.0143],[-118.21271,34.01499],[-118.20829,34.01501],[-118.20699,34.01275],[-118.20504,34.01263],[-118.20507,34.01452],[-118.20122,34.01372],[-118.19143,34.01286],[-118.19145,34.01509],[-118.19223,34.01508],[-118.19239,34.03338],[-118.19139,34.0334],[-118.19141,34.03442],[-118.1924,34.03401],[-118.19264,34.06177],[-118.18131,34.06176],[-118.18131,34.0623],[-118.17308,34.0623],[-118.17341,34.0621],[-118.17284,34.06184],[-118.17185,34.0623],[-118.16531,34.0623],[-118.16453,34.06568],[-118.16245,34.06976],[-118.16281,34.06976],[-118.16172,34.0712],[-118.16177,34.07464],[-118.16051,34.07513],[-118.16067,34.0935],[-118.15628,34.09654],[-118.15538,34.09821],[-118.15537,34.09867],[-118.17801,34.0986],[-118.17801,34.11033],[-118.17725,34.11046],[-118.177,34.1122],[-118.17564,34.11263],[-118.17548,34.11312],[-118.17383,34.11314],[-118.1725,34.11381],[-118.16888,34.11785],[-118.1689,34.11993],[-118.16748,34.12111],[-118.16802,34.12393],[-118.16847,34.12392],[-118.1676,34.12497],[-118.16579,34.12555],[-118.1662,34.12616],[-118.16723,34.12589],[-118.17046,34.12693],[-118.17242,34.12601],[-118.17282,34.12478],[-118.17684,34.12314],[-118.17653,34.12662],[-118.1778,34.12683],[-118.1802,34.12643],[-118.18091,34.12834],[-118.18145,34.1282],[-118.18135,34.1295],[-118.18259,34.12919],[-118.18283,34.13122],[-118.18611,34.13374],[-118.18522,34.13607],[-118.1859,34.13619],[-118.18569,34.13888],[-118.18044,34.14101],[-118.18231,34.14374],[-118.18457,34.14541],[-118.1838,34.14906],[-118.19821,34.14905],[-118.1982,34.15163],[-118.19893,34.15116],[-118.20271,34.15064],[-118.20544,34.14744],[-118.20774,34.14725],[-118.20879,34.14651],[-118.21098,34.14622],[-118.21163,34.14718],[-118.21919,34.14752],[-118.21945,34.14828],[-118.22247,34.14926],[-118.22624,34.14979],[-118.22702,34.14763],[-118.22746,34.14776],[-118.22809,34.14672],[-118.2287,34.14674],[-118.22825,34.14645],[-118.22878,34.1459],[-118.22916,34.13808],[-118.22789,34.13809],[-118.22793,34.13561],[-118.22958,34.13561],[-118.22963,34.13293],[-118.22837,34.1252],[-118.22632,34.12357],[-118.22223,34.1252],[-118.2207,34.12413],[-118.22123,34.12375],[-118.22059,34.12363],[-118.22072,34.12332],[-118.21864,34.12292],[-118.21836,34.1232],[-118.21633,34.12248],[-118.21579,34.12271],[-118.21588,34.12238],[-118.21455,34.12245],[-118.21443,34.1221],[-118.21417,34.12245],[-118.21298,34.12215],[-118.21307,34.12184],[-118.2121,34.122],[-118.19919,34.1196],[-118.19918,34.11927],[-118.1981,34.11905],[-118.19019,34.11769],[-118.18967,34.11795],[-118.1883,34.11709],[-118.18744,34.11751],[-118.18409,34.11525],[-118.18537,34.11532],[-118.18857,34.114],[-118.18842,34.11343],[-118.18941,34.11311],[-118.18844,34.11174],[-118.18912,34.1114],[-118.18618,34.10778],[-118.1912,34.10397],[-118.18935,34.10394],[-118.18928,34.10339],[-118.19094,34.10117],[-118.18976,34.10082],[-118.19072,34.09851],[-118.18947,34.09852],[-118.19033,34.09489],[-118.19091,34.09488],[-118.19051,34.09293],[-118.19118,34.0929],[-118.19115,34.09111],[-118.19292,34.09104],[-118.19286,34.08592],[-118.19581,34.08499],[-118.2002,34.08453],[-118.20055,34.08275],[-118.20295,34.08267],[-118.20289,34.08049],[-118.20408,34.08047],[-118.20405,34.07921],[-118.20547,34.07919],[-118.20544,34.07798],[-118.20592,34.07848],[-118.20767,34.07858],[-118.20607,34.07794],[-118.20602,34.07735],[-118.20652,34.07681],[-118.20734,34.07733],[-118.20785,34.07666],[-118.20915,34.07665],[-118.20909,34.07374],[-118.21173,34.0737],[-118.21153,34.06602],[-118.21893,34.06596],[-118.22453,34.06761],[-118.22692,34.06163],[-118.22625,34.05593],[-118.22709,34.05493],[-118.23195,34.05663],[-118.23198,34.05836],[-118.23293,34.05949],[-118.23238,34.06052],[-118.23314,34.06161],[-118.23525,34.06131],[-118.23785,34.05825],[-118.23955,34.05827],[-118.24116,34.05906],[-118.24312,34.05732],[-118.24634,34.05975],[-118.24892,34.06264],[-118.25402,34.05819],[-118.25936,34.05253],[-118.2687,34.04671],[-118.26393,34.04501],[-118.26803,34.04066],[-118.27056,34.03671],[-118.26948,34.03595],[-118.27083,34.03384],[-118.25056,34.02444],[-118.24423,34.0209],[-118.23954,34.01998],[-118.23972,34.0148]]]},"properties":{"District":14}},
{"type":"Feature","geometry":{"type":"Polygon","coordinates":[[[-118.29168,33.9287],[-118.2918,33.89413],[-118.29064,33.86632],[-118.29169,33.86553],[-118.29808,33.86555],[-118.29807,33.86643],[-118.29452,33.86647],[-118.29437,33.87055],[-118.29916,33.87054],[-118.29933,33.8657],[-118.30926,33.8657],[-118.30887,33.81079],[-118.30836,33.809],[-118.30931,33.80881],[-118.30884,33.80672],[-118.30872,33.78222],[-118.30976,33.78195],[-118.30937,33.77919],[-118.30789,33.77957],[-118.30644,33.77496],[-118.30894,33.77497],[-118.3089,33.77237],[-118.31167,33.76288],[-118.30905,33.76257],[-118.30905,33.76052],[-118.30189,33.76052],[-118.30101,33.75773],[-118.3091,33.75773],[-118.30946,33.74679],[-118.31112,33.7468],[-118.31111,33.7473],[-118.31218,33.7473],[-118.31219,33.74681],[-118.31846,33.74685],[-118.31849,33.74262],[-118.31962,33.74264],[-118.32004,33.74145],[-118.31891,33.74034],[-118.31852,33.73634],[-118.31894,33.7366],[-118.32039,33.73578],[-118.32031,33.73545],[-118.31852,33.73526],[-118.31854,33.73199],[-118.31984,33.732],[-118.32093,33.73105],[-118.32102,33.7294],[-118.32848,33.72943],[-118.33305,33.7219],[-118.33048,33.72033],[-118.3256,33.71884],[-118.32303,33.71854],[-118.32209,33.71769],[-118.32267,33.71689],[-118.32187,33.71745],[-118.3206,33.71754],[-118.31977,33.71674],[-118.31997,33.71557],[-118.3193,33.71501],[-118.31789,33.71506],[-118.31755,33.71364],[-118.31498,33.71473],[-118.31276,33.71456],[-118.3096,33.71291],[-118.30456,33.71168],[-118.30074,33.71007],[-118.29801,33.70957],[-118.29553,33.70806],[-118.29517,33.70565],[-118.29446,33.70461],[-118.29179,33.70508],[-118.29108,33.70473],[-118.28849,33.70544],[-118.28586,33.70662],[-118.28483,33.70875],[-118.28289,33.70915],[-118.27913,33.70859],[-118.27753,33.70762],[-118.27711,33.70791],[-118.27189,33.70511],[-118.27723,33.70808],[-118.27393,33.70657],[-118.27561,33.70772],[-118.27723,33.70847],[-118.27735,33.70816],[-118.2797,33.7095],[-118.28277,33.71027],[-118.28301,33.71303],[-118.28459,33.71381],[-118.28453,33.7149],[-118.28334,33.71686],[-118.28184,33.71666],[-118.28164,33.7172],[-118.27987,33.71775],[-118.28018,33.71865],[-118.28174,33.71824],[-118.28277,33.7209],[-118.2812,33.72131],[-118.28154,33.72221],[-118.28311,33.72181],[-118.28386,33.72419],[-118.27983,33.72517],[-118.27864,33.72197],[-118.27705,33.72243],[-118.27557,33.71942],[-118.27657,33.71647],[-118.27645,33.71525],[-118.27399,33.71382],[-118.27269,33.71542],[-118.27656,33.72601],[-118.27616,33.72627],[-118.27546,33.72646],[-118.27292,33.71985],[-118.27113,33.72034],[-118.27383,33.72787],[-118.27782,33.73037],[-118.27864,33.73138],[-118.27866,33.73173],[-118.27436,33.72901],[-118.27419,33.72919],[-118.27479,33.7295],[-118.27587,33.73213],[-118.27809,33.73535],[-118.27872,33.73825],[-118.27829,33.7385],[-118.27857,33.74023],[-118.27808,33.74045],[-118.27491,33.74687],[-118.27842,33.74882],[-118.27777,33.74948],[-118.27449,33.74844],[-118.27386,33.74965],[-118.27426,33.75062],[-118.2738,33.75133],[-118.27726,33.75644],[-118.27895,33.75472],[-118.28166,33.75422],[-118.28349,33.75541],[-118.28864,33.75448],[-118.28951,33.75487],[-118.28936,33.75518],[-118.28796,33.75491],[-118.27986,33.7564],[-118.27822,33.75762],[-118.27849,33.75783],[-118.27558,33.7608],[-118.27988,33.76832],[-118.27858,33.76906],[-118.27688,33.7672],[-118.27737,33.76619],[-118.27063,33.76706],[-118.27422,33.75717],[-118.27277,33.75477],[-118.27209,33.7544],[-118.26969,33.75376],[-118.27017,33.75878],[-118.2661,33.76314],[-118.26532,33.76318],[-118.2659,33.7623],[-118.26566,33.76129],[-118.2666,33.76108],[-118.26814,33.75867],[-118.26736,33.75649],[-118.26797,33.75652],[-118.26771,33.75306],[-118.26722,33.7531],[-118.26108,33.75936],[-118.2614,33.76326],[-118.26386,33.76503],[-118.26382,33.76566],[-118.26315,33.76622],[-118.25981,33.76643],[-118.25949,33.76108],[-118.25067,33.77047],[-118.24937,33.77331],[-118.24755,33.77477],[-118.24268,33.7773],[-118.24145,33.7772],[-118.24153,33.77643],[-118.24747,33.77282],[-118.248,33.77203],[-118.24901,33.77179],[-118.2491,33.77043],[-118.25006,33.76847],[-118.24967,33.76811],[-118.2492,33.76857],[-118.24746,33.76642],[-118.24788,33.76613],[-118.2475,33.76553],[-118.24781,33.76534],[-118.25061,33.76764],[-118.25122,33.76685],[-118.25044,33.76697],[-118.24967,33.76588],[-118.25051,33.76528],[-118.25004,33.76431],[-118.24195,33.76658],[-118.24557,33.76385],[-118.2544,33.76044],[-118.25453,33.76071],[-118.25782,33.75953],[-118.2659,33.75164],[-118.27012,33.74845],[-118.27478,33.74071],[-118.27452,33.73591],[-118.27243,33.73256],[-118.27167,33.7362],[-118.27097,33.73608],[-118.27047,33.73531],[-118.27128,33.7303],[-118.26915,33.73076],[-118.26894,33.73012],[-118.27016,33.72979],[-118.2691,33.72992],[-118.26892,33.72929],[-118.2705,33.7288],[-118.26888,33.72605],[-118.26927,33.72594],[-118.26774,33.72183],[-118.2648,33.72255],[-118.26754,33.7298],[-118.26837,33.72959],[-118.26763,33.73004],[-118.2683,33.73018],[-118.26828,33.73299],[-118.26782,33.73344],[-118.26965,33.73596],[-118.27087,33.73667],[-118.26637,33.73856],[-118.26498,33.73655],[-118.26563,33.73535],[-118.26501,33.73459],[-118.26343,33.73462],[-118.26344,33.73251],[-118.2648,33.73107],[-118.26375,33.73094],[-118.26112,33.73171],[-118.26045,33.7312],[-118.24408,33.73621],[-118.24521,33.73892],[-118.25119,33.73747],[-118.25318,33.74233],[-118.25201,33.7446],[-118.2536,33.74473],[-118.25402,33.7452],[-118.25216,33.74907],[-118.25056,33.75074],[-118.24726,33.74876],[-118.24098,33.73364],[-118.24168,33.73375],[-118.25825,33.72888],[-118.2605,33.72411],[-118.25764,33.71683],[-118.24723,33.71527],[-118.24607,33.71562],[-118.2457,33.71606],[-118.25121,33.7236],[-118.23714,33.72768],[-118.24898,33.75591],[-118.24078,33.7583],[-118.24546,33.76389],[-118.22068,33.78254],[-118.22763,33.78996],[-118.22245,33.80416],[-118.22245,33.81246],[-118.22458,33.82157],[-118.22459,33.82439],[-118.22662,33.82949],[-118.22852,33.82438],[-118.22808,33.8242],[-118.2254,33.81101],[-118.22413,33.80799],[-118.22395,33.80622],[-118.22449,33.80451],[-118.22719,33.8001],[-118.23006,33.79255],[-118.23749,33.80049],[-118.25862,33.79944],[-118.25669,33.80477],[-118.26464,33.80456],[-118.2646,33.79913],[-118.283,33.79819],[-118.28292,33.79764],[-118.29911,33.79769],[-118.29906,33.8028],[-118.29965,33.80282],[-118.29963,33.80342],[-118.29903,33.8034],[-118.2985,33.81337],[-118.29927,33.81365],[-118.29911,33.84637],[-118.2862,33.84635],[-118.28621,33.85225],[-118.28529,33.85226],[-118.28527,33.85416],[-118.29066,33.85416],[-118.29067,33.85864],[-118.28595,33.86075],[-118.2856,33.86053],[-118.28545,33.86097],[-118.28148,33.86274],[-118.28158,33.87308],[-118.28212,33.87286],[-118.28312,33.89693],[-118.28228,33.8972],[-118.2821,33.92321],[-118.27804,33.92329],[-118.27806,33.92264],[-118.27765,33.92257],[-118.27734,33.92329],[-118.25361,33.9231],[-118.25354,33.92855],[-118.25422,33.9294],[-118.23916,33.92946],[-118.23025,33.92892],[-118.23084,33.93169],[-118.22866,33.93901],[-118.22949,33.94302],[-118.22744,33.94301],[-118.22861,33.94838],[-118.23394,33.94832],[-118.23391,33.95328],[-118.24421,33.95332],[-118.2442,33.95428],[-118.24746,33.95426],[-118.2475,33.95339],[-118.24895,33.95337],[-118.24919,33.94318],[-118.25365,33.94328],[-118.25412,33.94328],[-118.25418,33.93828],[-118.25869,33.9383],[-118.25869,33.93782],[-118.257,33.93774],[-118.25552,33.93697],[-118.25482,33.93525],[-118.25735,33.93485],[-118.26924,33.93119],[-118.28058,33.931],[-118.28083,33.92873],[-118.29168,33.9287]],[[-118.29911,33.84729],[-118.29913,33.85818],[-118.29706,33.85818],[-118.29705,33.84729],[-118.29911,33.84729]],[[-118.29952,33.74415],[-118.29802,33.74415],[-118.29802,33.74341],[-118.29684,33.74341],[-118.29687,33.7378],[-118.30916,33.73784],[-118.30913,33.74163],[-118.30415,33.74161],[-118.30416,33.73979],[-118.30219,33.73927],[-118.30218,33.7407],[-118.30301,33.7407],[-118.303,33.74161],[-118.30169,33.74161],[-118.30168,33.74342],[-118.29952,33.74341],[-118.29952,33.74415]]]},"properties":{"District":15}}
]}