{"type":"FeatureCollection", "features": [
{"type":"Feature","geometry":{"type":"Polygon","coordinates":[[[-118.11654,33.83241],[-118.11591,33.83241],[-118.10777,33.83239],[-118.10274,33.83237],[-118.10077,33.83236],[-118.09915,33.83236],[-118.0986,33.83235],[-118.09781,33.83235],[-118.09771,33.83235],[-118.0977,33.83235],[-118.09769,33.83235],[-118.09768,33.83235],[-118.09767,33.83235],[-118.09766,33.83235],[-118.09765,33.83235],[-118.09764,33.83235],[-118.09763,33.83235],[-118.09762,33.83235],[-118.09761,33.83235],[-118.0976,33.83235],[-118.09759,33.83235],[-118.09758,33.83235],[-118.09757,33.83235],[-118.09756,33.83235],[-118.09755,33.83235],[-118.09754,33.83235],[-118.09753,33.83235],[-118.09752,33.83235],[-118.09751,33.83235],[-118.0975,33.83235],[-118.09749,33.83235],[-118.09748,33.83235],[-118.09747,33.83235],[-118.09746,33.83235],[-118.09745,33.83235],[-118.09744,33.83235],[-118.09743,33.83235],[-118.09742,33.83234],[-118.09741,33.83234],[-118.0974,33.83234],[-118.09739,33.83234],[-118.09738,33.83234],[-118.09737,33.83234],[-118.09736,33.83234],[-118.09735,33.83234],[-118.09734,33.83234],[-118.09733,33.83234],[-118.09732,33.83234],[-118.09731,33.83234],[-118.0973,33.83234],[-118.09729,33.83234],[-118.09728,33.83234],[-118.09727,33.83234],[-118.09726,33.83234],[-118.09725,33.83234],[-118.09724,33.83234],[-118.09723,33.83234],[-118.09722,33.83234],[-118.09721,33.83234],[-118.0972,33.83233],[-118.09719,33.83233],[-118.09718,33.83233],[-118.09717,33.83233],[-118.09716,33.83233],[-118.09715,33.83233],[-118.09714,33.83233],[-118.09713,33.83233],[-118.09712,33.83233],[-118.09711,33.83233],[-118.0971,33.83233],[-118.09709,33.83233],[-118.09708,33.83233],[-118.09707,33.83233],[-118.09706,33.83233],[-118.09705,33.83233],[-118.09704,33.83233],[-118.09704,33.83232],[-118.09703,33.83232],[-118.09702,33.83232],[-118.09701,33.83232],[-118.097,33.83232],[-118.09699,33.83232],[-118.09698,33.83232],[-118.09697,33.83232],[-118.09696,33.83232],[-118.09695,33.83232],[-118.09694,33.83232],[-118.09693,33.83232],[-118.09692,33.83232],[-118.09691,33.83232],[-118.0969,33.83231],[-118.09689,33.83231],[-118.09688,33.83231],[-118.09687,33.83231],[-118.09686,33.83231],[-118.09685,33.83231],[-118.09684,33.83231],[-118.09683,33.83231],[-118.09682,33.83231],[-118.09681,33.83231],[-118.09354,33.83202],[-118.09344,33.83131],[-118.08957,33.83131],[-118.08402,33.83132],[-118.08184,33.83127],[-118.08174,33.83126],[-118.08177,33.83399],[-118.07969,33.83398],[-118.07972,33.83691],[-118.07986,33.83691],[-118.07999,33.83691],[-118.08011,33.83691],[-118.0802,33.83691],[-118.08026,33.8369],[-118.08039,33.8369],[-118.08049,33.8369],[-118.08059,33.8369],[-118.08066,33.8369],[-118.0808,33.8369],[-118.08104,33.8369],[-118.08122,33.8369],[-118.08143,33.8369],[-118.0816,33.8369],[-118.08173,33.8369],[-118.0818,33.8369],[-118.0818,33.83688],[-118.08206,33.83687],[-118.08224,33.83687],[-118.0824,33.83687],[-118.08257,33.83687],[-118.08273,33.83687],[-118.0829,33.83687],[-118.08306,33.83687],[-118.08324,33.83687],[-118.08341,33.83687],[-118.08357,33.83687],[-118.08375,33.83687],[-118.08394,33.83687],[-118.0841,33.83687],[-118.08427,33.83687],[-118.08443,33.83687],[-118.08461,33.83687],[-118.08478,33.83687],[-118.08494,33.83687],[-118.08511,33.83687],[-118.08527,33.83687],[-118.08544,33.83687],[-118.0856,33.83687],[-118.08562,33.83687],[-118.08565,33.83687],[-118.08567,33.83687],[-118.0857,33.83687],[-118.08571,33.83687],[-118.08573,33.83687],[-118.08574,33.83687],[-118.08576,33.83687],[-118.08577,33.83687],[-118.08578,33.83687],[-118.0858,33.83687],[-118.08581,33.83687],[-118.08583,33.83687],[-118.08584,33.83687],[-118.08585,33.83687],[-118.08586,33.83687],[-118.08588,33.83688],[-118.08589,33.83688],[-118.0859,33.83688],[-118.08591,33.83688],[-118.08593,33.83688],[-118.08594,33.83688],[-118.08596,33.83689],[-118.08597,33.83689],[-118.08599,33.83689],[-118.08601,33.8369],[-118.08603,33.8369],[-118.08604,33.8369],[-118.08605,33.83691],[-118.08607,33.83691],[-118.08609,33.83692],[-118.0861,33.83692],[-118.08612,33.83693],[-118.08613,33.83693],[-118.08614,33.83694],[-118.08615,33.83694],[-118.08617,33.83695],[-118.08618,33.83695],[-118.0862,33.83696],[-118.08622,33.83697],[-118.08624,33.83698],[-118.08625,33.83699],[-118.08626,33.83699],[-118.08627,33.83699],[-118.08628,33.837],[-118.0863,33.83701],[-118.0863,33.83702],[-118.08632,33.83702],[-118.08632,33.83703],[-118.08633,33.83703],[-118.08635,33.83704],[-118.08636,33.83706],[-118.08637,33.83706],[-118.08639,33.83707],[-118.0864,33.83708],[-118.08641,33.83709],[-118.08642,33.8371],[-118.08643,33.83711],[-118.08644,33.83712],[-118.08645,33.83713],[-118.08646,33.83714],[-118.08647,33.83715],[-118.08648,33.83716],[-118.08649,33.83717],[-118.08649,33.83718],[-118.0865,33.83718],[-118.08651,33.83719],[-118.08651,33.8372],[-118.08652,33.83721],[-118.08653,33.83722],[-118.08654,33.83723],[-118.08654,33.83724],[-118.08655,33.83724],[-118.08656,33.83726],[-118.08657,33.83728],[-118.08658,33.83729],[-118.08659,33.83731],[-118.08659,33.83732],[-118.0866,33.83734],[-118.08661,33.83736],[-118.08661,33.83737],[-118.08662,33.83738],[-118.08663,33.8374],[-118.08663,33.83741],[-118.08664,33.83743],[-118.08664,33.83745],[-118.08665,33.83747],[-118.08665,33.83749],[-118.08666,33.83751],[-118.08666,33.83753],[-118.08666,33.83755],[-118.08666,33.83757],[-118.08666,33.83759],[-118.08666,33.83761],[-118.08667,33.83775],[-118.08667,33.83789],[-118.08667,33.83803],[-118.08667,33.83817],[-118.08667,33.8384],[-118.08667,33.83852],[-118.08668,33.83862],[-118.08668,33.83868],[-118.08677,33.83868],[-118.08684,33.83868],[-118.08702,33.83868],[-118.08713,33.83868],[-118.0872,33.83868],[-118.08731,33.83868],[-118.08742,33.83867],[-118.08753,33.83867],[-118.08762,33.83867],[-118.08774,33.83867],[-118.08779,33.83867],[-118.08796,33.83867],[-118.08808,33.83867],[-118.08817,33.83867],[-118.08826,33.83867],[-118.08837,33.83867],[-118.0884,33.83871],[-118.08843,33.83877],[-118.08846,33.83882],[-118.0885,33.83889],[-118.08854,33.83897],[-118.08859,33.83905],[-118.08863,33.83912],[-118.08868,33.8392],[-118.08871,33.83926],[-118.08875,33.83932],[-118.08879,33.8394],[-118.08883,33.83946],[-118.08885,33.8395],[-118.08889,33.83957],[-118.08894,33.83965],[-118.08897,33.83971],[-118.08902,33.83979],[-118.08906,33.83986],[-118.08911,33.83996],[-118.08915,33.84003],[-118.0892,33.84011],[-118.08923,33.84017],[-118.08928,33.84025],[-118.08932,33.84032],[-118.08935,33.84037],[-118.0894,33.84045],[-118.08945,33.84054],[-118.08949,33.84061],[-118.08955,33.84071],[-118.08959,33.84078],[-118.08963,33.84085],[-118.08967,33.84093],[-118.08972,33.841],[-118.08976,33.84108],[-118.08981,33.84116],[-118.08985,33.84124],[-118.08988,33.84129],[-118.08993,33.84138],[-118.08997,33.84145],[-118.09003,33.84154],[-118.09007,33.84161],[-118.09011,33.84169],[-118.09015,33.84175],[-118.09017,33.84179],[-118.09021,33.84186],[-118.09026,33.84194],[-118.09031,33.84204],[-118.09036,33.84211],[-118.0904,33.8422],[-118.09046,33.84229],[-118.09051,33.84237],[-118.09055,33.84245],[-118.0906,33.84254],[-118.09064,33.84261],[-118.09069,33.8427],[-118.09073,33.84276],[-118.09077,33.84283],[-118.09081,33.84291],[-118.09085,33.84297],[-118.09089,33.84304],[-118.09092,33.84309],[-118.09097,33.84318],[-118.09101,33.84325],[-118.09104,33.8433],[-118.09107,33.84335],[-118.0911,33.84341],[-118.09114,33.84348],[-118.09118,33.84355],[-118.09122,33.84361],[-118.09126,33.84368],[-118.0913,33.84375],[-118.09134,33.84382],[-118.09139,33.84391],[-118.09144,33.84399],[-118.09147,33.84405],[-118.09152,33.84414],[-118.09156,33.84421],[-118.09161,33.8443],[-118.09165,33.84436],[-118.09169,33.84443],[-118.09173,33.8445],[-118.09178,33.84459],[-118.09184,33.84468],[-118.0919,33.84479],[-118.09195,33.84488],[-118.09199,33.84496],[-118.09204,33.84503],[-118.09212,33.84517],[-118.09221,33.84534],[-118.0923,33.84548],[-118.09243,33.84571],[-118.09255,33.84593],[-118.09922,33.84588],[-118.09923,33.84589],[-118.09923,33.8459],[-118.09924,33.84591],[-118.09924,33.84592],[-118.09925,33.84593],[-118.09925,33.84594],[-118.09926,33.84594],[-118.09926,33.84595],[-118.09927,33.84596],[-118.09927,33.84597],[-118.09928,33.84598],[-118.09928,33.84599],[-118.09929,33.846],[-118.09929,33.84601],[-118.0993,33.84602],[-118.0993,33.84603],[-118.09931,33.84604],[-118.09931,33.84605],[-118.09932,33.84606],[-118.09932,33.84607],[-118.09933,33.84608],[-118.09934,33.84609],[-118.09934,33.8461],[-118.09935,33.84611],[-118.09935,33.84612],[-118.09936,33.84612],[-118.09936,33.84613],[-118.09937,33.84614],[-118.09937,33.84615],[-118.09938,33.84616],[-118.09938,33.84617],[-118.09939,33.84618],[-118.09939,33.84619],[-118.0994,33.8462],[-118.0994,33.84621],[-118.09941,33.84622],[-118.09941,33.84623],[-118.09942,33.84624],[-118.09942,33.84625],[-118.09943,33.84626],[-118.09943,33.84627],[-118.09944,33.84628],[-118.09944,33.84629],[-118.09945,33.8463],[-118.09945,33.84631],[-118.09946,33.84632],[-118.09946,33.84633],[-118.09947,33.84633],[-118.09947,33.84634],[-118.09948,33.84635],[-118.09948,33.84636],[-118.09949,33.84637],[-118.09949,33.84638],[-118.0995,33.84639],[-118.0995,33.8464],[-118.09951,33.84641],[-118.09951,33.84642],[-118.09952,33.84643],[-118.09952,33.84644],[-118.09953,33.84645],[-118.09953,33.84646],[-118.09953,33.84647],[-118.09954,33.84648],[-118.09954,33.84649],[-118.09955,33.8465],[-118.09955,33.84651],[-118.09956,33.84652],[-118.09956,33.84653],[-118.09957,33.84654],[-118.09957,33.84655],[-118.09958,33.84656],[-118.09958,33.84657],[-118.09959,33.84657],[-118.09959,33.84658],[-118.0996,33.84659],[-118.0996,33.8466],[-118.09961,33.84661],[-118.09961,33.84662],[-118.09962,33.84663],[-118.09962,33.84664],[-118.09963,33.84665],[-118.09963,33.84666],[-118.09963,33.84667],[-118.09964,33.84668],[-118.09964,33.84669],[-118.09965,33.8467],[-118.09965,33.84671],[-118.09966,33.84672],[-118.09966,33.84673],[-118.09967,33.84674],[-118.09967,33.84675],[-118.09968,33.84676],[-118.09968,33.84677],[-118.09969,33.84678],[-118.09969,33.84679],[-118.0997,33.8468],[-118.0997,33.84681],[-118.0997,33.84682],[-118.09971,33.84683],[-118.09971,33.84684],[-118.09972,33.84685],[-118.09972,33.84686],[-118.09973,33.84687],[-118.09973,33.84688],[-118.09974,33.84688],[-118.09974,33.84689],[-118.09975,33.8469],[-118.09975,33.84691],[-118.09975,33.84692],[-118.09976,33.84693],[-118.09976,33.84694],[-118.09977,33.84695],[-118.09977,33.84696],[-118.09978,33.84697],[-118.09978,33.84698],[-118.09979,33.84699],[-118.09979,33.847],[-118.09979,33.84701],[-118.0998,33.84702],[-118.0998,33.84703],[-118.09981,33.84704],[-118.09981,33.84705],[-118.09982,33.84706],[-118.09982,33.84707],[-118.09983,33.84708],[-118.09983,33.84709],[-118.09983,33.8471],[-118.09984,33.84711],[-118.09984,33.84712],[-118.09985,33.84713],[-118.09985,33.84714],[-118.09986,33.84715],[-118.09986,33.84716],[-118.09986,33.84717],[-118.09987,33.84718],[-118.09987,33.84719],[-118.09988,33.8472],[-118.09988,33.84721],[-118.09989,33.84722],[-118.09989,33.84723],[-118.09989,33.84724],[-118.0999,33.84725],[-118.0999,33.84726],[-118.09991,33.84727],[-118.09991,33.84728],[-118.09992,33.84729],[-118.09992,33.8473],[-118.09993,33.84731],[-118.09993,33.84732],[-118.09994,33.84733],[-118.09994,33.84734],[-118.09994,33.84735],[-118.09995,33.84736],[-118.09995,33.84737],[-118.09996,33.84738],[-118.09996,33.84739],[-118.09997,33.8474],[-118.09997,33.84741],[-118.09997,33.84742],[-118.09998,33.84743],[-118.09998,33.84744],[-118.09999,33.84745],[-118.09999,33.84746],[-118.09999,33.84747],[-118.1,33.84748],[-118.1,33.84749],[-118.10001,33.8475],[-118.10001,33.84751],[-118.10001,33.84752],[-118.10002,33.84753],[-118.10002,33.84754],[-118.10003,33.84755],[-118.10003,33.84756],[-118.10003,33.84757],[-118.10004,33.84758],[-118.10004,33.84759],[-118.10004,33.8476],[-118.10005,33.84761],[-118.10005,33.84762],[-118.10006,33.84763],[-118.10006,33.84764],[-118.10007,33.84765],[-118.10007,33.84766],[-118.10007,33.84767],[-118.10008,33.84768],[-118.10008,33.84769],[-118.10008,33.8477],[-118.10009,33.84771],[-118.10009,33.84772],[-118.1001,33.84773],[-118.1001,33.84774],[-118.10011,33.84775],[-118.10011,33.84776],[-118.10011,33.84777],[-118.10012,33.84778],[-118.10012,33.84779],[-118.10012,33.8478],[-118.10013,33.84781],[-118.10013,33.84782],[-118.10014,33.84783],[-118.10014,33.84784],[-118.10014,33.84785],[-118.10015,33.84786],[-118.10015,33.84787],[-118.10015,33.84788],[-118.10016,33.84789],[-118.10016,33.8479],[-118.10016,33.84791],[-118.10017,33.84792],[-118.10017,33.84793],[-118.10018,33.84794],[-118.10018,33.84795],[-118.10018,33.84796],[-118.10019,33.84797],[-118.10019,33.84798],[-118.10019,33.84799],[-118.1002,33.848],[-118.1002,33.84801],[-118.1002,33.84802],[-118.10021,33.84803],[-118.10022,33.84804],[-118.10022,33.84805],[-118.10022,33.84806],[-118.10022,33.84807],[-118.10023,33.84808],[-118.10023,33.84809],[-118.10023,33.8481],[-118.10024,33.84811],[-118.10024,33.84812],[-118.10024,33.84813],[-118.10025,33.84814],[-118.10025,33.84815],[-118.10026,33.84816],[-118.10026,33.84817],[-118.10026,33.84818],[-118.10027,33.84819],[-118.10027,33.8482],[-118.10027,33.84821],[-118.10028,33.84822],[-118.10028,33.84823],[-118.10028,33.84824],[-118.10029,33.84825],[-118.10029,33.84826],[-118.1003,33.84827],[-118.1003,33.84828],[-118.1003,33.84829],[-118.10031,33.8483],[-118.10031,33.84831],[-118.10031,33.84832],[-118.10031,33.84833],[-118.10032,33.84834],[-118.10032,33.84835],[-118.10032,33.84836],[-118.10033,33.84837],[-118.10033,33.84838],[-118.10034,33.84839],[-118.10034,33.8484],[-118.10034,33.84841],[-118.10035,33.84842],[-118.10035,33.84843],[-118.10035,33.84844],[-118.10035,33.84845],[-118.10036,33.84846],[-118.10036,33.84847],[-118.10036,33.84848],[-118.10037,33.84849],[-118.10037,33.8485],[-118.10038,33.84851],[-118.10038,33.84852],[-118.10038,33.84853],[-118.10038,33.84854],[-118.10039,33.84855],[-118.10039,33.84856],[-118.10039,33.84857],[-118.1004,33.84858],[-118.1004,33.84859],[-118.1004,33.8486],[-118.10041,33.84861],[-118.10041,33.84862],[-118.10041,33.84863],[-118.10042,33.84864],[-118.10042,33.84865],[-118.10042,33.84866],[-118.10043,33.84867],[-118.10043,33.84868],[-118.10043,33.84869],[-118.10043,33.8487],[-118.10044,33.84871],[-118.10044,33.84872],[-118.10044,33.84873],[-118.10045,33.84874],[-118.10045,33.84875],[-118.10045,33.84876],[-118.10046,33.84877],[-118.10046,33.84878],[-118.10046,33.84879],[-118.10047,33.8488],[-118.10047,33.84881],[-118.10047,33.84882],[-118.10047,33.84883],[-118.10048,33.84884],[-118.10048,33.84885],[-118.10048,33.84886],[-118.10048,33.84887],[-118.10049,33.84888],[-118.10049,33.84889],[-118.10049,33.8489],[-118.1005,33.8489],[-118.1005,33.84891],[-118.1005,33.84892],[-118.1005,33.84893],[-118.10051,33.84894],[-118.10051,33.84895],[-118.10051,33.84896],[-118.10051,33.84897],[-118.10052,33.84898],[-118.10052,33.84899],[-118.10052,33.849],[-118.10052,33.84901],[-118.10053,33.84902],[-118.10053,33.84903],[-118.10053,33.84904],[-118.10054,33.84904],[-118.10054,33.84905],[-118.10054,33.84906],[-118.10054,33.84907],[-118.10055,33.84908],[-118.10055,33.84909],[-118.10055,33.8491],[-118.10055,33.84911],[-118.10056,33.84912],[-118.10056,33.84913],[-118.10169,33.85329],[-118.10237,33.85579],[-118.10268,33.8569],[-118.10309,33.85841],[-118.10339,33.8584],[-118.10341,33.85846],[-118.10374,33.85846],[-118.10374,33.85869],[-118.10389,33.85868],[-118.10408,33.85859],[-118.10635,33.85858],[-118.10664,33.85844],[-118.10725,33.85843],[-118.10725,33.85838],[-118.10827,33.85837],[-118.10835,33.86404],[-118.10838,33.86551],[-118.11143,33.86551],[-118.11142,33.86506],[-118.11141,33.86445],[-118.11139,33.86378],[-118.11138,33.86309],[-118.11138,33.86303],[-118.11136,33.86298],[-118.11133,33.8629],[-118.11128,33.86281],[-118.11123,33.86272],[-118.11119,33.86262],[-118.11115,33.86254],[-118.11113,33.86247],[-118.11112,33.86242],[-118.11112,33.86234],[-118.11112,33.86221],[-118.11111,33.86187],[-118.11111,33.86176],[-118.11111,33.86167],[-118.1111,33.86154],[-118.1111,33.86143],[-118.1111,33.86129],[-118.11109,33.86122],[-118.11109,33.86113],[-118.11109,33.86102],[-118.11109,33.86089],[-118.11109,33.86074],[-118.11108,33.86061],[-118.11108,33.86048],[-118.11108,33.86038],[-118.11108,33.86029],[-118.11108,33.86016],[-118.11108,33.86004],[-118.11107,33.85992],[-118.11107,33.85978],[-118.11107,33.85965],[-118.11107,33.85953],[-118.11107,33.85939],[-118.11106,33.85926],[-118.11106,33.85911],[-118.11106,33.85898],[-118.11106,33.85882],[-118.11105,33.85864],[-118.11105,33.85847],[-118.11105,33.85829],[-118.11114,33.85829],[-118.11129,33.85829],[-118.11144,33.85829],[-118.11165,33.85828],[-118.11171,33.85829],[-118.11171,33.85815],[-118.11171,33.85791],[-118.11171,33.85783],[-118.11171,33.85775],[-118.11171,33.85747],[-118.11171,33.8572],[-118.11171,33.85714],[-118.11171,33.85709],[-118.11171,33.85681],[-118.11171,33.85654],[-118.11171,33.85648],[-118.11171,33.85643],[-118.11171,33.85615],[-118.11171,33.85588],[-118.11171,33.85583],[-118.11171,33.85577],[-118.11171,33.8555],[-118.11171,33.85522],[-118.11171,33.85504],[-118.11171,33.85485],[-118.11171,33.85441],[-118.11171,33.85404],[-118.11171,33.85394],[-118.11171,33.85384],[-118.11169,33.85373],[-118.11167,33.85363],[-118.11164,33.85353],[-118.11161,33.85343],[-118.1116,33.85341],[-118.11159,33.8534],[-118.11157,33.85336],[-118.11155,33.85332],[-118.11143,33.8531],[-118.11133,33.85292],[-118.11123,33.85273],[-118.11116,33.8526],[-118.11108,33.85247],[-118.11101,33.85234],[-118.11094,33.85221],[-118.11087,33.85208],[-118.1108,33.85194],[-118.11067,33.85171],[-118.11063,33.85163],[-118.11055,33.85149],[-118.11048,33.85135],[-118.1104,33.85121],[-118.1103,33.85103],[-118.11019,33.85082],[-118.11003,33.85053],[-118.10977,33.85005],[-118.10953,33.8496],[-118.10938,33.84932],[-118.10922,33.84903],[-118.10917,33.84894],[-118.10908,33.84879],[-118.10901,33.84865],[-118.10894,33.84852],[-118.1088,33.84827],[-118.10871,33.8481],[-118.10863,33.84795],[-118.10859,33.84787],[-118.10855,33.8478],[-118.10853,33.84777],[-118.1085,33.84771],[-118.10848,33.84766],[-118.10846,33.84761],[-118.10844,33.84756],[-118.10842,33.8475],[-118.10841,33.84746],[-118.1084,33.84741],[-118.10838,33.84733],[-118.10837,33.84724],[-118.10837,33.84715],[-118.10837,33.84701],[-118.10847,33.84701],[-118.1086,33.84701],[-118.1088,33.84701],[-118.1088,33.84683],[-118.1088,33.84673],[-118.1088,33.84658],[-118.1088,33.84644],[-118.1088,33.84629],[-118.1088,33.84611],[-118.1088,33.84595],[-118.10881,33.84579],[-118.10881,33.84568],[-118.10881,33.84551],[-118.10881,33.84534],[-118.10881,33.84521],[-118.10881,33.84508],[-118.10881,33.84496],[-118.10881,33.84484],[-118.10881,33.84472],[-118.10881,33.84459],[-118.10881,33.84442],[-118.10881,33.84425],[-118.10881,33.84413],[-118.10881,33.84401],[-118.10882,33.84385],[-118.10882,33.84368],[-118.10882,33.84351],[-118.10882,33.84337],[-118.10882,33.84325],[-118.10882,33.84319],[-118.10882,33.8431],[-118.10882,33.84298],[-118.10882,33.84285],[-118.10882,33.84269],[-118.10882,33.84245],[-118.10882,33.84235],[-118.10882,33.84221],[-118.10882,33.8421],[-118.10882,33.84192],[-118.10882,33.84172],[-118.10883,33.8416],[-118.10883,33.84143],[-118.10883,33.84127],[-118.10883,33.84108],[-118.10883,33.84094],[-118.10883,33.84085],[-118.10883,33.84075],[-118.10883,33.84059],[-118.10883,33.84043],[-118.10883,33.84029],[-118.10883,33.84022],[-118.10883,33.84009],[-118.10883,33.83996],[-118.10883,33.8398],[-118.10883,33.83963],[-118.10884,33.83951],[-118.10884,33.83941],[-118.10884,33.83925],[-118.10884,33.83905],[-118.10884,33.83884],[-118.10884,33.83859],[-118.10884,33.83839],[-118.10884,33.83815],[-118.10884,33.83798],[-118.10885,33.83781],[-118.10885,33.83762],[-118.10885,33.83745],[-118.10885,33.83724],[-118.10885,33.83699],[-118.10885,33.83676],[-118.10885,33.83662],[-118.10885,33.83651],[-118.10885,33.83638],[-118.10885,33.83618],[-118.10885,33.83611],[-118.10885,33.83602],[-118.1097,33.83602],[-118.11011,33.83602],[-118.11059,33.83602],[-118.1109,33.83602],[-118.11125,33.83602],[-118.11145,33.83602],[-118.11171,33.83603],[-118.11202,33.83603],[-118.1123,33.83603],[-118.11253,33.83603],[-118.11281,33.83603],[-118.11316,33.83603],[-118.11329,33.83603],[-118.11348,33.83603],[-118.11375,33.83603],[-118.11391,33.83603],[-118.11409,33.83603],[-118.11436,33.83603],[-118.11459,33.83604],[-118.11477,33.83604],[-118.11497,33.83604],[-118.11519,33.83604],[-118.11545,33.83604],[-118.11565,33.83604],[-118.11581,33.83604],[-118.11602,33.83604],[-118.11617,33.83604],[-118.11627,33.83604],[-118.11649,33.83604],[-118.11649,33.83562],[-118.1165,33.83552],[-118.1165,33.83544],[-118.1165,33.83526],[-118.1165,33.83508],[-118.11651,33.8349],[-118.11651,33.83475],[-118.11651,33.8346],[-118.11651,33.83446],[-118.11652,33.83429],[-118.11652,33.8341],[-118.11652,33.83393],[-118.11652,33.83378],[-118.11653,33.8336],[-118.11653,33.83343],[-118.11653,33.83323],[-118.11653,33.83303],[-118.11654,33.8329],[-118.11654,33.83269],[-118.11654,33.83258],[-118.11654,33.83252],[-118.11654,33.83241]]]},"properties":{"COUNCIL_DISTRICT_NO":"4"}},
{"type":"Feature","geometry":{"type":"Polygon","coordinates":[[[-118.1425,33.84675],[-118.1425,33.84698],[-118.1425,33.84712],[-118.14249,33.848],[-118.14249,33.84891],[-118.14248,33.85047],[-118.14248,33.85109],[-118.14247,33.85167],[-118.14247,33.85207],[-118.14247,33.8538],[-118.14258,33.8538],[-118.14358,33.8538],[-118.144,33.85379],[-118.14433,33.85379],[-118.14472,33.85379],[-118.14544,33.85379],[-118.14554,33.85379],[-118.14603,33.85378],[-118.14613,33.85378],[-118.14613,33.85394],[-118.14613,33.85407],[-118.14613,33.85423],[-118.14613,33.85442],[-118.14623,33.85442],[-118.1464,33.85442],[-118.14657,33.85442],[-118.14673,33.85442],[-118.1469,33.85442],[-118.14706,33.85442],[-118.14723,33.85442],[-118.14739,33.85441],[-118.14755,33.85441],[-118.14772,33.85441],[-118.14788,33.85441],[-118.14805,33.85441],[-118.14821,33.85441],[-118.14838,33.85441],[-118.14854,33.85441],[-118.14871,33.85441],[-118.14887,33.85441],[-118.14904,33.85441],[-118.1492,33.85441],[-118.14937,33.85441],[-118.14953,33.85441],[-118.1497,33.85441],[-118.14987,33.85441],[-118.15022,33.85441],[-118.15039,33.8544],[-118.1504,33.8544],[-118.15057,33.8544],[-118.15057,33.85445],[-118.1509,33.85445],[-118.1509,33.8544],[-118.1513,33.8544],[-118.15148,33.8544],[-118.15163,33.8544],[-118.15181,33.8544],[-118.15199,33.8544],[-118.15217,33.8544],[-118.15235,33.8544],[-118.15255,33.8544],[-118.15273,33.85439],[-118.15291,33.85439],[-118.15313,33.85439],[-118.1533,33.85439],[-118.15347,33.85439],[-118.15379,33.85439],[-118.15402,33.85439],[-118.15402,33.85434],[-118.15412,33.85434],[-118.15429,33.85434],[-118.15445,33.85434],[-118.15462,33.85434],[-118.15478,33.85434],[-118.15496,33.85434],[-118.15511,33.85434],[-118.15527,33.85434],[-118.15546,33.85434],[-118.15551,33.85434],[-118.15551,33.85438],[-118.16434,33.85435],[-118.16434,33.85394],[-118.16476,33.854],[-118.1654,33.85411],[-118.16635,33.85425],[-118.16667,33.85427],[-118.16776,33.85426],[-118.16775,33.85047],[-118.16766,33.85045],[-118.16756,33.85045],[-118.16756,33.84765],[-118.16756,33.84681],[-118.16726,33.84681],[-118.16484,33.84691],[-118.16483,33.84691],[-118.16481,33.84691],[-118.1648,33.84691],[-118.16478,33.84691],[-118.16477,33.84692],[-118.16476,33.84692],[-118.16475,33.84692],[-118.16474,33.84692],[-118.16473,33.84692],[-118.16472,33.84692],[-118.16471,33.84692],[-118.1647,33.84692],[-118.16469,33.84692],[-118.16468,33.84692],[-118.16467,33.84692],[-118.16466,33.84692],[-118.16465,33.84692],[-118.16463,33.84692],[-118.16461,33.84692],[-118.1646,33.84692],[-118.16459,33.84692],[-118.16458,33.84692],[-118.16457,33.84692],[-118.16456,33.84692],[-118.16455,33.84692],[-118.16454,33.84692],[-118.16453,33.84692],[-118.16452,33.84692],[-118.16451,33.84692],[-118.1645,33.84692],[-118.16433,33.84692],[-118.16433,33.8394],[-118.16432,33.83116],[-118.16431,33.82781],[-118.16431,33.82778],[-118.1658,33.82778],[-118.16735,33.82779],[-118.16736,33.82779],[-118.16737,33.82779],[-118.16737,33.8267],[-118.16737,33.82471],[-118.16736,33.8243],[-118.16736,33.82292],[-118.16737,33.82292],[-118.16737,33.82081],[-118.16737,33.82055],[-118.16738,33.82041],[-118.16739,33.82027],[-118.1674,33.82012],[-118.16741,33.82005],[-118.16466,33.82005],[-118.16457,33.82033],[-118.1645,33.8206],[-118.16443,33.82088],[-118.16436,33.82115],[-118.16431,33.82143],[-118.16425,33.82171],[-118.16421,33.82199],[-118.16417,33.82226],[-118.16413,33.82254],[-118.16409,33.82292],[-118.16409,33.82293],[-118.16409,33.82295],[-118.16409,33.82296],[-118.16409,33.82298],[-118.16409,33.823],[-118.16408,33.82302],[-118.16408,33.82303],[-118.16405,33.8276],[-118.16369,33.8276],[-118.16368,33.8276],[-118.16334,33.82761],[-118.16089,33.8276],[-118.15997,33.82684],[-118.15792,33.82515],[-118.15597,33.82514],[-118.15596,33.82753],[-118.15544,33.82753],[-118.15543,33.82753],[-118.15433,33.82753],[-118.15413,33.82753],[-118.15412,33.82753],[-118.15412,33.8277],[-118.15412,33.82898],[-118.15193,33.82897],[-118.15107,33.82949],[-118.15044,33.83114],[-118.14992,33.83252],[-118.14272,33.8325],[-118.1427,33.83816],[-118.14269,33.83937],[-118.14266,33.84675],[-118.1425,33.84675]]]},"properties":{"COUNCIL_DISTRICT_NO":"1"}},
{"type":"Feature","geometry":{"type":"Polygon","coordinates":[[[-118.1425,33.84675],[-118.14222,33.84675],[-118.13202,33.84672],[-118.13202,33.84694],[-118.12905,33.84693],[-118.12509,33.84692],[-118.12509,33.84706],[-118.12509,33.84779],[-118.12509,33.84791],[-118.12508,33.84929],[-118.12508,33.84974],[-118.12507,33.85028],[-118.12507,33.85078],[-118.12507,33.85214],[-118.12506,33.85269],[-118.12506,33.85364],[-118.12506,33.85452],[-118.12506,33.85498],[-118.12506,33.85546],[-118.12507,33.85583],[-118.12507,33.8562],[-118.12507,33.85651],[-118.12507,33.85689],[-118.12508,33.85718],[-118.12508,33.85782],[-118.12509,33.85833],[-118.12509,33.85893],[-118.12509,33.85932],[-118.12509,33.85935],[-118.1251,33.86032],[-118.1251,33.86046],[-118.12511,33.8614],[-118.12511,33.8616],[-118.12511,33.86209],[-118.12513,33.8638],[-118.12513,33.86408],[-118.12513,33.86418],[-118.12514,33.8651],[-118.12514,33.86553],[-118.12514,33.86564],[-118.12515,33.86684],[-118.12516,33.86714],[-118.12516,33.86753],[-118.12516,33.86792],[-118.12516,33.868],[-118.12516,33.86818],[-118.12515,33.86836],[-118.12517,33.86877],[-118.12515,33.86887],[-118.12517,33.86904],[-118.129,33.86902],[-118.1306,33.86901],[-118.13387,33.86899],[-118.14217,33.86897],[-118.14256,33.86897],[-118.14667,33.86894],[-118.14667,33.86884],[-118.14667,33.86867],[-118.14663,33.86411],[-118.14661,33.86032],[-118.1511,33.8603],[-118.1511,33.86013],[-118.15537,33.86012],[-118.15555,33.86012],[-118.157,33.86011],[-118.15698,33.85747],[-118.15553,33.85748],[-118.15552,33.85588],[-118.15551,33.85438],[-118.15551,33.85434],[-118.15546,33.85434],[-118.15527,33.85434],[-118.15511,33.85434],[-118.15496,33.85434],[-118.15478,33.85434],[-118.15462,33.85434],[-118.15445,33.85434],[-118.15429,33.85434],[-118.15412,33.85434],[-118.15402,33.85434],[-118.15402,33.85439],[-118.15379,33.85439],[-118.15347,33.85439],[-118.1533,33.85439],[-118.15313,33.85439],[-118.15291,33.85439],[-118.15273,33.85439],[-118.15255,33.8544],[-118.15235,33.8544],[-118.15217,33.8544],[-118.15199,33.8544],[-118.15181,33.8544],[-118.15163,33.8544],[-118.15148,33.8544],[-118.1513,33.8544],[-118.1509,33.8544],[-118.1509,33.85445],[-118.15057,33.85445],[-118.15057,33.8544],[-118.1504,33.8544],[-118.15039,33.8544],[-118.15022,33.85441],[-118.14987,33.85441],[-118.1497,33.85441],[-118.14953,33.85441],[-118.14937,33.85441],[-118.1492,33.85441],[-118.14904,33.85441],[-118.14887,33.85441],[-118.14871,33.85441],[-118.14854,33.85441],[-118.14838,33.85441],[-118.14821,33.85441],[-118.14805,33.85441],[-118.14788,33.85441],[-118.14772,33.85441],[-118.14755,33.85441],[-118.14739,33.85441],[-118.14723,33.85442],[-118.14706,33.85442],[-118.1469,33.85442],[-118.14673,33.85442],[-118.14657,33.85442],[-118.1464,33.85442],[-118.14623,33.85442],[-118.14613,33.85442],[-118.14613,33.85423],[-118.14613,33.85407],[-118.14613,33.85394],[-118.14613,33.85378],[-118.14603,33.85378],[-118.14554,33.85379],[-118.14544,33.85379],[-118.14472,33.85379],[-118.14433,33.85379],[-118.144,33.85379],[-118.14358,33.8538],[-118.14258,33.8538],[-118.14247,33.8538],[-118.14247,33.85207],[-118.14247,33.85167],[-118.14248,33.85109],[-118.14248,33.85047],[-118.14249,33.84891],[-118.14249,33.848],[-118.1425,33.84712],[-118.1425,33.84698],[-118.1425,33.84675]]]},"properties":{"COUNCIL_DISTRICT_NO":"2"}},
{"type":"Feature","geometry":{"type":"Polygon","coordinates":[[[-118.11143,33.86551],[-118.11437,33.86552],[-118.11441,33.86898],[-118.11582,33.86898],[-118.11743,33.86898],[-118.11743,33.86908],[-118.12517,33.86904],[-118.12515,33.86887],[-118.12517,33.86877],[-118.12515,33.86836],[-118.12516,33.86818],[-118.12516,33.868],[-118.12516,33.86792],[-118.12516,33.86753],[-118.12516,33.86714],[-118.12515,33.86684],[-118.12514,33.86564],[-118.12514,33.86553],[-118.12514,33.8651],[-118.12513,33.86418],[-118.12513,33.86408],[-118.12513,33.8638],[-118.12511,33.86209],[-118.12511,33.8616],[-118.12511,33.8614],[-118.1251,33.86046],[-118.1251,33.86032],[-118.12509,33.85935],[-118.12509,33.85932],[-118.12509,33.85893],[-118.12509,33.85833],[-118.12508,33.85782],[-118.12508,33.85718],[-118.12507,33.85689],[-118.12507,33.85651],[-118.12507,33.8562],[-118.12507,33.85583],[-118.12506,33.85546],[-118.12506,33.85498],[-118.12506,33.85452],[-118.12506,33.85364],[-118.12506,33.85269],[-118.12507,33.85214],[-118.12507,33.85078],[-118.12507,33.85028],[-118.12508,33.84974],[-118.12508,33.84929],[-118.12509,33.84791],[-118.12509,33.84779],[-118.12509,33.84706],[-118.12509,33.84692],[-118.12493,33.84692],[-118.12496,33.83934],[-118.125,33.83244],[-118.11654,33.83241],[-118.11654,33.83252],[-118.11654,33.83258],[-118.11654,33.83269],[-118.11654,33.8329],[-118.11653,33.83303],[-118.11653,33.83323],[-118.11653,33.83343],[-118.11653,33.8336],[-118.11652,33.83378],[-118.11652,33.83393],[-118.11652,33.8341],[-118.11652,33.83429],[-118.11651,33.83446],[-118.11651,33.8346],[-118.11651,33.83475],[-118.11651,33.8349],[-118.1165,33.83508],[-118.1165,33.83526],[-118.1165,33.83544],[-118.1165,33.83552],[-118.11649,33.83562],[-118.11649,33.83604],[-118.11627,33.83604],[-118.11617,33.83604],[-118.11602,33.83604],[-118.11581,33.83604],[-118.11565,33.83604],[-118.11545,33.83604],[-118.11519,33.83604],[-118.11497,33.83604],[-118.11477,33.83604],[-118.11459,33.83604],[-118.11436,33.83603],[-118.11409,33.83603],[-118.11391,33.83603],[-118.11375,33.83603],[-118.11348,33.83603],[-118.11329,33.83603],[-118.11316,33.83603],[-118.11281,33.83603],[-118.11253,33.83603],[-118.1123,33.83603],[-118.11202,33.83603],[-118.11171,33.83603],[-118.11145,33.83602],[-118.11125,33.83602],[-118.1109,33.83602],[-118.11059,33.83602],[-118.11011,33.83602],[-118.1097,33.83602],[-118.10885,33.83602],[-118.10885,33.83611],[-118.10885,33.83618],[-118.10885,33.83638],[-118.10885,33.83651],[-118.10885,33.83662],[-118.10885,33.83676],[-118.10885,33.83699],[-118.10885,33.83724],[-118.10885,33.83745],[-118.10885,33.83762],[-118.10885,33.83781],[-118.10884,33.83798],[-118.10884,33.83815],[-118.10884,33.83839],[-118.10884,33.83859],[-118.10884,33.83884],[-118.10884,33.83905],[-118.10884,33.83925],[-118.10884,33.83941],[-118.10884,33.83951],[-118.10883,33.83963],[-118.10883,33.8398],[-118.10883,33.83996],[-118.10883,33.84009],[-118.10883,33.84022],[-118.10883,33.84029],[-118.10883,33.84043],[-118.10883,33.84059],[-118.10883,33.84075],[-118.10883,33.84085],[-118.10883,33.84094],[-118.10883,33.84108],[-118.10883,33.84127],[-118.10883,33.84143],[-118.10883,33.8416],[-118.10882,33.84172],[-118.10882,33.84192],[-118.10882,33.8421],[-118.10882,33.84221],[-118.10882,33.84235],[-118.10882,33.84245],[-118.10882,33.84269],[-118.10882,33.84285],[-118.10882,33.84298],[-118.10882,33.8431],[-118.10882,33.84319],[-118.10882,33.84325],[-118.10882,33.84337],[-118.10882,33.84351],[-118.10882,33.84368],[-118.10882,33.84385],[-118.10881,33.84401],[-118.10881,33.84413],[-118.10881,33.84425],[-118.10881,33.84442],[-118.10881,33.84459],[-118.10881,33.84472],[-118.10881,33.84484],[-118.10881,33.84496],[-118.10881,33.84508],[-118.10881,33.84521],[-118.10881,33.84534],[-118.10881,33.84551],[-118.10881,33.84568],[-118.10881,33.84579],[-118.1088,33.84595],[-118.1088,33.84611],[-118.1088,33.84629],[-118.1088,33.84644],[-118.1088,33.84658],[-118.1088,33.84673],[-118.1088,33.84683],[-118.1088,33.84701],[-118.1086,33.84701],[-118.10847,33.84701],[-118.10837,33.84701],[-118.10837,33.84715],[-118.10837,33.84724],[-118.10838,33.84733],[-118.1084,33.84741],[-118.10841,33.84746],[-118.10842,33.8475],[-118.10844,33.84756],[-118.10846,33.84761],[-118.10848,33.84766],[-118.1085,33.84771],[-118.10853,33.84777],[-118.10855,33.8478],[-118.10859,33.84787],[-118.10863,33.84795],[-118.10871,33.8481],[-118.1088,33.84827],[-118.10894,33.84852],[-118.10901,33.84865],[-118.10908,33.84879],[-118.10917,33.84894],[-118.10922,33.84903],[-118.10938,33.84932],[-118.10953,33.8496],[-118.10977,33.85005],[-118.11003,33.85053],[-118.11019,33.85082],[-118.1103,33.85103],[-118.1104,33.85121],[-118.11048,33.85135],[-118.11055,33.85149],[-118.11063,33.85163],[-118.11067,33.85171],[-118.1108,33.85194],[-118.11087,33.85208],[-118.11094,33.85221],[-118.11101,33.85234],[-118.11108,33.85247],[-118.11116,33.8526],[-118.11123,33.85273],[-118.11133,33.85292],[-118.11143,33.8531],[-118.11155,33.85332],[-118.11157,33.85336],[-118.11159,33.8534],[-118.1116,33.85341],[-118.11161,33.85343],[-118.11164,33.85353],[-118.11167,33.85363],[-118.11169,33.85373],[-118.11171,33.85384],[-118.11171,33.85394],[-118.11171,33.85404],[-118.11171,33.85441],[-118.11171,33.85485],[-118.11171,33.85504],[-118.11171,33.85522],[-118.11171,33.8555],[-118.11171,33.85577],[-118.11171,33.85583],[-118.11171,33.85588],[-118.11171,33.85615],[-118.11171,33.85643],[-118.11171,33.85648],[-118.11171,33.85654],[-118.11171,33.85681],[-118.11171,33.85709],[-118.11171,33.85714],[-118.11171,33.8572],[-118.11171,33.85747],[-118.11171,33.85775],[-118.11171,33.85783],[-118.11171,33.85791],[-118.11171,33.85815],[-118.11171,33.85829],[-118.11165,33.85828],[-118.11144,33.85829],[-118.11129,33.85829],[-118.11114,33.85829],[-118.11105,33.85829],[-118.11105,33.85847],[-118.11105,33.85864],[-118.11106,33.85882],[-118.11106,33.85898],[-118.11106,33.85911],[-118.11106,33.85926],[-118.11107,33.85939],[-118.11107,33.85953],[-118.11107,33.85965],[-118.11107,33.85978],[-118.11107,33.85992],[-118.11108,33.86004],[-118.11108,33.86016],[-118.11108,33.86029],[-118.11108,33.86038],[-118.11108,33.86048],[-118.11108,33.86061],[-118.11109,33.86074],[-118.11109,33.86089],[-118.11109,33.86102],[-118.11109,33.86113],[-118.11109,33.86122],[-118.1111,33.86129],[-118.1111,33.86143],[-118.1111,33.86154],[-118.11111,33.86167],[-118.11111,33.86176],[-118.11111,33.86187],[-118.11112,33.86221],[-118.11112,33.86234],[-118.11112,33.86242],[-118.11113,33.86247],[-118.11115,33.86254],[-118.11119,33.86262],[-118.11123,33.86272],[-118.11128,33.86281],[-118.11133,33.8629],[-118.11136,33.86298],[-118.11138,33.86303],[-118.11138,33.86309],[-118.11139,33.86378],[-118.11141,33.86445],[-118.11142,33.86506],[-118.11143,33.86551]]]},"properties":{"COUNCIL_DISTRICT_NO":"3"}},
{"type":"Feature","geometry":{"type":"Polygon","coordinates":[[[-118.07972,33.83691],[-118.07885,33.83691],[-118.07886,33.83864],[-118.07638,33.83864],[-118.07206,33.83865],[-118.07206,33.83806],[-118.06755,33.83807],[-118.06754,33.83711],[-118.06754,33.8371],[-118.06754,33.83709],[-118.06754,33.83708],[-118.06754,33.83707],[-118.06754,33.83706],[-118.06754,33.83705],[-118.06754,33.83704],[-118.06754,33.83703],[-118.06755,33.83703],[-118.06755,33.83702],[-118.06755,33.83701],[-118.06755,33.837],[-118.06755,33.83699],[-118.06755,33.83698],[-118.06755,33.83697],[-118.06756,33.83697],[-118.06756,33.83696],[-118.06756,33.83695],[-118.06759,33.83682],[-118.0676,33.83665],[-118.0676,33.83511],[-118.06779,33.83511],[-118.06779,33.83471],[-118.06878,33.83471],[-118.06877,33.83393],[-118.06877,33.83244],[-118.06772,33.83244],[-118.06772,33.83331],[-118.06123,33.83332],[-118.06121,33.83334],[-118.06108,33.83345],[-118.06097,33.83375],[-118.06096,33.83379],[-118.06089,33.83399],[-118.0608,33.83423],[-118.06072,33.83452],[-118.0607,33.83456],[-118.06063,33.8346],[-118.06058,33.83462],[-118.06053,33.83464],[-118.06048,33.83466],[-118.06044,33.83468],[-118.06039,33.8347],[-118.06034,33.83472],[-118.06029,33.83474],[-118.06024,33.83475],[-118.06018,33.83477],[-118.06013,33.83479],[-118.06008,33.8348],[-118.06003,33.83482],[-118.05998,33.83483],[-118.05993,33.83484],[-118.05987,33.83485],[-118.05982,33.83486],[-118.05977,33.83487],[-118.05971,33.83488],[-118.05966,33.83489],[-118.05961,33.8349],[-118.05955,33.83491],[-118.0595,33.83491],[-118.05944,33.83492],[-118.05939,33.83493],[-118.05933,33.83493],[-118.059,33.83521],[-118.05902,33.83873],[-118.06131,33.83868],[-118.0613,33.83879],[-118.06129,33.83886],[-118.06095,33.83887],[-118.0609,33.83922],[-118.06054,33.84175],[-118.06054,33.84177],[-118.06054,33.8418],[-118.06053,33.84182],[-118.06053,33.84184],[-118.06053,33.84187],[-118.06052,33.84189],[-118.06052,33.84192],[-118.06051,33.84194],[-118.06051,33.84196],[-118.06051,33.84199],[-118.0605,33.84201],[-118.0605,33.84203],[-118.06049,33.84206],[-118.06049,33.84208],[-118.06049,33.84211],[-118.06048,33.84213],[-118.06048,33.84215],[-118.06047,33.84218],[-118.06047,33.8422],[-118.06046,33.84222],[-118.06046,33.84225],[-118.06045,33.84227],[-118.06045,33.84229],[-118.06044,33.84232],[-118.06044,33.84234],[-118.06043,33.84236],[-118.06043,33.84239],[-118.06042,33.84241],[-118.06042,33.84243],[-118.06041,33.84246],[-118.06041,33.84248],[-118.0604,33.84251],[-118.0604,33.84253],[-118.06039,33.84255],[-118.06039,33.84258],[-118.06038,33.8426],[-118.06038,33.84262],[-118.06037,33.84265],[-118.06036,33.84267],[-118.06036,33.84269],[-118.06035,33.84272],[-118.06035,33.84274],[-118.06034,33.84276],[-118.06033,33.84279],[-118.06033,33.84281],[-118.06032,33.84283],[-118.06031,33.84286],[-118.06031,33.84288],[-118.0603,33.8429],[-118.0603,33.84293],[-118.06029,33.84295],[-118.06028,33.84297],[-118.06028,33.843],[-118.06027,33.84302],[-118.06026,33.84304],[-118.06026,33.84307],[-118.06025,33.84309],[-118.06024,33.84311],[-118.06023,33.84313],[-118.06023,33.84316],[-118.06022,33.84318],[-118.06021,33.8432],[-118.06021,33.84323],[-118.0602,33.84325],[-118.06019,33.84327],[-118.06018,33.8433],[-118.06018,33.84332],[-118.06017,33.84334],[-118.06016,33.84337],[-118.06015,33.84339],[-118.06014,33.84341],[-118.06014,33.84343],[-118.06013,33.84346],[-118.06012,33.84348],[-118.06011,33.8435],[-118.0601,33.84353],[-118.0601,33.84355],[-118.06009,33.84357],[-118.06008,33.8436],[-118.06007,33.84362],[-118.06006,33.84364],[-118.06005,33.84366],[-118.06005,33.84369],[-118.06004,33.84371],[-118.06003,33.84373],[-118.06002,33.84375],[-118.06001,33.84378],[-118.06,33.8438],[-118.05999,33.84382],[-118.05999,33.84385],[-118.05998,33.84387],[-118.05997,33.84389],[-118.05996,33.84391],[-118.05995,33.84394],[-118.05994,33.84396],[-118.05993,33.84398],[-118.05992,33.844],[-118.05991,33.84403],[-118.0599,33.84405],[-118.05989,33.84407],[-118.05988,33.84409],[-118.05987,33.84412],[-118.05986,33.84414],[-118.05985,33.84416],[-118.05984,33.84418],[-118.05983,33.84421],[-118.05982,33.84423],[-118.05981,33.84425],[-118.0598,33.84427],[-118.05979,33.8443],[-118.05978,33.84432],[-118.05977,33.84434],[-118.05976,33.84436],[-118.05975,33.84438],[-118.05974,33.84441],[-118.05973,33.84443],[-118.05972,33.84445],[-118.05971,33.84447],[-118.0597,33.8445],[-118.05969,33.84452],[-118.05968,33.84454],[-118.05967,33.84456],[-118.05966,33.84458],[-118.05965,33.84461],[-118.05963,33.84463],[-118.05962,33.84465],[-118.05961,33.84467],[-118.0596,33.84469],[-118.05959,33.84472],[-118.05958,33.84474],[-118.05957,33.84476],[-118.05955,33.84478],[-118.05954,33.8448],[-118.05953,33.84483],[-118.05952,33.84485],[-118.05951,33.84487],[-118.0595,33.84489],[-118.05949,33.84491],[-118.05947,33.84493],[-118.05946,33.84496],[-118.05945,33.84498],[-118.05944,33.845],[-118.05943,33.84502],[-118.05941,33.84504],[-118.0594,33.84506],[-118.05939,33.84509],[-118.05938,33.84511],[-118.05936,33.84513],[-118.05935,33.84515],[-118.05934,33.84517],[-118.05933,33.84519],[-118.05931,33.84522],[-118.0593,33.84524],[-118.05929,33.84526],[-118.05928,33.84528],[-118.05926,33.8453],[-118.05925,33.84532],[-118.05924,33.84534],[-118.05922,33.84537],[-118.05921,33.84539],[-118.0592,33.84541],[-118.05918,33.84543],[-118.05917,33.84545],[-118.05916,33.84547],[-118.05914,33.84549],[-118.05913,33.84551],[-118.05912,33.84553],[-118.0591,33.84556],[-118.05909,33.84558],[-118.05908,33.8456],[-118.05906,33.84562],[-118.05905,33.84564],[-118.05905,33.8462],[-118.06318,33.84616],[-118.0634,33.84616],[-118.0721,33.84609],[-118.07636,33.84605],[-118.0819,33.84601],[-118.08191,33.84751],[-118.08193,33.84964],[-118.08203,33.84964],[-118.08638,33.84964],[-118.08638,33.84751],[-118.08637,33.84598],[-118.08953,33.84595],[-118.09255,33.84593],[-118.09243,33.84571],[-118.0923,33.84548],[-118.09221,33.84534],[-118.09212,33.84517],[-118.09204,33.84503],[-118.09199,33.84496],[-118.09195,33.84488],[-118.0919,33.84479],[-118.09184,33.84468],[-118.09178,33.84459],[-118.09173,33.8445],[-118.09169,33.84443],[-118.09165,33.84436],[-118.09161,33.8443],[-118.09156,33.84421],[-118.09152,33.84414],[-118.09147,33.84405],[-118.09144,33.84399],[-118.09139,33.84391],[-118.09134,33.84382],[-118.0913,33.84375],[-118.09126,33.84368],[-118.09122,33.84361],[-118.09118,33.84355],[-118.09114,33.84348],[-118.0911,33.84341],[-118.09107,33.84335],[-118.09104,33.8433],[-118.09101,33.84325],[-118.09097,33.84318],[-118.09092,33.84309],[-118.09089,33.84304],[-118.09085,33.84297],[-118.09081,33.84291],[-118.09077,33.84283],[-118.09073,33.84276],[-118.09069,33.8427],[-118.09064,33.84261],[-118.0906,33.84254],[-118.09055,33.84245],[-118.09051,33.84237],[-118.09046,33.84229],[-118.0904,33.8422],[-118.09036,33.84211],[-118.09031,33.84204],[-118.09026,33.84194],[-118.09021,33.84186],[-118.09017,33.84179],[-118.09015,33.84175],[-118.09011,33.84169],[-118.09007,33.84161],[-118.09003,33.84154],[-118.08997,33.84145],[-118.08993,33.84138],[-118.08988,33.84129],[-118.08985,33.84124],[-118.08981,33.84116],[-118.08976,33.84108],[-118.08972,33.841],[-118.08967,33.84093],[-118.08963,33.84085],[-118.08959,33.84078],[-118.08955,33.84071],[-118.08949,33.84061],[-118.08945,33.84054],[-118.0894,33.84045],[-118.08935,33.84037],[-118.08932,33.84032],[-118.08928,33.84025],[-118.08923,33.84017],[-118.0892,33.84011],[-118.08915,33.84003],[-118.08911,33.83996],[-118.08906,33.83986],[-118.08902,33.83979],[-118.08897,33.83971],[-118.08894,33.83965],[-118.08889,33.83957],[-118.08885,33.8395],[-118.08883,33.83946],[-118.08879,33.8394],[-118.08875,33.83932],[-118.08871,33.83926],[-118.08868,33.8392],[-118.08863,33.83912],[-118.08859,33.83905],[-118.08854,33.83897],[-118.0885,33.83889],[-118.08846,33.83882],[-118.08843,33.83877],[-118.0884,33.83871],[-118.08837,33.83867],[-118.08826,33.83867],[-118.08817,33.83867],[-118.08808,33.83867],[-118.08796,33.83867],[-118.08779,33.83867],[-118.08774,33.83867],[-118.08762,33.83867],[-118.08753,33.83867],[-118.08742,33.83867],[-118.08731,33.83868],[-118.0872,33.83868],[-118.08713,33.83868],[-118.08702,33.83868],[-118.08684,33.83868],[-118.08677,33.83868],[-118.08668,33.83868],[-118.08668,33.83862],[-118.08667,33.83852],[-118.08667,33.8384],[-118.08667,33.83817],[-118.08667,33.83803],[-118.08667,33.83789],[-118.08667,33.83775],[-118.08666,33.83761],[-118.08666,33.83759],[-118.08666,33.83757],[-118.08666,33.83755],[-118.08666,33.83753],[-118.08666,33.83751],[-118.08665,33.83749],[-118.08665,33.83747],[-118.08664,33.83745],[-118.08664,33.83743],[-118.08663,33.83741],[-118.08663,33.8374],[-118.08662,33.83738],[-118.08661,33.83737],[-118.08661,33.83736],[-118.0866,33.83734],[-118.08659,33.83732],[-118.08659,33.83731],[-118.08658,33.83729],[-118.08657,33.83728],[-118.08656,33.83726],[-118.08655,33.83724],[-118.08654,33.83724],[-118.08654,33.83723],[-118.08653,33.83722],[-118.08652,33.83721],[-118.08651,33.8372],[-118.08651,33.83719],[-118.0865,33.83718],[-118.08649,33.83718],[-118.08649,33.83717],[-118.08648,33.83716],[-118.08647,33.83715],[-118.08646,33.83714],[-118.08645,33.83713],[-118.08644,33.83712],[-118.08643,33.83711],[-118.08642,33.8371],[-118.08641,33.83709],[-118.0864,33.83708],[-118.08639,33.83707],[-118.08637,33.83706],[-118.08636,33.83706],[-118.08635,33.83704],[-118.08633,33.83703],[-118.08632,33.83703],[-118.08632,33.83702],[-118.0863,33.83702],[-118.0863,33.83701],[-118.08628,33.837],[-118.08627,33.83699],[-118.08626,33.83699],[-118.08625,33.83699],[-118.08624,33.83698],[-118.08622,33.83697],[-118.0862,33.83696],[-118.08618,33.83695],[-118.08617,33.83695],[-118.08615,33.83694],[-118.08614,33.83694],[-118.08613,33.83693],[-118.08612,33.83693],[-118.0861,33.83692],[-118.08609,33.83692],[-118.08607,33.83691],[-118.08605,33.83691],[-118.08604,33.8369],[-118.08603,33.8369],[-118.08601,33.8369],[-118.08599,33.83689],[-118.08597,33.83689],[-118.08596,33.83689],[-118.08594,33.83688],[-118.08593,33.83688],[-118.08591,33.83688],[-118.0859,33.83688],[-118.08589,33.83688],[-118.08588,33.83688],[-118.08586,33.83687],[-118.08585,33.83687],[-118.08584,33.83687],[-118.08583,33.83687],[-118.08581,33.83687],[-118.0858,33.83687],[-118.08578,33.83687],[-118.08577,33.83687],[-118.08576,33.83687],[-118.08574,33.83687],[-118.08573,33.83687],[-118.08571,33.83687],[-118.0857,33.83687],[-118.08567,33.83687],[-118.08565,33.83687],[-118.08562,33.83687],[-118.0856,33.83687],[-118.08544,33.83687],[-118.08527,33.83687],[-118.08511,33.83687],[-118.08494,33.83687],[-118.08478,33.83687],[-118.08461,33.83687],[-118.08443,33.83687],[-118.08427,33.83687],[-118.0841,33.83687],[-118.08394,33.83687],[-118.08375,33.83687],[-118.08357,33.83687],[-118.08341,33.83687],[-118.08324,33.83687],[-118.08306,33.83687],[-118.0829,33.83687],[-118.08273,33.83687],[-118.08257,33.83687],[-118.0824,33.83687],[-118.08224,33.83687],[-118.08206,33.83687],[-118.0818,33.83688],[-118.0818,33.8369],[-118.08173,33.8369],[-118.0816,33.8369],[-118.08143,33.8369],[-118.08122,33.8369],[-118.08104,33.8369],[-118.0808,33.8369],[-118.08066,33.8369],[-118.08059,33.8369],[-118.08049,33.8369],[-118.08039,33.8369],[-118.08026,33.8369],[-118.0802,33.83691],[-118.08011,33.83691],[-118.07999,33.83691],[-118.07986,33.83691],[-118.07972,33.83691]]]},"properties":{"COUNCIL_DISTRICT_NO":"5"}}
]}