{"type":"FeatureCollection", "features": [
{"type":"Feature","geometry":{"type":"Polygon","coordinates":[[[-118.12293,34.06978],[-118.12356,34.06978],[-118.12419,34.06978],[-118.1245,34.06978],[-118.1248,34.06978],[-118.12501,34.06978],[-118.12543,34.06977],[-118.12605,34.06977],[-118.12669,34.06977],[-118.1273,34.06977],[-118.12732,34.06977],[-118.12765,34.06977],[-118.12796,34.06977],[-118.12858,34.06977],[-118.12859,34.06977],[-118.12921,34.06976],[-118.12922,34.06976],[-118.12995,34.06976],[-118.13044,34.06976],[-118.13068,34.06977],[-118.13141,34.06976],[-118.13168,34.06976],[-118.13213,34.06977],[-118.13305,34.06977],[-118.13441,34.06976],[-118.13485,34.06976],[-118.13572,34.06975],[-118.13569,34.06793],[-118.13517,34.06793],[-118.13515,34.06793],[-118.13512,34.06612],[-118.13504,34.06612],[-118.13504,34.06596],[-118.13504,34.06587],[-118.13504,34.06571],[-118.13503,34.06556],[-118.13503,34.0654],[-118.13503,34.06525],[-118.13503,34.0651],[-118.13503,34.06495],[-118.13502,34.0648],[-118.13502,34.06465],[-118.13502,34.0645],[-118.13502,34.06435],[-118.13501,34.0642],[-118.13501,34.06404],[-118.13501,34.06389],[-118.13501,34.06374],[-118.135,34.06359],[-118.135,34.06344],[-118.135,34.06342],[-118.135,34.06329],[-118.13553,34.06328],[-118.13552,34.06246],[-118.13558,34.06246],[-118.13673,34.06246],[-118.13729,34.06246],[-118.13777,34.06245],[-118.13785,34.06245],[-118.1381,34.06245],[-118.13846,34.06243],[-118.13895,34.06241],[-118.13908,34.0624],[-118.1392,34.06239],[-118.13932,34.06238],[-118.1395,34.06235],[-118.13963,34.06233],[-118.13971,34.06232],[-118.13987,34.06229],[-118.14001,34.06226],[-118.14014,34.06222],[-118.1404,34.06214],[-118.14045,34.06213],[-118.14046,34.06213],[-118.14063,34.06207],[-118.1408,34.062],[-118.14085,34.06197],[-118.14092,34.06194],[-118.14143,34.06167],[-118.14163,34.06157],[-118.14176,34.06151],[-118.14194,34.06144],[-118.14205,34.06139],[-118.14215,34.06135],[-118.14222,34.06133],[-118.14238,34.06128],[-118.14245,34.06125],[-118.14251,34.06123],[-118.1427,34.06115],[-118.14282,34.06109],[-118.14292,34.06105],[-118.14303,34.06099],[-118.14309,34.06096],[-118.14317,34.06091],[-118.14324,34.06085],[-118.14328,34.06082],[-118.1433,34.06079],[-118.14336,34.06072],[-118.14337,34.06069],[-118.14338,34.06065],[-118.14342,34.06045],[-118.14343,34.06036],[-118.14362,34.06023],[-118.14381,34.06015],[-118.14393,34.06011],[-118.1441,34.06006],[-118.14429,34.06001],[-118.14445,34.05997],[-118.14458,34.05995],[-118.14478,34.05994],[-118.14489,34.05993],[-118.14499,34.05993],[-118.14506,34.05993],[-118.1451,34.05993],[-118.14517,34.05994],[-118.14526,34.05995],[-118.14551,34.06],[-118.1456,34.06002],[-118.14569,34.06005],[-118.14576,34.06007],[-118.14585,34.0601],[-118.14595,34.06014],[-118.14602,34.06018],[-118.14609,34.06021],[-118.14619,34.06027],[-118.14643,34.06043],[-118.14657,34.06053],[-118.14672,34.06065],[-118.14688,34.06076],[-118.14692,34.06079],[-118.14723,34.061],[-118.14738,34.06108],[-118.14749,34.06114],[-118.14762,34.0612],[-118.14771,34.06124],[-118.14799,34.06135],[-118.14817,34.06142],[-118.14837,34.06149],[-118.14845,34.06151],[-118.14854,34.06154],[-118.14855,34.06154],[-118.14862,34.06155],[-118.14867,34.06156],[-118.14874,34.06158],[-118.14892,34.0616],[-118.14918,34.06164],[-118.14939,34.06167],[-118.14944,34.06167],[-118.14963,34.06169],[-118.14975,34.0617],[-118.14995,34.06171],[-118.15028,34.06173],[-118.15062,34.06173],[-118.15082,34.06174],[-118.15105,34.06175],[-118.15127,34.06177],[-118.15135,34.06178],[-118.15148,34.06179],[-118.15156,34.0618],[-118.15162,34.06182],[-118.1517,34.06184],[-118.15189,34.06192],[-118.15224,34.06206],[-118.15241,34.06214],[-118.15257,34.06222],[-118.15268,34.06228],[-118.15269,34.06228],[-118.1527,34.06234],[-118.15279,34.06234],[-118.15305,34.06232],[-118.15333,34.06232],[-118.15335,34.06232],[-118.15345,34.06232],[-118.1537,34.06232],[-118.15394,34.06232],[-118.15421,34.06232],[-118.15436,34.06232],[-118.15445,34.06232],[-118.15465,34.06231],[-118.15469,34.06231],[-118.1549,34.06231],[-118.15495,34.06231],[-118.15508,34.06231],[-118.15527,34.06231],[-118.15538,34.06231],[-118.1555,34.06231],[-118.15574,34.06231],[-118.15578,34.06231],[-118.15597,34.06231],[-118.15621,34.06231],[-118.15642,34.06231],[-118.15655,34.06231],[-118.15664,34.06231],[-118.15667,34.06231],[-118.15689,34.06231],[-118.15711,34.06231],[-118.15731,34.06231],[-118.1575,34.06231],[-118.15763,34.06231],[-118.15773,34.06231],[-118.15782,34.0623],[-118.15795,34.0623],[-118.15802,34.0623],[-118.15817,34.0623],[-118.15822,34.0623],[-118.15838,34.0623],[-118.15859,34.0623],[-118.15871,34.0623],[-118.15873,34.0623],[-118.15881,34.0623],[-118.15899,34.0623],[-118.15902,34.0623],[-118.15923,34.0623],[-118.15946,34.0623],[-118.15981,34.0623],[-118.15983,34.0623],[-118.1599,34.0623],[-118.15999,34.0623],[-118.16023,34.0623],[-118.16044,34.0623],[-118.1605,34.0623],[-118.16065,34.0623],[-118.16453,34.06227],[-118.16459,34.06225],[-118.16473,34.06225],[-118.16488,34.06225],[-118.16506,34.06225],[-118.16569,34.06225],[-118.16574,34.06225],[-118.16815,34.06225],[-118.16815,34.06229],[-118.16925,34.06229],[-118.16925,34.06224],[-118.16926,34.06168],[-118.16927,34.06156],[-118.16928,34.06083],[-118.16927,34.06083],[-118.16927,34.0605],[-118.16927,34.0604],[-118.16927,34.06003],[-118.16927,34.0599],[-118.16927,34.0598],[-118.16927,34.0597],[-118.16927,34.0596],[-118.16927,34.0592],[-118.16927,34.05854],[-118.16927,34.05812],[-118.16927,34.05811],[-118.16927,34.05802],[-118.16927,34.05787],[-118.16927,34.05728],[-118.16927,34.05714],[-118.16928,34.05687],[-118.16928,34.0566],[-118.16928,34.05541],[-118.16928,34.05511],[-118.16928,34.05505],[-118.16928,34.05495],[-118.16928,34.05459],[-118.16928,34.05447],[-118.16928,34.05435],[-118.16928,34.05375],[-118.16928,34.05155],[-118.16928,34.05142],[-118.16928,34.05098],[-118.16928,34.0502],[-118.16928,34.04863],[-118.16928,34.04836],[-118.16807,34.04836],[-118.16824,34.04788],[-118.16825,34.04787],[-118.16826,34.04786],[-118.16826,34.04785],[-118.16827,34.04785],[-118.16827,34.04784],[-118.16828,34.04783],[-118.16829,34.04782],[-118.16829,34.04781],[-118.1683,34.04781],[-118.1683,34.0478],[-118.16832,34.04779],[-118.16833,34.04777],[-118.16835,34.04775],[-118.16836,34.04774],[-118.16837,34.04768],[-118.16845,34.04669],[-118.16859,34.04648],[-118.16872,34.04628],[-118.16896,34.04592],[-118.16901,34.04585],[-118.16904,34.04579],[-118.16908,34.0457],[-118.16912,34.0456],[-118.16913,34.04555],[-118.16916,34.04544],[-118.16918,34.04531],[-118.16919,34.04523],[-118.16948,34.04524],[-118.16954,34.04511],[-118.16963,34.04493],[-118.16965,34.04487],[-118.16968,34.04479],[-118.16972,34.04465],[-118.16973,34.04463],[-118.16976,34.04452],[-118.1698,34.04433],[-118.16983,34.04423],[-118.16983,34.04421],[-118.16972,34.04422],[-118.16921,34.04422],[-118.16819,34.04422],[-118.16797,34.04422],[-118.16705,34.04422],[-118.16704,34.04422],[-118.16668,34.04422],[-118.16486,34.04423],[-118.16275,34.04423],[-118.16196,34.04423],[-118.16193,34.04423],[-118.16195,34.04542],[-118.16196,34.04643],[-118.16196,34.04669],[-118.16195,34.04691],[-118.16194,34.04713],[-118.16193,34.0472],[-118.16191,34.04728],[-118.16189,34.04735],[-118.16186,34.04742],[-118.16183,34.04748],[-118.16181,34.04752],[-118.16175,34.0476],[-118.16168,34.04768],[-118.16151,34.04788],[-118.1612,34.04825],[-118.1612,34.04826],[-118.16113,34.04833],[-118.16112,34.04835],[-118.16108,34.0484],[-118.16084,34.04865],[-118.16067,34.04885],[-118.16053,34.049],[-118.16026,34.04933],[-118.16014,34.04946],[-118.15972,34.04994],[-118.1595,34.0502],[-118.15936,34.05035],[-118.15927,34.05043],[-118.15912,34.05057],[-118.15901,34.05066],[-118.15887,34.05077],[-118.15877,34.05085],[-118.15865,34.05092],[-118.15853,34.051],[-118.15829,34.05115],[-118.15822,34.0512],[-118.15773,34.05143],[-118.15757,34.0515],[-118.15747,34.05154],[-118.15733,34.05159],[-118.15724,34.05162],[-118.15701,34.05169],[-118.15679,34.05175],[-118.1566,34.0518],[-118.15644,34.05183],[-118.15634,34.05185],[-118.15611,34.05188],[-118.15578,34.05191],[-118.15536,34.05195],[-118.15516,34.05197],[-118.15443,34.05206],[-118.15416,34.05208],[-118.15413,34.05209],[-118.15398,34.0521],[-118.15377,34.05214],[-118.15351,34.05219],[-118.15329,34.05224],[-118.15307,34.0523],[-118.15282,34.05238],[-118.15269,34.05242],[-118.1525,34.05249],[-118.15224,34.0526],[-118.15208,34.05267],[-118.15193,34.05274],[-118.15179,34.05281],[-118.15171,34.05286],[-118.15166,34.05289],[-118.15151,34.05298],[-118.15132,34.05311],[-118.151,34.05332],[-118.15095,34.05334],[-118.14838,34.05507],[-118.14723,34.05584],[-118.14681,34.05612],[-118.14652,34.05634],[-118.14635,34.05647],[-118.14625,34.05655],[-118.1462,34.05659],[-118.14604,34.05672],[-118.14596,34.05681],[-118.14591,34.05685],[-118.14583,34.05693],[-118.14576,34.05701],[-118.14564,34.05714],[-118.14561,34.05719],[-118.14546,34.0574],[-118.14544,34.05743],[-118.14536,34.05753],[-118.14529,34.05762],[-118.14528,34.05765],[-118.14527,34.05767],[-118.14513,34.05789],[-118.14512,34.05791],[-118.1451,34.05794],[-118.14506,34.058],[-118.14505,34.05803],[-118.145,34.0581],[-118.14499,34.05812],[-118.14497,34.05815],[-118.14494,34.05819],[-118.14485,34.05833],[-118.14476,34.05846],[-118.14468,34.05856],[-118.14468,34.05857],[-118.14462,34.05854],[-118.14348,34.05779],[-118.14345,34.05777],[-118.14314,34.05763],[-118.14229,34.05726],[-118.14228,34.05725],[-118.14192,34.0571],[-118.14077,34.05659],[-118.13988,34.05621],[-118.13987,34.05621],[-118.13973,34.05623],[-118.13958,34.05624],[-118.13949,34.05623],[-118.13948,34.05625],[-118.1393,34.05654],[-118.13922,34.05669],[-118.13919,34.05674],[-118.13926,34.05677],[-118.13927,34.05677],[-118.13959,34.05689],[-118.13959,34.05688],[-118.13961,34.05689],[-118.13975,34.05693],[-118.13978,34.05693],[-118.13994,34.05698],[-118.13994,34.05699],[-118.13995,34.05699],[-118.14005,34.05701],[-118.14005,34.05702],[-118.14006,34.05705],[-118.14007,34.05718],[-118.14008,34.05743],[-118.14009,34.05764],[-118.14005,34.05765],[-118.13999,34.05766],[-118.13991,34.05768],[-118.13984,34.0577],[-118.13977,34.05774],[-118.13971,34.0578],[-118.1397,34.05783],[-118.13968,34.05787],[-118.13963,34.05805],[-118.13957,34.05819],[-118.13952,34.05824],[-118.13943,34.05832],[-118.13933,34.0584],[-118.13932,34.05841],[-118.13929,34.05842],[-118.13921,34.05845],[-118.1392,34.05845],[-118.13912,34.05853],[-118.13909,34.05861],[-118.13909,34.05867],[-118.13909,34.05901],[-118.13909,34.05922],[-118.13909,34.0593],[-118.13908,34.05931],[-118.1389,34.0594],[-118.1387,34.05951],[-118.1383,34.05972],[-118.13801,34.05988],[-118.13791,34.05994],[-118.13782,34.05999],[-118.13777,34.06],[-118.13727,34.06006],[-118.13595,34.06023],[-118.13572,34.06025],[-118.13567,34.06026],[-118.13565,34.06026],[-118.13558,34.06024],[-118.13556,34.06023],[-118.13554,34.06022],[-118.13551,34.0602],[-118.1355,34.06019],[-118.13547,34.06017],[-118.13545,34.06012],[-118.13543,34.05998],[-118.13543,34.05997],[-118.13542,34.05995],[-118.13538,34.05982],[-118.13537,34.0598],[-118.13534,34.05976],[-118.13529,34.05973],[-118.13528,34.05972],[-118.13518,34.05966],[-118.13509,34.05964],[-118.13502,34.05962],[-118.13493,34.05957],[-118.13486,34.05951],[-118.13483,34.05945],[-118.13482,34.05933],[-118.13482,34.05931],[-118.13482,34.05908],[-118.13483,34.05895],[-118.13488,34.05878],[-118.13488,34.05876],[-118.13489,34.05873],[-118.1349,34.05871],[-118.13494,34.05858],[-118.13496,34.0585],[-118.13504,34.05826],[-118.13511,34.05805],[-118.1352,34.05782],[-118.13521,34.05781],[-118.13523,34.05777],[-118.1353,34.05762],[-118.13536,34.05748],[-118.13567,34.05695],[-118.13583,34.05669],[-118.1359,34.05659],[-118.13603,34.05642],[-118.13601,34.05642],[-118.13571,34.05642],[-118.13567,34.05642],[-118.13539,34.05642],[-118.13512,34.05643],[-118.13507,34.05643],[-118.13474,34.05644],[-118.13473,34.05644],[-118.13417,34.05645],[-118.13415,34.05645],[-118.13414,34.05645],[-118.13398,34.05646],[-118.13326,34.05647],[-118.13252,34.05649],[-118.13198,34.0565],[-118.13182,34.0565],[-118.13077,34.05652],[-118.1306,34.05652],[-118.13059,34.05652],[-118.13054,34.05652],[-118.13041,34.05652],[-118.1302,34.05653],[-118.13008,34.05653],[-118.12989,34.05653],[-118.1296,34.05653],[-118.12805,34.05655],[-118.12765,34.05656],[-118.12754,34.05656],[-118.12748,34.05656],[-118.1275,34.05781],[-118.1275,34.05782],[-118.12751,34.05867],[-118.12753,34.0598],[-118.1255,34.05981],[-118.12501,34.05981],[-118.12281,34.05982],[-118.12281,34.05983],[-118.12282,34.0613],[-118.12284,34.06251],[-118.12284,34.06252],[-118.12285,34.06374],[-118.12287,34.06495],[-118.12288,34.06614],[-118.1229,34.06737],[-118.12291,34.06857],[-118.12293,34.06978]]]},"properties":{"DIV_CITY":1}},
{"type":"Feature","geometry":{"type":"Polygon","coordinates":[[[-118.1306,34.05652],[-118.13077,34.05652],[-118.13182,34.0565],[-118.13198,34.0565],[-118.13252,34.05649],[-118.13326,34.05647],[-118.13398,34.05646],[-118.13414,34.05645],[-118.13415,34.05645],[-118.13417,34.05645],[-118.13473,34.05644],[-118.13474,34.05644],[-118.13507,34.05643],[-118.13512,34.05643],[-118.13539,34.05642],[-118.13567,34.05642],[-118.13571,34.05642],[-118.13601,34.05642],[-118.13603,34.05642],[-118.1359,34.05659],[-118.13583,34.05669],[-118.13567,34.05695],[-118.13536,34.05748],[-118.1353,34.05762],[-118.13523,34.05777],[-118.13521,34.05781],[-118.1352,34.05782],[-118.13511,34.05805],[-118.13504,34.05826],[-118.13496,34.0585],[-118.13494,34.05858],[-118.1349,34.05871],[-118.13489,34.05873],[-118.13488,34.05876],[-118.13488,34.05878],[-118.13483,34.05895],[-118.13482,34.05908],[-118.13482,34.05931],[-118.13482,34.05933],[-118.13483,34.05945],[-118.13486,34.05951],[-118.13493,34.05957],[-118.13502,34.05962],[-118.13509,34.05964],[-118.13518,34.05966],[-118.13528,34.05972],[-118.13529,34.05973],[-118.13534,34.05976],[-118.13537,34.0598],[-118.13538,34.05982],[-118.13542,34.05995],[-118.13543,34.05997],[-118.13543,34.05998],[-118.13545,34.06012],[-118.13547,34.06017],[-118.1355,34.06019],[-118.13551,34.0602],[-118.13554,34.06022],[-118.13556,34.06023],[-118.13558,34.06024],[-118.13565,34.06026],[-118.13567,34.06026],[-118.13572,34.06025],[-118.13595,34.06023],[-118.13727,34.06006],[-118.13777,34.06],[-118.13782,34.05999],[-118.13791,34.05994],[-118.13801,34.05988],[-118.1383,34.05972],[-118.1387,34.05951],[-118.1389,34.0594],[-118.13906,34.05932],[-118.13908,34.05931],[-118.13909,34.0593],[-118.13909,34.05922],[-118.13909,34.05901],[-118.13909,34.05867],[-118.13909,34.05861],[-118.13912,34.05853],[-118.1392,34.05845],[-118.13921,34.05845],[-118.13929,34.05842],[-118.13932,34.05841],[-118.13933,34.0584],[-118.13943,34.05832],[-118.13952,34.05824],[-118.13957,34.05819],[-118.13963,34.05805],[-118.13968,34.05787],[-118.1397,34.05783],[-118.13971,34.0578],[-118.13977,34.05774],[-118.13984,34.0577],[-118.13991,34.05768],[-118.13999,34.05766],[-118.14005,34.05765],[-118.14009,34.05764],[-118.14008,34.05743],[-118.14007,34.05718],[-118.14006,34.05705],[-118.14005,34.05702],[-118.14005,34.05701],[-118.13995,34.05699],[-118.13994,34.05699],[-118.13994,34.05698],[-118.13978,34.05693],[-118.13975,34.05693],[-118.13961,34.05689],[-118.13959,34.05688],[-118.13959,34.05689],[-118.13927,34.05677],[-118.13926,34.05677],[-118.13919,34.05674],[-118.13922,34.05669],[-118.1393,34.05654],[-118.13948,34.05625],[-118.13949,34.05623],[-118.13958,34.05624],[-118.13973,34.05623],[-118.13987,34.05621],[-118.13988,34.05621],[-118.14077,34.05659],[-118.14192,34.0571],[-118.14228,34.05725],[-118.14229,34.05726],[-118.14314,34.05763],[-118.14345,34.05777],[-118.14348,34.05779],[-118.14462,34.05854],[-118.14468,34.05857],[-118.14468,34.05856],[-118.14476,34.05846],[-118.14485,34.05833],[-118.14494,34.05819],[-118.14497,34.05815],[-118.14499,34.05812],[-118.145,34.0581],[-118.14505,34.05803],[-118.14506,34.058],[-118.1451,34.05794],[-118.14512,34.05791],[-118.14513,34.05789],[-118.14527,34.05767],[-118.14528,34.05765],[-118.14529,34.05762],[-118.14536,34.05753],[-118.14544,34.05743],[-118.14546,34.0574],[-118.14561,34.05719],[-118.14564,34.05714],[-118.14576,34.05701],[-118.14583,34.05693],[-118.14591,34.05685],[-118.14596,34.05681],[-118.14604,34.05672],[-118.1462,34.05659],[-118.14625,34.05655],[-118.14635,34.05647],[-118.14652,34.05634],[-118.14681,34.05612],[-118.14723,34.05584],[-118.14838,34.05507],[-118.15095,34.05334],[-118.151,34.05332],[-118.15132,34.05311],[-118.15151,34.05298],[-118.15166,34.05289],[-118.15171,34.05286],[-118.15179,34.05281],[-118.15193,34.05274],[-118.15208,34.05267],[-118.15224,34.0526],[-118.1525,34.05249],[-118.15269,34.05242],[-118.15282,34.05238],[-118.15307,34.0523],[-118.15329,34.05224],[-118.15351,34.05219],[-118.15377,34.05214],[-118.15398,34.0521],[-118.15413,34.05209],[-118.15416,34.05208],[-118.15443,34.05206],[-118.15516,34.05197],[-118.15536,34.05195],[-118.15578,34.05191],[-118.15611,34.05188],[-118.15634,34.05185],[-118.15644,34.05183],[-118.1566,34.0518],[-118.15679,34.05175],[-118.15701,34.05169],[-118.15724,34.05162],[-118.15733,34.05159],[-118.15747,34.05154],[-118.15757,34.0515],[-118.15773,34.05143],[-118.15822,34.0512],[-118.15829,34.05115],[-118.15853,34.051],[-118.15865,34.05092],[-118.15877,34.05085],[-118.15887,34.05077],[-118.15901,34.05066],[-118.15912,34.05057],[-118.15927,34.05043],[-118.15936,34.05035],[-118.1595,34.0502],[-118.15972,34.04994],[-118.16014,34.04946],[-118.16026,34.04933],[-118.16053,34.049],[-118.16067,34.04885],[-118.16084,34.04865],[-118.16108,34.0484],[-118.16112,34.04835],[-118.16113,34.04833],[-118.1612,34.04826],[-118.1612,34.04825],[-118.16151,34.04788],[-118.16168,34.04768],[-118.16175,34.0476],[-118.16181,34.04752],[-118.16183,34.04748],[-118.16186,34.04742],[-118.16189,34.04735],[-118.16191,34.04728],[-118.16193,34.0472],[-118.16194,34.04713],[-118.16195,34.04691],[-118.16196,34.04669],[-118.16196,34.04643],[-118.16195,34.04542],[-118.16195,34.04539],[-118.16191,34.04539],[-118.16055,34.04541],[-118.15973,34.04543],[-118.15895,34.04544],[-118.15823,34.04546],[-118.15814,34.04546],[-118.15735,34.04547],[-118.15653,34.04549],[-118.15574,34.0455],[-118.15564,34.04551],[-118.15493,34.04552],[-118.15426,34.04553],[-118.15365,34.04553],[-118.15358,34.04553],[-118.15337,34.04553],[-118.15332,34.04553],[-118.15277,34.04547],[-118.15257,34.04543],[-118.15255,34.04543],[-118.15231,34.04536],[-118.15214,34.04532],[-118.1519,34.04525],[-118.15145,34.0451],[-118.15101,34.04495],[-118.1507,34.04485],[-118.15045,34.04476],[-118.14998,34.04461],[-118.14995,34.0446],[-118.14923,34.04436],[-118.149,34.04428],[-118.1487,34.04419],[-118.14848,34.04412],[-118.14847,34.04412],[-118.1483,34.04406],[-118.14795,34.04395],[-118.14775,34.04387],[-118.14773,34.04386],[-118.14769,34.04385],[-118.14746,34.04374],[-118.14709,34.04354],[-118.14708,34.04354],[-118.14637,34.04316],[-118.14587,34.04291],[-118.14568,34.04282],[-118.14546,34.04271],[-118.14534,34.04267],[-118.14531,34.04266],[-118.14526,34.04264],[-118.14521,34.04264],[-118.14512,34.04262],[-118.14504,34.04261],[-118.14492,34.0426],[-118.14462,34.04257],[-118.14415,34.04255],[-118.14395,34.04254],[-118.14336,34.04249],[-118.14296,34.04246],[-118.14295,34.04246],[-118.14258,34.04243],[-118.14228,34.0424],[-118.14207,34.04238],[-118.1417,34.04235],[-118.14157,34.04232],[-118.14151,34.04231],[-118.14143,34.04229],[-118.14131,34.04227],[-118.14126,34.04226],[-118.14113,34.04225],[-118.14095,34.04227],[-118.14081,34.0423],[-118.14078,34.04231],[-118.14061,34.04238],[-118.14045,34.04251],[-118.14033,34.04261],[-118.1402,34.0427],[-118.14,34.04277],[-118.13991,34.0428],[-118.13982,34.04283],[-118.13976,34.04284],[-118.13962,34.04288],[-118.13959,34.04288],[-118.13936,34.04291],[-118.13905,34.04293],[-118.1388,34.0429],[-118.13875,34.04289],[-118.1383,34.04279],[-118.1382,34.04276],[-118.13773,34.04263],[-118.13755,34.04258],[-118.1369,34.0424],[-118.13665,34.04233],[-118.13657,34.0423],[-118.13651,34.04228],[-118.13638,34.04222],[-118.13623,34.04214],[-118.13619,34.04212],[-118.13602,34.04203],[-118.13602,34.04204],[-118.13594,34.04207],[-118.1358,34.04214],[-118.13518,34.04245],[-118.13509,34.0425],[-118.13501,34.04254],[-118.13488,34.04261],[-118.13445,34.04281],[-118.13435,34.04285],[-118.13424,34.04289],[-118.13407,34.04298],[-118.13381,34.04312],[-118.13365,34.04321],[-118.13352,34.04327],[-118.13316,34.04346],[-118.13275,34.04367],[-118.13242,34.04383],[-118.13207,34.04401],[-118.13165,34.04424],[-118.1315,34.04433],[-118.13116,34.04451],[-118.13104,34.0446],[-118.13094,34.04466],[-118.13094,34.04467],[-118.13097,34.04497],[-118.13098,34.04501],[-118.13098,34.04504],[-118.13096,34.04509],[-118.13089,34.04529],[-118.13088,34.04533],[-118.13087,34.04536],[-118.13088,34.04539],[-118.13089,34.04541],[-118.13093,34.04548],[-118.13109,34.04567],[-118.13088,34.04563],[-118.13075,34.04561],[-118.13038,34.04554],[-118.13003,34.04547],[-118.12977,34.04542],[-118.12962,34.04539],[-118.12933,34.04533],[-118.12926,34.04532],[-118.12903,34.04527],[-118.12897,34.04526],[-118.12882,34.04523],[-118.12866,34.0452],[-118.12853,34.04518],[-118.1285,34.04517],[-118.12852,34.04529],[-118.12853,34.04546],[-118.12855,34.04556],[-118.12855,34.0456],[-118.12856,34.04566],[-118.12856,34.04568],[-118.1286,34.04589],[-118.12864,34.04608],[-118.1287,34.04632],[-118.12874,34.04651],[-118.12877,34.04674],[-118.1288,34.0471],[-118.1288,34.04718],[-118.12879,34.04722],[-118.12875,34.04796],[-118.12871,34.04833],[-118.12869,34.04858],[-118.12867,34.04866],[-118.12865,34.04872],[-118.12861,34.04882],[-118.12859,34.04887],[-118.12857,34.04891],[-118.12855,34.04894],[-118.12846,34.04907],[-118.12828,34.0493],[-118.12825,34.04934],[-118.12808,34.04957],[-118.12794,34.04974],[-118.12788,34.04982],[-118.12786,34.04986],[-118.12783,34.04992],[-118.12776,34.05007],[-118.12771,34.05018],[-118.12764,34.05035],[-118.12749,34.0507],[-118.1273,34.05121],[-118.12713,34.05164],[-118.12699,34.05201],[-118.12673,34.05269],[-118.12662,34.05298],[-118.12652,34.05327],[-118.12648,34.05337],[-118.12639,34.05361],[-118.12637,34.05366],[-118.12632,34.05375],[-118.12629,34.0538],[-118.12626,34.05392],[-118.12622,34.05411],[-118.12614,34.05446],[-118.1261,34.05458],[-118.12605,34.05475],[-118.126,34.05495],[-118.12598,34.05502],[-118.12596,34.05507],[-118.12594,34.0551],[-118.12591,34.05514],[-118.12588,34.05518],[-118.12572,34.0552],[-118.12543,34.05521],[-118.12512,34.05522],[-118.12501,34.05522],[-118.12469,34.05523],[-118.12412,34.05524],[-118.12383,34.05525],[-118.12308,34.05526],[-118.12177,34.05528],[-118.12114,34.05529],[-118.12112,34.05529],[-118.11967,34.0553],[-118.11893,34.0553],[-118.11851,34.0553],[-118.11678,34.05531],[-118.11677,34.05531],[-118.11679,34.05822],[-118.1168,34.05985],[-118.11898,34.05984],[-118.11899,34.05984],[-118.11968,34.05984],[-118.12007,34.05983],[-118.12114,34.05983],[-118.12281,34.05982],[-118.12501,34.05981],[-118.1255,34.05981],[-118.12753,34.0598],[-118.12751,34.05867],[-118.1275,34.05782],[-118.12748,34.05656],[-118.12754,34.05656],[-118.12765,34.05656],[-118.12805,34.05655],[-118.1296,34.05653],[-118.12989,34.05653],[-118.13008,34.05653],[-118.1302,34.05653],[-118.13041,34.05652],[-118.13054,34.05652],[-118.13059,34.05652],[-118.1306,34.05652]]]},"properties":{"DIV_CITY":2}},
{"type":"Feature","geometry":{"type":"Polygon","coordinates":[[[-118.12029,34.03833],[-118.1206,34.03833],[-118.12097,34.03833],[-118.12147,34.03881],[-118.12161,34.03894],[-118.12181,34.03913],[-118.12202,34.03907],[-118.1223,34.03907],[-118.12265,34.03906],[-118.12295,34.03906],[-118.12326,34.03906],[-118.12417,34.03905],[-118.12423,34.03905],[-118.12437,34.03905],[-118.12451,34.03905],[-118.12452,34.03905],[-118.12453,34.03905],[-118.12461,34.03905],[-118.12494,34.03905],[-118.12502,34.03905],[-118.12557,34.03904],[-118.12565,34.03904],[-118.12636,34.03903],[-118.12642,34.03903],[-118.12645,34.03903],[-118.12648,34.03903],[-118.12649,34.03903],[-118.12671,34.03923],[-118.12703,34.03951],[-118.12725,34.03969],[-118.12746,34.03986],[-118.12748,34.03987],[-118.12762,34.04001],[-118.12789,34.04027],[-118.12792,34.04031],[-118.12798,34.04039],[-118.12801,34.04045],[-118.12805,34.04054],[-118.1281,34.04075],[-118.12812,34.04088],[-118.12812,34.04089],[-118.12812,34.04095],[-118.12812,34.04096],[-118.12853,34.04099],[-118.12855,34.04099],[-118.12866,34.041],[-118.12887,34.04101],[-118.12909,34.04103],[-118.12911,34.04103],[-118.12912,34.04103],[-118.12915,34.04103],[-118.12916,34.04103],[-118.12914,34.0412],[-118.12912,34.04137],[-118.1291,34.04146],[-118.12906,34.04166],[-118.12902,34.04183],[-118.12897,34.04203],[-118.12892,34.04216],[-118.12882,34.04246],[-118.12865,34.04305],[-118.12858,34.04328],[-118.12853,34.04348],[-118.1285,34.04366],[-118.12847,34.04381],[-118.12845,34.044],[-118.12844,34.04411],[-118.12844,34.04419],[-118.12844,34.04437],[-118.12844,34.04441],[-118.12845,34.04456],[-118.12846,34.04477],[-118.12848,34.04498],[-118.12848,34.04501],[-118.1285,34.04517],[-118.12853,34.04518],[-118.12866,34.0452],[-118.12882,34.04523],[-118.12897,34.04526],[-118.12903,34.04527],[-118.12926,34.04532],[-118.12933,34.04533],[-118.12962,34.04539],[-118.12977,34.04542],[-118.13003,34.04547],[-118.13038,34.04554],[-118.13075,34.04561],[-118.13088,34.04563],[-118.13109,34.04567],[-118.13093,34.04548],[-118.13089,34.04541],[-118.13088,34.04539],[-118.13087,34.04536],[-118.13088,34.04533],[-118.13089,34.04529],[-118.13096,34.04509],[-118.13098,34.04504],[-118.13098,34.04501],[-118.13097,34.04497],[-118.13094,34.04467],[-118.13094,34.04466],[-118.13104,34.0446],[-118.13116,34.04451],[-118.1315,34.04433],[-118.13165,34.04424],[-118.13207,34.04401],[-118.13242,34.04383],[-118.13275,34.04367],[-118.13316,34.04346],[-118.13352,34.04327],[-118.13365,34.04321],[-118.13381,34.04312],[-118.13407,34.04298],[-118.13424,34.04289],[-118.13435,34.04285],[-118.13445,34.04281],[-118.13488,34.04261],[-118.13501,34.04254],[-118.13509,34.0425],[-118.13518,34.04245],[-118.1358,34.04214],[-118.13594,34.04207],[-118.13602,34.04204],[-118.13602,34.04203],[-118.13619,34.04212],[-118.13623,34.04214],[-118.13638,34.04222],[-118.13651,34.04228],[-118.13657,34.0423],[-118.13665,34.04233],[-118.1369,34.0424],[-118.13755,34.04258],[-118.13773,34.04263],[-118.1382,34.04276],[-118.1383,34.04279],[-118.13875,34.04289],[-118.1388,34.0429],[-118.13905,34.04293],[-118.13936,34.04291],[-118.13959,34.04288],[-118.13962,34.04288],[-118.13976,34.04284],[-118.13982,34.04283],[-118.13991,34.0428],[-118.14,34.04277],[-118.1402,34.0427],[-118.14033,34.04261],[-118.14045,34.04251],[-118.14061,34.04238],[-118.14078,34.04231],[-118.14081,34.0423],[-118.14095,34.04227],[-118.14113,34.04225],[-118.14126,34.04226],[-118.14131,34.04227],[-118.14143,34.04229],[-118.14151,34.04231],[-118.14157,34.04232],[-118.1417,34.04235],[-118.14207,34.04238],[-118.14228,34.0424],[-118.14258,34.04243],[-118.14295,34.04246],[-118.14296,34.04246],[-118.14336,34.04249],[-118.14395,34.04254],[-118.14415,34.04255],[-118.14462,34.04257],[-118.14492,34.0426],[-118.14504,34.04261],[-118.14512,34.04262],[-118.14521,34.04264],[-118.14526,34.04264],[-118.14531,34.04266],[-118.14534,34.04267],[-118.14546,34.04271],[-118.14568,34.04282],[-118.14587,34.04291],[-118.14637,34.04316],[-118.14708,34.04354],[-118.14709,34.04354],[-118.14746,34.04374],[-118.14769,34.04385],[-118.14773,34.04386],[-118.14775,34.04387],[-118.14795,34.04395],[-118.1483,34.04406],[-118.14847,34.04412],[-118.14848,34.04412],[-118.1487,34.04419],[-118.149,34.04428],[-118.14923,34.04436],[-118.14995,34.0446],[-118.14998,34.04461],[-118.15045,34.04476],[-118.1507,34.04485],[-118.15101,34.04495],[-118.15145,34.0451],[-118.1519,34.04525],[-118.15214,34.04532],[-118.15231,34.04536],[-118.15255,34.04543],[-118.15257,34.04543],[-118.15277,34.04547],[-118.15332,34.04553],[-118.15337,34.04553],[-118.15358,34.04553],[-118.15365,34.04553],[-118.15426,34.04553],[-118.15493,34.04552],[-118.15564,34.04551],[-118.15574,34.0455],[-118.15653,34.04549],[-118.15735,34.04547],[-118.15814,34.04546],[-118.15823,34.04546],[-118.15895,34.04544],[-118.15973,34.04543],[-118.16055,34.04541],[-118.16191,34.04539],[-118.16195,34.04539],[-118.16193,34.04423],[-118.16057,34.04424],[-118.15975,34.04425],[-118.15972,34.04425],[-118.15886,34.04426],[-118.1573,34.04426],[-118.15726,34.04426],[-118.15717,34.04426],[-118.15717,34.04403],[-118.15717,34.04389],[-118.15717,34.04375],[-118.15717,34.04362],[-118.15717,34.04348],[-118.15717,34.04334],[-118.15717,34.04321],[-118.15717,34.04306],[-118.15716,34.04293],[-118.15717,34.04279],[-118.15716,34.04265],[-118.15716,34.04252],[-118.15716,34.04238],[-118.15716,34.04224],[-118.15716,34.0421],[-118.15716,34.04197],[-118.15716,34.04183],[-118.15716,34.04169],[-118.15716,34.04155],[-118.15716,34.04142],[-118.15716,34.04128],[-118.15716,34.04114],[-118.15716,34.04101],[-118.15716,34.04086],[-118.15715,34.04063],[-118.15719,34.04063],[-118.15731,34.04063],[-118.15734,34.04063],[-118.15735,34.03705],[-118.15735,34.03673],[-118.15735,34.03652],[-118.15733,34.03627],[-118.15689,34.03627],[-118.15674,34.03625],[-118.15674,34.03626],[-118.15634,34.03627],[-118.15595,34.03622],[-118.15584,34.03623],[-118.15575,34.03623],[-118.15574,34.03623],[-118.15539,34.03619],[-118.15505,34.03615],[-118.15448,34.03609],[-118.15394,34.03593],[-118.15349,34.03571],[-118.15323,34.03553],[-118.15322,34.03552],[-118.15307,34.0354],[-118.1529,34.03526],[-118.15276,34.03507],[-118.1526,34.03491],[-118.15246,34.03479],[-118.15218,34.0345],[-118.15213,34.03445],[-118.15211,34.03443],[-118.15207,34.03439],[-118.15203,34.03435],[-118.15189,34.03421],[-118.15174,34.03406],[-118.15165,34.03413],[-118.15072,34.03473],[-118.15044,34.03478],[-118.15027,34.0348],[-118.15022,34.0348],[-118.15012,34.0348],[-118.15008,34.03479],[-118.15003,34.03478],[-118.15,34.03477],[-118.14994,34.03474],[-118.14968,34.03462],[-118.14934,34.03448],[-118.1485,34.03412],[-118.14826,34.03401],[-118.14812,34.03396],[-118.14797,34.03391],[-118.1478,34.03386],[-118.14723,34.03372],[-118.14714,34.03368],[-118.14689,34.03358],[-118.1468,34.03355],[-118.14648,34.03346],[-118.14629,34.03346],[-118.1462,34.03347],[-118.14579,34.03347],[-118.14512,34.03349],[-118.1448,34.03349],[-118.14414,34.0335],[-118.14407,34.0335],[-118.14286,34.03351],[-118.1409,34.03353],[-118.14058,34.03353],[-118.13994,34.03353],[-118.13915,34.03354],[-118.13899,34.03354],[-118.13793,34.03354],[-118.13697,34.03354],[-118.13614,34.03355],[-118.13419,34.03357],[-118.13249,34.03359],[-118.13161,34.03359],[-118.1312,34.0336],[-118.13065,34.0336],[-118.13012,34.0336],[-118.12959,34.0336],[-118.12726,34.03361],[-118.12505,34.03362],[-118.12501,34.03362],[-118.12282,34.03363],[-118.12279,34.03363],[-118.12185,34.03363],[-118.12169,34.03363],[-118.12161,34.03363],[-118.12148,34.03364],[-118.12128,34.03365],[-118.12122,34.03366],[-118.12106,34.03368],[-118.12099,34.0337],[-118.12079,34.03376],[-118.12026,34.03396],[-118.1196,34.03429],[-118.11952,34.03432],[-118.11917,34.03448],[-118.11848,34.0348],[-118.11808,34.035],[-118.11812,34.03512],[-118.11827,34.03529],[-118.11845,34.03543],[-118.11861,34.03552],[-118.11878,34.03558],[-118.11905,34.03562],[-118.11928,34.03564],[-118.11934,34.03564],[-118.11956,34.03567],[-118.11979,34.0357],[-118.11982,34.0357],[-118.12,34.03575],[-118.12024,34.03587],[-118.1203,34.03593],[-118.12044,34.03607],[-118.1205,34.03617],[-118.12054,34.03624],[-118.12059,34.03632],[-118.12061,34.03634],[-118.12073,34.0365],[-118.12072,34.0365],[-118.12048,34.03662],[-118.12044,34.03664],[-118.12042,34.03666],[-118.12035,34.03674],[-118.1203,34.03679],[-118.1202,34.03693],[-118.12016,34.03703],[-118.12015,34.03706],[-118.12015,34.03713],[-118.12016,34.03752],[-118.12016,34.03756],[-118.12017,34.03774],[-118.12019,34.03801],[-118.12023,34.03816],[-118.12024,34.03821],[-118.12024,34.03828],[-118.12025,34.03833],[-118.12029,34.03833]]]},"properties":{"DIV_CITY":3}},
{"type":"Feature","geometry":{"type":"Polygon","coordinates":[[[-118.11242,34.05533],[-118.11243,34.0566],[-118.11243,34.05672],[-118.11243,34.05823],[-118.11244,34.05987],[-118.11244,34.06079],[-118.11244,34.06136],[-118.11245,34.06255],[-118.11245,34.06256],[-118.113,34.06255],[-118.11352,34.06255],[-118.11353,34.06255],[-118.11353,34.06259],[-118.1136,34.06259],[-118.11399,34.06259],[-118.1141,34.06259],[-118.1141,34.06296],[-118.1141,34.0633],[-118.1141,34.06444],[-118.1141,34.06445],[-118.1141,34.06476],[-118.1141,34.06497],[-118.1141,34.06498],[-118.1141,34.065],[-118.1141,34.06519],[-118.1141,34.06533],[-118.1141,34.06543],[-118.1141,34.06558],[-118.1141,34.06613],[-118.1141,34.06615],[-118.1141,34.06619],[-118.1141,34.0662],[-118.1141,34.06698],[-118.1141,34.0672],[-118.1141,34.06757],[-118.11411,34.06794],[-118.11411,34.06817],[-118.11411,34.06826],[-118.11411,34.06951],[-118.11411,34.06968],[-118.11411,34.06982],[-118.11411,34.06983],[-118.11412,34.06983],[-118.11443,34.06983],[-118.11539,34.06982],[-118.11685,34.06981],[-118.1169,34.06981],[-118.11813,34.06981],[-118.11885,34.0698],[-118.11964,34.0698],[-118.11986,34.0698],[-118.12077,34.06979],[-118.12085,34.06979],[-118.1218,34.06979],[-118.12288,34.06978],[-118.12293,34.06978],[-118.12291,34.06857],[-118.1229,34.06737],[-118.12288,34.06614],[-118.12287,34.06495],[-118.12285,34.06374],[-118.12284,34.06252],[-118.12284,34.06251],[-118.12282,34.0613],[-118.12281,34.05983],[-118.12281,34.05982],[-118.12114,34.05983],[-118.12007,34.05983],[-118.11968,34.05984],[-118.11899,34.05984],[-118.11898,34.05984],[-118.1168,34.05985],[-118.11679,34.05822],[-118.11677,34.05531],[-118.11678,34.05531],[-118.11851,34.0553],[-118.11893,34.0553],[-118.11967,34.0553],[-118.12112,34.05529],[-118.12114,34.05529],[-118.12177,34.05528],[-118.12308,34.05526],[-118.12383,34.05525],[-118.12412,34.05524],[-118.12469,34.05523],[-118.12501,34.05522],[-118.12512,34.05522],[-118.12543,34.05521],[-118.12572,34.0552],[-118.12588,34.05518],[-118.12591,34.05514],[-118.12594,34.0551],[-118.12596,34.05507],[-118.12598,34.05502],[-118.126,34.05495],[-118.12605,34.05475],[-118.1261,34.05458],[-118.12614,34.05446],[-118.12622,34.05411],[-118.12626,34.05392],[-118.12629,34.0538],[-118.12632,34.05375],[-118.12637,34.05366],[-118.12639,34.05361],[-118.12648,34.05337],[-118.12652,34.05327],[-118.12662,34.05298],[-118.12673,34.05269],[-118.12699,34.05201],[-118.12713,34.05164],[-118.1273,34.05121],[-118.12749,34.0507],[-118.12764,34.05035],[-118.12771,34.05018],[-118.12776,34.05007],[-118.12783,34.04992],[-118.12786,34.04986],[-118.12788,34.04982],[-118.12794,34.04974],[-118.12808,34.04957],[-118.12825,34.04934],[-118.12828,34.0493],[-118.12846,34.04907],[-118.12855,34.04894],[-118.12857,34.04891],[-118.12859,34.04887],[-118.12861,34.04882],[-118.12865,34.04872],[-118.12867,34.04866],[-118.12869,34.04858],[-118.12871,34.04833],[-118.12875,34.04796],[-118.12879,34.04722],[-118.1288,34.04718],[-118.1288,34.0471],[-118.12877,34.04674],[-118.12874,34.04651],[-118.1287,34.04632],[-118.12864,34.04608],[-118.1286,34.04589],[-118.12856,34.04568],[-118.12856,34.04566],[-118.12855,34.0456],[-118.12842,34.04561],[-118.12826,34.04562],[-118.12817,34.04561],[-118.12769,34.04551],[-118.12757,34.04548],[-118.12757,34.04547],[-118.12757,34.04544],[-118.12757,34.04542],[-118.12756,34.04541],[-118.12719,34.04532],[-118.12656,34.04517],[-118.12595,34.04502],[-118.12549,34.04491],[-118.12536,34.04488],[-118.12499,34.04479],[-118.12498,34.04479],[-118.12491,34.04477],[-118.12484,34.04483],[-118.12475,34.04491],[-118.12469,34.04496],[-118.12437,34.04522],[-118.12431,34.04532],[-118.12425,34.04546],[-118.12425,34.0456],[-118.12424,34.0457],[-118.12424,34.0462],[-118.12424,34.04633],[-118.12422,34.04648],[-118.12418,34.04665],[-118.12414,34.04673],[-118.12414,34.04674],[-118.12408,34.04682],[-118.12388,34.04695],[-118.12356,34.04708],[-118.12337,34.04717],[-118.12335,34.04718],[-118.12306,34.04744],[-118.12285,34.04763],[-118.12243,34.048],[-118.12231,34.04809],[-118.12229,34.04811],[-118.12228,34.0481],[-118.12212,34.04797],[-118.12206,34.04791],[-118.12192,34.04778],[-118.12184,34.04764],[-118.12183,34.0476],[-118.1217,34.04731],[-118.12153,34.04692],[-118.1214,34.04675],[-118.12128,34.04664],[-118.12061,34.04604],[-118.12058,34.04602],[-118.12048,34.04593],[-118.12045,34.0459],[-118.11971,34.04527],[-118.11964,34.04521],[-118.11956,34.04513],[-118.1191,34.04466],[-118.11894,34.04445],[-118.11891,34.04447],[-118.11866,34.04461],[-118.11847,34.04483],[-118.11842,34.04493],[-118.11841,34.04512],[-118.11852,34.04529],[-118.11865,34.04545],[-118.11868,34.04553],[-118.11869,34.0456],[-118.11865,34.04568],[-118.11854,34.04579],[-118.11842,34.04582],[-118.11808,34.04582],[-118.11701,34.04585],[-118.11691,34.04585],[-118.11685,34.04581],[-118.11684,34.04573],[-118.11683,34.04543],[-118.11682,34.04535],[-118.11681,34.0451],[-118.11672,34.04493],[-118.11667,34.04486],[-118.11653,34.04481],[-118.11636,34.0448],[-118.11634,34.0448],[-118.11634,34.04485],[-118.11635,34.04523],[-118.11636,34.04549],[-118.11637,34.0462],[-118.11664,34.04619],[-118.11667,34.04619],[-118.11668,34.04766],[-118.11668,34.04804],[-118.11668,34.04807],[-118.11672,34.05254],[-118.11672,34.05261],[-118.11651,34.05261],[-118.11652,34.05307],[-118.11651,34.05307],[-118.11652,34.05344],[-118.11652,34.05345],[-118.11652,34.05352],[-118.11644,34.05352],[-118.11641,34.05353],[-118.11628,34.05352],[-118.11565,34.05334],[-118.11513,34.05317],[-118.11473,34.05304],[-118.11427,34.05289],[-118.11423,34.05288],[-118.11398,34.05284],[-118.11386,34.05285],[-118.11367,34.05286],[-118.11358,34.05288],[-118.11345,34.05292],[-118.11341,34.05296],[-118.11331,34.05303],[-118.11324,34.05322],[-118.11324,34.05335],[-118.11331,34.05356],[-118.1134,34.05368],[-118.11348,34.05376],[-118.11348,34.05387],[-118.11344,34.05393],[-118.1134,34.05396],[-118.11333,34.05398],[-118.11326,34.05399],[-118.11315,34.05399],[-118.11314,34.05404],[-118.11313,34.05413],[-118.11312,34.05416],[-118.11308,34.05427],[-118.11306,34.05433],[-118.11301,34.05443],[-118.113,34.05444],[-118.11297,34.05449],[-118.11289,34.05462],[-118.11289,34.05464],[-118.11283,34.05474],[-118.11257,34.05505],[-118.11255,34.05508],[-118.11244,34.05523],[-118.11243,34.05532],[-118.11243,34.05533],[-118.11242,34.05533]]]},"properties":{"DIV_CITY":4}},
{"type":"Feature","geometry":{"type":"Polygon","coordinates":[[[-118.12161,34.03363],[-118.12059,34.0336],[-118.11995,34.03359],[-118.1193,34.03358],[-118.11836,34.03357],[-118.11813,34.03357],[-118.11797,34.03358],[-118.11788,34.03358],[-118.11697,34.03355],[-118.11648,34.03352],[-118.11615,34.0335],[-118.11574,34.03347],[-118.11479,34.03338],[-118.11428,34.03292],[-118.11423,34.03287],[-118.11401,34.03268],[-118.11389,34.03257],[-118.11372,34.03242],[-118.11357,34.03228],[-118.11346,34.03218],[-118.11321,34.03196],[-118.11307,34.03184],[-118.11294,34.03172],[-118.1128,34.0316],[-118.11267,34.03147],[-118.11254,34.03135],[-118.1124,34.03123],[-118.11226,34.03111],[-118.11219,34.03104],[-118.11213,34.03099],[-118.11197,34.03084],[-118.11167,34.03057],[-118.11164,34.03055],[-118.11153,34.03045],[-118.11121,34.03016],[-118.11095,34.02992],[-118.10988,34.02896],[-118.10984,34.02892],[-118.10933,34.02847],[-118.10894,34.02811],[-118.10849,34.02771],[-118.10812,34.02738],[-118.1077,34.027],[-118.10728,34.02745],[-118.10712,34.02762],[-118.107,34.02776],[-118.10593,34.02892],[-118.10565,34.02923],[-118.10542,34.02947],[-118.10527,34.02964],[-118.10508,34.02977],[-118.10451,34.03017],[-118.1041,34.03098],[-118.10395,34.03127],[-118.10376,34.03165],[-118.10363,34.03191],[-118.10356,34.03204],[-118.1033,34.032],[-118.10317,34.03198],[-118.10304,34.03196],[-118.10291,34.03194],[-118.10279,34.03193],[-118.10268,34.03191],[-118.10257,34.03189],[-118.10244,34.03187],[-118.10235,34.03186],[-118.10231,34.03186],[-118.10219,34.03184],[-118.10205,34.03182],[-118.10192,34.0318],[-118.10179,34.03178],[-118.10167,34.0318],[-118.10157,34.03182],[-118.10146,34.03184],[-118.10132,34.03187],[-118.10119,34.03189],[-118.10107,34.03191],[-118.10093,34.03194],[-118.10081,34.03196],[-118.10068,34.03198],[-118.10055,34.03201],[-118.10042,34.03203],[-118.10029,34.03206],[-118.10017,34.03208],[-118.10004,34.0321],[-118.09969,34.03216],[-118.09965,34.03217],[-118.09938,34.03222],[-118.09924,34.03225],[-118.0991,34.03228],[-118.09909,34.03231],[-118.09902,34.03259],[-118.09881,34.03339],[-118.09871,34.03376],[-118.09832,34.03524],[-118.09787,34.03539],[-118.09774,34.03544],[-118.09771,34.03544],[-118.09678,34.03542],[-118.09657,34.03539],[-118.09591,34.0353],[-118.09587,34.0353],[-118.09562,34.03525],[-118.09502,34.03512],[-118.09483,34.03516],[-118.09471,34.03519],[-118.09454,34.03523],[-118.09346,34.03549],[-118.09318,34.03556],[-118.0935,34.03564],[-118.09466,34.03594],[-118.09467,34.03594],[-118.0947,34.03595],[-118.09543,34.03614],[-118.09619,34.03633],[-118.09711,34.03657],[-118.09823,34.03685],[-118.09939,34.03715],[-118.10219,34.03786],[-118.10366,34.03824],[-118.10366,34.03878],[-118.10366,34.03896],[-118.10366,34.03954],[-118.10643,34.04025],[-118.10669,34.04032],[-118.10649,34.04042],[-118.10633,34.0405],[-118.10631,34.04051],[-118.1053,34.04099],[-118.10458,34.04133],[-118.10452,34.04136],[-118.10436,34.04144],[-118.10401,34.0416],[-118.10389,34.04166],[-118.10287,34.04213],[-118.10266,34.04226],[-118.1023,34.04246],[-118.10206,34.0426],[-118.102,34.04264],[-118.10184,34.04273],[-118.10173,34.04281],[-118.10156,34.04294],[-118.10146,34.04301],[-118.10136,34.0431],[-118.10122,34.04324],[-118.10118,34.04329],[-118.10112,34.04335],[-118.10106,34.04342],[-118.10096,34.04356],[-118.10087,34.04371],[-118.10077,34.04388],[-118.10065,34.0441],[-118.10047,34.04443],[-118.10033,34.0447],[-118.10031,34.04472],[-118.10028,34.04477],[-118.10028,34.04479],[-118.10022,34.04488],[-118.10016,34.045],[-118.10032,34.04509],[-118.10054,34.04523],[-118.10065,34.0453],[-118.10068,34.04533],[-118.10079,34.04539],[-118.10082,34.04541],[-118.10086,34.04545],[-118.1009,34.04547],[-118.10091,34.04547],[-118.10092,34.04548],[-118.10095,34.0455],[-118.10108,34.04559],[-118.10113,34.04562],[-118.10116,34.04564],[-118.10122,34.04568],[-118.10136,34.04577],[-118.10151,34.04587],[-118.10159,34.04592],[-118.10165,34.04596],[-118.10167,34.04598],[-118.10176,34.04603],[-118.10181,34.04607],[-118.10186,34.0461],[-118.10191,34.04613],[-118.10205,34.04623],[-118.10216,34.0463],[-118.10224,34.04635],[-118.1023,34.04639],[-118.10252,34.04653],[-118.10262,34.0466],[-118.10303,34.04687],[-118.10312,34.04693],[-118.10327,34.04703],[-118.10317,34.04713],[-118.10316,34.04713],[-118.10351,34.04721],[-118.10513,34.04693],[-118.10541,34.04678],[-118.10548,34.04675],[-118.10551,34.04673],[-118.10556,34.04671],[-118.10556,34.0467],[-118.10559,34.04669],[-118.10578,34.04659],[-118.10582,34.04658],[-118.10601,34.04651],[-118.10605,34.0465],[-118.10607,34.04649],[-118.10617,34.04646],[-118.10626,34.04644],[-118.10632,34.04642],[-118.10632,34.04641],[-118.10649,34.04636],[-118.1065,34.04642],[-118.10654,34.04653],[-118.10658,34.04667],[-118.10659,34.04667],[-118.1066,34.04666],[-118.10661,34.04665],[-118.10662,34.04665],[-118.10663,34.04664],[-118.10664,34.04664],[-118.10665,34.04663],[-118.10666,34.04663],[-118.10668,34.04663],[-118.10669,34.04663],[-118.1067,34.04663],[-118.10671,34.04663],[-118.10672,34.04663],[-118.10673,34.04663],[-118.10674,34.04664],[-118.10675,34.04664],[-118.10676,34.04664],[-118.10677,34.04665],[-118.10678,34.04666],[-118.10679,34.04667],[-118.10684,34.04665],[-118.10707,34.04654],[-118.10708,34.04653],[-118.10802,34.04707],[-118.10802,34.0471],[-118.10804,34.0471],[-118.10804,34.04747],[-118.10804,34.04775],[-118.10804,34.04848],[-118.10804,34.05002],[-118.10804,34.05005],[-118.10805,34.05068],[-118.10805,34.05116],[-118.10805,34.05274],[-118.10805,34.05337],[-118.10806,34.05536],[-118.10807,34.05685],[-118.10808,34.05807],[-118.10809,34.05943],[-118.10809,34.05988],[-118.1081,34.06034],[-118.10811,34.06082],[-118.10811,34.06259],[-118.1073,34.0626],[-118.10732,34.06379],[-118.10732,34.06415],[-118.10732,34.06438],[-118.10733,34.06442],[-118.10719,34.06442],[-118.10719,34.06494],[-118.10719,34.06501],[-118.10716,34.06501],[-118.10716,34.0651],[-118.10716,34.06563],[-118.10722,34.06563],[-118.10727,34.06563],[-118.10727,34.06575],[-118.10727,34.06615],[-118.1073,34.06623],[-118.10734,34.06632],[-118.10734,34.06654],[-118.10734,34.06656],[-118.10734,34.06665],[-118.10734,34.06676],[-118.10734,34.0669],[-118.10734,34.06705],[-118.10734,34.06716],[-118.10734,34.0672],[-118.10735,34.06737],[-118.10735,34.06742],[-118.10735,34.0675],[-118.10735,34.06764],[-118.10735,34.0678],[-118.10735,34.06793],[-118.10735,34.06805],[-118.10735,34.06819],[-118.10735,34.06821],[-118.10736,34.06837],[-118.10736,34.0685],[-118.10736,34.06864],[-118.10736,34.06878],[-118.10736,34.06882],[-118.10736,34.06896],[-118.10736,34.0691],[-118.10736,34.06921],[-118.10736,34.06936],[-118.10737,34.06978],[-118.10737,34.06986],[-118.1074,34.06986],[-118.10816,34.06986],[-118.10818,34.06986],[-118.10818,34.06996],[-118.10803,34.07009],[-118.10795,34.07015],[-118.10787,34.0702],[-118.10774,34.07028],[-118.10766,34.07033],[-118.10762,34.07037],[-118.1076,34.07039],[-118.10758,34.07041],[-118.10755,34.07044],[-118.10754,34.07047],[-118.10751,34.07055],[-118.1075,34.0706],[-118.10749,34.0707],[-118.10749,34.07078],[-118.10749,34.07089],[-118.1075,34.07111],[-118.1075,34.07113],[-118.1075,34.07128],[-118.10749,34.07137],[-118.10748,34.0714],[-118.10749,34.07155],[-118.10749,34.07166],[-118.10749,34.07168],[-118.10813,34.07168],[-118.10819,34.07166],[-118.10824,34.07164],[-118.10931,34.07165],[-118.10927,34.07163],[-118.10927,34.07137],[-118.10927,34.07109],[-118.10927,34.07082],[-118.10926,34.07055],[-118.10926,34.06985],[-118.10959,34.06985],[-118.11302,34.06983],[-118.11411,34.06983],[-118.11411,34.06982],[-118.11411,34.06968],[-118.11411,34.06951],[-118.11411,34.06826],[-118.11411,34.06817],[-118.11411,34.06794],[-118.1141,34.06757],[-118.1141,34.0672],[-118.1141,34.06698],[-118.1141,34.0662],[-118.1141,34.06619],[-118.1141,34.06615],[-118.1141,34.06613],[-118.1141,34.06558],[-118.1141,34.06543],[-118.1141,34.06533],[-118.1141,34.06519],[-118.1141,34.065],[-118.1141,34.06498],[-118.1141,34.06497],[-118.1141,34.06476],[-118.1141,34.06445],[-118.1141,34.06444],[-118.1141,34.06372],[-118.1141,34.0633],[-118.1141,34.06296],[-118.1141,34.06259],[-118.11399,34.06259],[-118.1136,34.06259],[-118.11353,34.06259],[-118.11353,34.06255],[-118.11352,34.06255],[-118.113,34.06255],[-118.11245,34.06256],[-118.11245,34.06255],[-118.11244,34.06136],[-118.11244,34.06079],[-118.11244,34.05987],[-118.11243,34.05823],[-118.11243,34.05672],[-118.11243,34.0566],[-118.11242,34.05533],[-118.11243,34.05533],[-118.11243,34.05532],[-118.11244,34.05523],[-118.11255,34.05508],[-118.11257,34.05505],[-118.11283,34.05474],[-118.11289,34.05464],[-118.11289,34.05462],[-118.11297,34.05449],[-118.113,34.05444],[-118.11301,34.05443],[-118.11306,34.05433],[-118.11308,34.05427],[-118.11312,34.05416],[-118.11313,34.05413],[-118.11314,34.05404],[-118.11315,34.05399],[-118.11326,34.05399],[-118.11333,34.05398],[-118.1134,34.05396],[-118.11344,34.05393],[-118.11348,34.05387],[-118.11348,34.05376],[-118.1134,34.05368],[-118.11331,34.05356],[-118.11324,34.05335],[-118.11324,34.05322],[-118.11331,34.05303],[-118.11341,34.05296],[-118.11345,34.05292],[-118.11358,34.05288],[-118.11367,34.05286],[-118.11386,34.05285],[-118.11398,34.05284],[-118.11423,34.05288],[-118.11427,34.05289],[-118.11473,34.05304],[-118.11513,34.05317],[-118.11565,34.05334],[-118.11628,34.05352],[-118.11641,34.05353],[-118.11644,34.05352],[-118.11652,34.05352],[-118.11652,34.05345],[-118.11652,34.05344],[-118.11651,34.05307],[-118.11652,34.05307],[-118.11651,34.05261],[-118.11672,34.05261],[-118.11672,34.05254],[-118.11668,34.04807],[-118.11668,34.04804],[-118.11668,34.04766],[-118.11667,34.04619],[-118.11664,34.04619],[-118.11637,34.0462],[-118.11636,34.04549],[-118.11635,34.04523],[-118.11634,34.04485],[-118.11634,34.0448],[-118.11653,34.04481],[-118.11667,34.04486],[-118.11672,34.04493],[-118.11681,34.0451],[-118.11682,34.04535],[-118.11683,34.04543],[-118.11684,34.04573],[-118.11685,34.04581],[-118.11691,34.04585],[-118.11701,34.04585],[-118.11808,34.04582],[-118.11842,34.04582],[-118.11854,34.04579],[-118.11865,34.04568],[-118.11869,34.0456],[-118.11868,34.04553],[-118.11865,34.04545],[-118.11852,34.04529],[-118.11841,34.04512],[-118.11842,34.04493],[-118.11847,34.04483],[-118.11866,34.04461],[-118.11891,34.04447],[-118.11894,34.04445],[-118.1191,34.04466],[-118.11956,34.04513],[-118.11964,34.04521],[-118.11971,34.04527],[-118.12045,34.0459],[-118.12048,34.04593],[-118.12058,34.04602],[-118.12061,34.04604],[-118.12128,34.04664],[-118.1214,34.04675],[-118.12153,34.04692],[-118.1217,34.04731],[-118.12183,34.0476],[-118.12184,34.04764],[-118.12192,34.04778],[-118.12206,34.04791],[-118.12212,34.04797],[-118.12228,34.0481],[-118.12229,34.04811],[-118.12231,34.04809],[-118.12243,34.048],[-118.12285,34.04763],[-118.12306,34.04744],[-118.12335,34.04718],[-118.12337,34.04717],[-118.12356,34.04708],[-118.12388,34.04695],[-118.12408,34.04682],[-118.12414,34.04674],[-118.12414,34.04673],[-118.12418,34.04665],[-118.12422,34.04648],[-118.12424,34.04633],[-118.12424,34.0462],[-118.12424,34.0457],[-118.12425,34.0456],[-118.12425,34.04546],[-118.12431,34.04532],[-118.12437,34.04522],[-118.12469,34.04496],[-118.12475,34.04491],[-118.12484,34.04483],[-118.12491,34.04477],[-118.12498,34.04479],[-118.12499,34.04479],[-118.12536,34.04488],[-118.12549,34.04491],[-118.12595,34.04502],[-118.12656,34.04517],[-118.12719,34.04532],[-118.12756,34.04541],[-118.12757,34.04542],[-118.12757,34.04544],[-118.12757,34.04547],[-118.12757,34.04548],[-118.12769,34.04551],[-118.12817,34.04561],[-118.12826,34.04562],[-118.12842,34.04561],[-118.12855,34.0456],[-118.12855,34.04556],[-118.12853,34.04546],[-118.12852,34.04529],[-118.12848,34.04501],[-118.12848,34.04498],[-118.12846,34.04477],[-118.12846,34.0447],[-118.12845,34.04456],[-118.12844,34.04441],[-118.12844,34.04437],[-118.12844,34.04419],[-118.12844,34.04411],[-118.12845,34.044],[-118.12847,34.04381],[-118.1285,34.04366],[-118.12853,34.04348],[-118.12858,34.04328],[-118.12865,34.04305],[-118.12882,34.04246],[-118.12892,34.04216],[-118.12897,34.04203],[-118.12902,34.04183],[-118.12906,34.04166],[-118.1291,34.04146],[-118.12912,34.04137],[-118.12914,34.0412],[-118.12916,34.04103],[-118.12915,34.04103],[-118.12912,34.04103],[-118.12911,34.04103],[-118.12909,34.04103],[-118.12887,34.04101],[-118.12866,34.041],[-118.12855,34.04099],[-118.12853,34.04099],[-118.12812,34.04096],[-118.12812,34.04095],[-118.12812,34.04089],[-118.12812,34.04088],[-118.1281,34.04075],[-118.12805,34.04054],[-118.12801,34.04045],[-118.12798,34.04039],[-118.12792,34.04031],[-118.12789,34.04027],[-118.12762,34.04001],[-118.12748,34.03987],[-118.12746,34.03986],[-118.12725,34.03969],[-118.12703,34.03951],[-118.12671,34.03923],[-118.12649,34.03903],[-118.12648,34.03903],[-118.12645,34.03903],[-118.12642,34.03903],[-118.12636,34.03903],[-118.12565,34.03904],[-118.12557,34.03904],[-118.12502,34.03905],[-118.12494,34.03905],[-118.12461,34.03905],[-118.12453,34.03905],[-118.12452,34.03905],[-118.12451,34.03905],[-118.12437,34.03905],[-118.12423,34.03905],[-118.12417,34.03905],[-118.12326,34.03906],[-118.12295,34.03906],[-118.12265,34.03906],[-118.1223,34.03907],[-118.12202,34.03907],[-118.12181,34.03913],[-118.12161,34.03894],[-118.12147,34.03881],[-118.12097,34.03833],[-118.1206,34.03833],[-118.12029,34.03833],[-118.12025,34.03833],[-118.12024,34.03828],[-118.12024,34.03821],[-118.12023,34.03816],[-118.12019,34.03801],[-118.12017,34.03774],[-118.12016,34.03756],[-118.12016,34.03752],[-118.12015,34.03713],[-118.12015,34.03706],[-118.12016,34.03703],[-118.1202,34.03693],[-118.1203,34.03679],[-118.12035,34.03674],[-118.12042,34.03666],[-118.12044,34.03664],[-118.12048,34.03662],[-118.12072,34.0365],[-118.12073,34.0365],[-118.12061,34.03634],[-118.12059,34.03632],[-118.12054,34.03624],[-118.1205,34.03617],[-118.12044,34.03607],[-118.1203,34.03593],[-118.12024,34.03587],[-118.12,34.03575],[-118.11982,34.0357],[-118.11979,34.0357],[-118.11956,34.03567],[-118.11934,34.03564],[-118.11928,34.03564],[-118.11905,34.03562],[-118.11878,34.03558],[-118.11861,34.03552],[-118.11845,34.03543],[-118.11827,34.03529],[-118.11812,34.03512],[-118.11808,34.035],[-118.11848,34.0348],[-118.11917,34.03448],[-118.11952,34.03432],[-118.1196,34.03429],[-118.12026,34.03396],[-118.12079,34.03376],[-118.12099,34.0337],[-118.12106,34.03368],[-118.12122,34.03366],[-118.12128,34.03365],[-118.12148,34.03364],[-118.12161,34.03363]]]},"properties":{"DIV_CITY":5}}
]}