{"type":"FeatureCollection", "features": [
{"type":"Feature","geometry":{"type":"Polygon","coordinates":[[[-117.75221,34.07378],[-117.75264,34.07361],[-117.75409,34.07302],[-117.75493,34.07267],[-117.75505,34.07262],[-117.75566,34.07237],[-117.75647,34.07205],[-117.75682,34.07193],[-117.7573,34.07175],[-117.75758,34.07166],[-117.75791,34.07155],[-117.75873,34.07129],[-117.75935,34.07113],[-117.75943,34.07111],[-117.75959,34.07108],[-117.75991,34.07101],[-117.76001,34.07099],[-117.76037,34.07094],[-117.76056,34.07091],[-117.76088,34.07087],[-117.76142,34.07082],[-117.76161,34.0708],[-117.7618,34.07078],[-117.76208,34.07077],[-117.7622,34.07077],[-117.76245,34.07077],[-117.76282,34.07078],[-117.76325,34.07081],[-117.76363,34.07084],[-117.76398,34.07086],[-117.7643,34.07088],[-117.76621,34.07118],[-117.76653,34.07123],[-117.76813,34.07148],[-117.76927,34.07167],[-117.77066,34.0719],[-117.77188,34.0721],[-117.77252,34.07221],[-117.77347,34.07237],[-117.77422,34.07247],[-117.77468,34.07253],[-117.775,34.07256],[-117.77514,34.07258],[-117.77556,34.07262],[-117.7761,34.07267],[-117.77677,34.07273],[-117.77702,34.07274],[-117.7773,34.07276],[-117.77773,34.07277],[-117.77812,34.07279],[-117.77837,34.07279],[-117.77847,34.07279],[-117.77914,34.07281],[-117.78172,34.0728],[-117.78289,34.0728],[-117.78369,34.0728],[-117.78462,34.0728],[-117.78477,34.0728],[-117.78585,34.07279],[-117.78621,34.07278],[-117.78688,34.07276],[-117.78719,34.07274],[-117.78757,34.07271],[-117.78747,34.07289],[-117.78737,34.0731],[-117.78717,34.0735],[-117.78705,34.07373],[-117.78675,34.0742],[-117.78664,34.07435],[-117.78659,34.07441],[-117.78654,34.07448],[-117.78653,34.07449],[-117.78677,34.07456],[-117.78721,34.07428],[-117.78763,34.07378],[-117.78795,34.0737],[-117.78824,34.07363],[-117.78937,34.07297],[-117.78949,34.0729],[-117.79041,34.07277],[-117.79081,34.07259],[-117.79104,34.07251],[-117.79159,34.07233],[-117.79171,34.07229],[-117.79194,34.07228],[-117.79243,34.07226],[-117.79414,34.07164],[-117.79417,34.07163],[-117.79489,34.0713],[-117.79492,34.07121],[-117.79502,34.07089],[-117.79536,34.07074],[-117.79563,34.07062],[-117.79567,34.07069],[-117.79588,34.0706],[-117.79583,34.07053],[-117.79638,34.07027],[-117.7973,34.07026],[-117.79751,34.06993],[-117.798,34.06967],[-117.79819,34.06964],[-117.79831,34.06962],[-117.79831,34.06958],[-117.79833,34.06957],[-117.79863,34.06943],[-117.79942,34.06903],[-117.80244,34.06787],[-117.803,34.06774],[-117.80339,34.06767],[-117.80355,34.06764],[-117.80371,34.06762],[-117.80381,34.06761],[-117.80399,34.06761],[-117.80416,34.06761],[-117.80434,34.06763],[-117.80496,34.06738],[-117.80498,34.06734],[-117.80524,34.06672],[-117.8067,34.06613],[-117.80747,34.06582],[-117.80731,34.0654],[-117.80719,34.06508],[-117.80747,34.06498],[-117.80778,34.06488],[-117.80798,34.06482],[-117.80828,34.06474],[-117.80867,34.06463],[-117.80896,34.06456],[-117.80948,34.06443],[-117.80975,34.06437],[-117.80998,34.06432],[-117.81002,34.06432],[-117.81043,34.06424],[-117.81052,34.06423],[-117.81088,34.06417],[-117.81109,34.06414],[-117.81122,34.06412],[-117.81142,34.06409],[-117.81152,34.06408],[-117.81167,34.06407],[-117.81176,34.06406],[-117.81196,34.06404],[-117.812,34.06404],[-117.81229,34.06402],[-117.8126,34.064],[-117.81354,34.06396],[-117.81605,34.06385],[-117.81639,34.06384],[-117.81643,34.06384],[-117.81648,34.06383],[-117.81866,34.06375],[-117.81892,34.06375],[-117.81897,34.06375],[-117.819,34.06375],[-117.81908,34.06375],[-117.81908,34.06343],[-117.8191,34.06341],[-117.81897,34.0634],[-117.81895,34.0634],[-117.81861,34.06336],[-117.81834,34.06332],[-117.81774,34.06324],[-117.81742,34.0632],[-117.81722,34.06312],[-117.8164,34.06317],[-117.81567,34.06318],[-117.81487,34.0632],[-117.81443,34.06322],[-117.81442,34.06322],[-117.81441,34.06322],[-117.81408,34.06324],[-117.81364,34.06329],[-117.8133,34.06328],[-117.81279,34.06313],[-117.81231,34.06306],[-117.81213,34.06314],[-117.81212,34.06312],[-117.81211,34.06311],[-117.8121,34.06309],[-117.8121,34.06308],[-117.81209,34.06306],[-117.81209,34.06305],[-117.81179,34.06307],[-117.81182,34.06327],[-117.81156,34.06337],[-117.81153,34.06338],[-117.81143,34.06334],[-117.81036,34.06322],[-117.80929,34.06314],[-117.80868,34.06307],[-117.80837,34.06299],[-117.80807,34.06288],[-117.80779,34.06274],[-117.80754,34.06258],[-117.80728,34.06237],[-117.80708,34.06216],[-117.80692,34.06194],[-117.8057,34.05972],[-117.80559,34.05951],[-117.80556,34.05947],[-117.80553,34.0594],[-117.80545,34.05926],[-117.80558,34.05922],[-117.80576,34.05916],[-117.80597,34.05909],[-117.80615,34.05903],[-117.80637,34.05896],[-117.80664,34.05887],[-117.80687,34.0588],[-117.80736,34.05864],[-117.80787,34.05847],[-117.80805,34.05858],[-117.80807,34.05859],[-117.80817,34.05866],[-117.80847,34.05884],[-117.81239,34.06124],[-117.81244,34.06127],[-117.81395,34.06018],[-117.81548,34.05907],[-117.817,34.05796],[-117.8171,34.05789],[-117.81999,34.05579],[-117.82005,34.05575],[-117.82085,34.05517],[-117.82109,34.05499],[-117.8158,34.05298],[-117.81592,34.05276],[-117.81722,34.05043],[-117.8172,34.05042],[-117.81661,34.0502],[-117.81657,34.05019],[-117.81631,34.05011],[-117.81622,34.05008],[-117.81606,34.05001],[-117.81523,34.04968],[-117.8145,34.04939],[-117.81396,34.04917],[-117.81229,34.04851],[-117.81225,34.0485],[-117.81202,34.0484],[-117.81014,34.04765],[-117.80985,34.04753],[-117.80933,34.04736],[-117.80921,34.04732],[-117.80905,34.04727],[-117.80889,34.04724],[-117.8086,34.04717],[-117.80843,34.04714],[-117.80799,34.04706],[-117.80666,34.04685],[-117.80603,34.04675],[-117.80576,34.04702],[-117.80355,34.04927],[-117.80353,34.04929],[-117.80312,34.0497],[-117.80213,34.05071],[-117.80187,34.05097],[-117.80167,34.05118],[-117.80166,34.05119],[-117.80105,34.05181],[-117.80063,34.05223],[-117.80026,34.05259],[-117.80018,34.05267],[-117.79979,34.05306],[-117.79958,34.05325],[-117.79948,34.05334],[-117.79932,34.05348],[-117.79908,34.05366],[-117.79893,34.05377],[-117.79876,34.05389],[-117.79859,34.05401],[-117.79838,34.05414],[-117.79823,34.05423],[-117.79803,34.05435],[-117.79781,34.05447],[-117.79761,34.05458],[-117.79745,34.05466],[-117.79721,34.05477],[-117.79701,34.05486],[-117.79693,34.05489],[-117.79678,34.05495],[-117.79654,34.05505],[-117.79629,34.05514],[-117.79616,34.05518],[-117.79603,34.05523],[-117.79571,34.05534],[-117.79549,34.0554],[-117.79533,34.05544],[-117.7953,34.05546],[-117.79519,34.05548],[-117.79499,34.05553],[-117.79481,34.05557],[-117.79466,34.0556],[-117.79419,34.05567],[-117.79167,34.05597],[-117.79094,34.05606],[-117.79079,34.05608],[-117.79039,34.05613],[-117.78875,34.05634],[-117.78815,34.05641],[-117.78604,34.05666],[-117.7845,34.05685],[-117.78437,34.05671],[-117.78433,34.05669],[-117.78384,34.05612],[-117.7837,34.05598],[-117.78362,34.0559],[-117.7836,34.05588],[-117.78349,34.05576],[-117.78328,34.05556],[-117.78276,34.05501],[-117.78234,34.05461],[-117.7822,34.05447],[-117.7816,34.05382],[-117.78152,34.05373],[-117.78127,34.05348],[-117.78043,34.05358],[-117.77944,34.05371],[-117.77814,34.05387],[-117.77788,34.0539],[-117.77634,34.05408],[-117.77526,34.05422],[-117.77447,34.05432],[-117.77356,34.05443],[-117.77333,34.05446],[-117.77339,34.05467],[-117.77414,34.05714],[-117.77439,34.05798],[-117.77443,34.0581],[-117.7742,34.05813],[-117.77416,34.05813],[-117.77367,34.05818],[-117.77321,34.05822],[-117.7729,34.05824],[-117.77262,34.05826],[-117.77235,34.05826],[-117.77197,34.05827],[-117.77165,34.05828],[-117.77163,34.05829],[-117.76774,34.05839],[-117.76766,34.05839],[-117.76591,34.05843],[-117.76544,34.05844],[-117.76327,34.05848],[-117.76325,34.05848],[-117.76127,34.05853],[-117.76107,34.05854],[-117.7591,34.05859],[-117.75889,34.05859],[-117.75889,34.05851],[-117.75888,34.05824],[-117.75887,34.05791],[-117.75885,34.05761],[-117.75883,34.05762],[-117.75775,34.05765],[-117.75737,34.05766],[-117.75667,34.05768],[-117.75559,34.05771],[-117.75451,34.05773],[-117.75339,34.05776],[-117.75229,34.05779],[-117.75099,34.05782],[-117.75016,34.05784],[-117.75017,34.05795],[-117.75019,34.05811],[-117.7502,34.05821],[-117.7502,34.05855],[-117.7502,34.05862],[-117.7502,34.05865],[-117.75021,34.05889],[-117.75021,34.05896],[-117.75021,34.05913],[-117.75021,34.0592],[-117.75017,34.05947],[-117.75017,34.05957],[-117.75017,34.05974],[-117.75017,34.06002],[-117.75018,34.06013],[-117.75022,34.06055],[-117.75022,34.06057],[-117.75026,34.06146],[-117.7503,34.06239],[-117.75033,34.0635],[-117.75035,34.06402],[-117.75035,34.06412],[-117.75035,34.06426],[-117.75036,34.06441],[-117.75037,34.06449],[-117.75038,34.06455],[-117.75039,34.06461],[-117.75042,34.0647],[-117.75052,34.06491],[-117.75058,34.06502],[-117.75067,34.06518],[-117.75146,34.06665],[-117.75148,34.06668],[-117.75153,34.06677],[-117.75168,34.06705],[-117.7518,34.06729],[-117.75191,34.06752],[-117.75196,34.06766],[-117.75198,34.06772],[-117.75199,34.06777],[-117.752,34.06782],[-117.75201,34.06791],[-117.75202,34.068],[-117.75202,34.06817],[-117.75203,34.06827],[-117.75204,34.06872],[-117.75205,34.06943],[-117.75206,34.06961],[-117.75207,34.06974],[-117.75211,34.07076],[-117.75215,34.07177],[-117.75218,34.07268],[-117.7522,34.07338],[-117.75221,34.07378]]]},"properties":{"DIV_CITY":1}},
{"type":"Feature","geometry":{"type":"Polygon","coordinates":[[[-117.74947,34.02394],[-117.74938,34.02401],[-117.74928,34.02409],[-117.74914,34.02422],[-117.74911,34.02426],[-117.74909,34.0243],[-117.74902,34.02445],[-117.749,34.02451],[-117.74898,34.02457],[-117.74896,34.0247],[-117.74894,34.02482],[-117.74894,34.02487],[-117.74892,34.0251],[-117.74892,34.02517],[-117.74893,34.02539],[-117.74896,34.02606],[-117.74909,34.02968],[-117.7491,34.02993],[-117.74918,34.03199],[-117.74922,34.03331],[-117.74932,34.03659],[-117.74934,34.03694],[-117.74941,34.03854],[-117.74941,34.03867],[-117.74941,34.03874],[-117.74942,34.03913],[-117.74946,34.04057],[-117.74948,34.04092],[-117.7495,34.0412],[-117.74952,34.0416],[-117.74952,34.04166],[-117.74955,34.04246],[-117.74962,34.04421],[-117.74968,34.04562],[-117.74975,34.04785],[-117.74979,34.04879],[-117.74983,34.04967],[-117.7498,34.04967],[-117.74874,34.0497],[-117.74763,34.04972],[-117.74653,34.04975],[-117.74546,34.04978],[-117.74544,34.04978],[-117.74435,34.04981],[-117.74327,34.04984],[-117.7411,34.0499],[-117.7411,34.04993],[-117.74116,34.0517],[-117.7412,34.05261],[-117.74123,34.05353],[-117.74121,34.05353],[-117.73907,34.05357],[-117.73902,34.05357],[-117.73906,34.05448],[-117.7391,34.0554],[-117.73914,34.05632],[-117.73917,34.05721],[-117.73919,34.05765],[-117.73918,34.0582],[-117.73924,34.0582],[-117.73925,34.05856],[-117.73927,34.05908],[-117.73927,34.05911],[-117.74087,34.05907],[-117.74129,34.05906],[-117.74144,34.05906],[-117.74144,34.05905],[-117.74274,34.059],[-117.74375,34.05897],[-117.74567,34.05892],[-117.7457,34.05892],[-117.7458,34.05892],[-117.7458,34.05879],[-117.74578,34.05844],[-117.74576,34.05795],[-117.74684,34.05792],[-117.74686,34.05792],[-117.74794,34.05789],[-117.74903,34.05787],[-117.75001,34.05784],[-117.75016,34.05784],[-117.75099,34.05782],[-117.75229,34.05779],[-117.75339,34.05776],[-117.75451,34.05773],[-117.75559,34.05771],[-117.75667,34.05768],[-117.75737,34.05766],[-117.75775,34.05765],[-117.75883,34.05762],[-117.75885,34.05761],[-117.75887,34.05791],[-117.75888,34.05824],[-117.75889,34.05851],[-117.75889,34.05859],[-117.7591,34.05859],[-117.76107,34.05854],[-117.76127,34.05853],[-117.76325,34.05848],[-117.76327,34.05848],[-117.76544,34.05844],[-117.76591,34.05843],[-117.76766,34.05839],[-117.76774,34.05839],[-117.77163,34.05829],[-117.77165,34.05828],[-117.77197,34.05827],[-117.77235,34.05826],[-117.77262,34.05826],[-117.7729,34.05824],[-117.77321,34.05822],[-117.77367,34.05818],[-117.77416,34.05813],[-117.7742,34.05813],[-117.77443,34.0581],[-117.77439,34.05798],[-117.77414,34.05714],[-117.77339,34.05467],[-117.77333,34.05446],[-117.77356,34.05443],[-117.77347,34.05418],[-117.77314,34.0531],[-117.77309,34.05294],[-117.77294,34.05244],[-117.77273,34.05176],[-117.77272,34.05171],[-117.77248,34.05092],[-117.77225,34.05015],[-117.77203,34.04945],[-117.77203,34.0494],[-117.77203,34.04938],[-117.77196,34.04922],[-117.77194,34.04914],[-117.77194,34.04911],[-117.77193,34.04906],[-117.77192,34.04895],[-117.77191,34.04888],[-117.77192,34.04869],[-117.77191,34.04862],[-117.77187,34.04785],[-117.77186,34.04769],[-117.77185,34.0473],[-117.77184,34.04709],[-117.77183,34.04687],[-117.77182,34.04627],[-117.77192,34.04627],[-117.77205,34.04626],[-117.77273,34.04623],[-117.77287,34.04623],[-117.77296,34.04624],[-117.77302,34.04625],[-117.77309,34.04626],[-117.77313,34.04627],[-117.77319,34.0463],[-117.77327,34.04635],[-117.77333,34.04639],[-117.77385,34.04649],[-117.77308,34.04577],[-117.77275,34.04546],[-117.77206,34.04482],[-117.77138,34.04419],[-117.77076,34.0436],[-117.77006,34.04293],[-117.76948,34.0424],[-117.76885,34.04181],[-117.76869,34.04166],[-117.76773,34.04075],[-117.76736,34.04041],[-117.76674,34.03983],[-117.76604,34.03917],[-117.76587,34.03902],[-117.76341,34.0367],[-117.76328,34.03658],[-117.7625,34.03589],[-117.76227,34.03567],[-117.76108,34.03457],[-117.76053,34.03406],[-117.76051,34.03403],[-117.76018,34.03372],[-117.75901,34.03262],[-117.75822,34.03186],[-117.75753,34.0312],[-117.75585,34.02962],[-117.75539,34.02923],[-117.75537,34.02921],[-117.75531,34.02916],[-117.75473,34.02866],[-117.75467,34.02862],[-117.75355,34.02764],[-117.75326,34.02739],[-117.7521,34.02638],[-117.75152,34.02586],[-117.7506,34.025],[-117.75035,34.02477],[-117.75001,34.02444],[-117.74978,34.02423],[-117.74947,34.02394]]]},"properties":{"DIV_CITY":2}},
{"type":"Feature","geometry":{"type":"Polygon","coordinates":[[[-117.74528,34.02003],[-117.74481,34.01995],[-117.74312,34.01969],[-117.74313,34.01968],[-117.74278,34.01964],[-117.7427,34.01963],[-117.74193,34.01951],[-117.7416,34.01945],[-117.74154,34.01945],[-117.74147,34.01943],[-117.74144,34.01943],[-117.74102,34.01936],[-117.74011,34.01922],[-117.74003,34.01921],[-117.73687,34.01873],[-117.73663,34.01868],[-117.73658,34.01867],[-117.73614,34.0186],[-117.73586,34.01856],[-117.73582,34.01858],[-117.73561,34.01868],[-117.73525,34.01886],[-117.73524,34.01886],[-117.73412,34.01942],[-117.73405,34.01945],[-117.73332,34.01981],[-117.73304,34.01995],[-117.73262,34.02015],[-117.73191,34.02051],[-117.73174,34.02059],[-117.73154,34.02068],[-117.73135,34.02078],[-117.7313,34.0208],[-117.73014,34.02138],[-117.72999,34.02225],[-117.72971,34.02385],[-117.72966,34.02413],[-117.72959,34.02455],[-117.72958,34.02457],[-117.72953,34.02497],[-117.72936,34.02631],[-117.72934,34.02645],[-117.72935,34.02653],[-117.72933,34.02663],[-117.72932,34.0267],[-117.72919,34.02744],[-117.72915,34.02765],[-117.72907,34.02814],[-117.72897,34.02814],[-117.72893,34.02837],[-117.72881,34.02908],[-117.72869,34.02975],[-117.72867,34.02988],[-117.72863,34.0301],[-117.7286,34.0303],[-117.72833,34.03184],[-117.7283,34.032],[-117.72807,34.03336],[-117.72804,34.03352],[-117.72802,34.03363],[-117.72802,34.03364],[-117.72801,34.03365],[-117.72775,34.0353],[-117.72767,34.03558],[-117.72707,34.03751],[-117.72595,34.04109],[-117.72527,34.04327],[-117.72525,34.04327],[-117.72506,34.0438],[-117.72503,34.04388],[-117.72495,34.0441],[-117.72477,34.04461],[-117.72473,34.04472],[-117.72469,34.04484],[-117.72466,34.04492],[-117.72455,34.04523],[-117.72455,34.04534],[-117.7246,34.04535],[-117.72461,34.04552],[-117.72455,34.04568],[-117.7245,34.04567],[-117.72439,34.04599],[-117.72421,34.04648],[-117.72415,34.04665],[-117.72417,34.04666],[-117.72404,34.04701],[-117.72389,34.04736],[-117.72377,34.0477],[-117.72368,34.04793],[-117.72333,34.0486],[-117.72316,34.04909],[-117.72303,34.04943],[-117.72237,34.05127],[-117.72208,34.05207],[-117.72206,34.05213],[-117.72205,34.05214],[-117.72204,34.05216],[-117.72199,34.05233],[-117.72138,34.05401],[-117.72077,34.0557],[-117.72067,34.05599],[-117.72028,34.05706],[-117.72006,34.05768],[-117.71943,34.05941],[-117.71936,34.05961],[-117.72383,34.0595],[-117.72396,34.0595],[-117.72415,34.05949],[-117.72727,34.05941],[-117.73054,34.05933],[-117.73064,34.05933],[-117.73234,34.05928],[-117.73258,34.05928],[-117.73268,34.05928],[-117.73285,34.05928],[-117.73467,34.05923],[-117.73692,34.05917],[-117.73706,34.05917],[-117.73725,34.05916],[-117.73927,34.05911],[-117.73927,34.05908],[-117.73925,34.05856],[-117.73924,34.0582],[-117.73918,34.0582],[-117.73919,34.05765],[-117.73917,34.05721],[-117.73914,34.05632],[-117.7391,34.0554],[-117.73906,34.05448],[-117.73902,34.05357],[-117.73907,34.05357],[-117.74121,34.05353],[-117.74123,34.05353],[-117.7412,34.05261],[-117.74116,34.0517],[-117.7411,34.04993],[-117.7411,34.0499],[-117.74327,34.04984],[-117.74435,34.04981],[-117.74544,34.04978],[-117.74546,34.04978],[-117.74653,34.04975],[-117.74763,34.04972],[-117.74874,34.0497],[-117.7498,34.04967],[-117.74983,34.04967],[-117.74979,34.04879],[-117.74975,34.04785],[-117.74968,34.04562],[-117.74962,34.04421],[-117.74955,34.04246],[-117.74952,34.04166],[-117.74952,34.0416],[-117.7495,34.0412],[-117.74948,34.04092],[-117.74946,34.04057],[-117.74942,34.03913],[-117.74941,34.03874],[-117.74941,34.03867],[-117.74941,34.03854],[-117.74934,34.03694],[-117.74932,34.03659],[-117.74922,34.03331],[-117.74918,34.03199],[-117.7491,34.02993],[-117.74909,34.02968],[-117.74896,34.02606],[-117.74893,34.02539],[-117.74892,34.02517],[-117.74892,34.0251],[-117.74894,34.02487],[-117.74894,34.02482],[-117.74896,34.0247],[-117.74898,34.02457],[-117.749,34.02451],[-117.74902,34.02445],[-117.74909,34.0243],[-117.74911,34.02426],[-117.74914,34.02422],[-117.74928,34.02409],[-117.74938,34.02401],[-117.74947,34.02394],[-117.7494,34.02387],[-117.74923,34.02371],[-117.74889,34.02339],[-117.74862,34.02313],[-117.74848,34.02301],[-117.74845,34.02298],[-117.74814,34.02271],[-117.74776,34.02238],[-117.74765,34.02227],[-117.74736,34.02199],[-117.74703,34.02168],[-117.74689,34.02153],[-117.74606,34.02076],[-117.74603,34.02072],[-117.74542,34.02017],[-117.74528,34.02003]]]},"properties":{"DIV_CITY":3}},
{"type":"Feature","geometry":{"type":"Polygon","coordinates":[[[-117.71936,34.05961],[-117.71926,34.05988],[-117.71902,34.06056],[-117.71813,34.06304],[-117.71808,34.06317],[-117.71802,34.06332],[-117.71794,34.06354],[-117.71776,34.06406],[-117.71775,34.06409],[-117.71765,34.06436],[-117.71705,34.0656],[-117.717,34.06574],[-117.71658,34.06688],[-117.71657,34.0669],[-117.71614,34.06805],[-117.71613,34.06808],[-117.71571,34.06902],[-117.71563,34.0692],[-117.71502,34.07062],[-117.71501,34.07063],[-117.71457,34.07161],[-117.71438,34.07203],[-117.71419,34.07246],[-117.71412,34.07262],[-117.7134,34.07426],[-117.71294,34.07532],[-117.71269,34.07593],[-117.71227,34.07682],[-117.71215,34.07706],[-117.71185,34.07775],[-117.71175,34.07797],[-117.71171,34.07807],[-117.71141,34.07871],[-117.71115,34.07935],[-117.71107,34.07954],[-117.7128,34.07954],[-117.71398,34.07954],[-117.71487,34.07954],[-117.71575,34.07954],[-117.71637,34.07954],[-117.71657,34.07954],[-117.71813,34.07953],[-117.71823,34.07953],[-117.71926,34.07949],[-117.71944,34.07949],[-117.71944,34.07953],[-117.72136,34.07952],[-117.72193,34.07951],[-117.72212,34.07951],[-117.72216,34.07951],[-117.72248,34.07951],[-117.72264,34.07951],[-117.72272,34.07951],[-117.72284,34.07951],[-117.72332,34.07951],[-117.72374,34.0795],[-117.72405,34.0795],[-117.72414,34.0795],[-117.72429,34.0795],[-117.72453,34.0795],[-117.72455,34.0795],[-117.72476,34.0795],[-117.72497,34.0795],[-117.72519,34.0795],[-117.72537,34.0795],[-117.7254,34.0795],[-117.72562,34.07949],[-117.72583,34.07949],[-117.72605,34.07949],[-117.72626,34.07949],[-117.72644,34.07949],[-117.72648,34.07949],[-117.72669,34.07949],[-117.72691,34.07949],[-117.72722,34.07949],[-117.72757,34.07948],[-117.72798,34.07948],[-117.728,34.07948],[-117.728,34.07959],[-117.72802,34.08091],[-117.72798,34.08122],[-117.72799,34.08153],[-117.72928,34.0815],[-117.7317,34.08147],[-117.73172,34.08147],[-117.73183,34.08146],[-117.7325,34.08139],[-117.73274,34.08137],[-117.73296,34.08134],[-117.73317,34.08131],[-117.73339,34.08127],[-117.73362,34.08122],[-117.73383,34.08117],[-117.73416,34.08108],[-117.73419,34.08107],[-117.7345,34.08099],[-117.73472,34.08092],[-117.73493,34.08085],[-117.7352,34.08075],[-117.73528,34.08072],[-117.73554,34.0806],[-117.73569,34.08054],[-117.73614,34.08037],[-117.73651,34.08021],[-117.73671,34.08013],[-117.73679,34.0801],[-117.73806,34.07958],[-117.73809,34.07957],[-117.73919,34.07912],[-117.74106,34.07835],[-117.74157,34.07815],[-117.74187,34.07802],[-117.74204,34.07796],[-117.74259,34.07773],[-117.74299,34.07756],[-117.7448,34.07682],[-117.74625,34.07623],[-117.74721,34.07583],[-117.74952,34.07489],[-117.75001,34.07469],[-117.7502,34.07461],[-117.75106,34.07425],[-117.75221,34.07378],[-117.7522,34.07338],[-117.75218,34.07268],[-117.75215,34.07177],[-117.75211,34.07076],[-117.75207,34.06974],[-117.75206,34.06961],[-117.75205,34.06943],[-117.75204,34.06872],[-117.75203,34.06827],[-117.75202,34.06817],[-117.75202,34.068],[-117.75201,34.06791],[-117.752,34.06782],[-117.75199,34.06777],[-117.75198,34.06772],[-117.75196,34.06766],[-117.75191,34.06752],[-117.7518,34.06729],[-117.75168,34.06705],[-117.75153,34.06677],[-117.75148,34.06668],[-117.75146,34.06665],[-117.75067,34.06518],[-117.75058,34.06502],[-117.75052,34.06491],[-117.75042,34.0647],[-117.75039,34.06461],[-117.75038,34.06455],[-117.75037,34.06449],[-117.75036,34.06441],[-117.75035,34.06426],[-117.75035,34.06412],[-117.75035,34.06402],[-117.75033,34.0635],[-117.7503,34.06239],[-117.75026,34.06146],[-117.75022,34.06057],[-117.75022,34.06055],[-117.75018,34.06013],[-117.75017,34.06002],[-117.75017,34.05974],[-117.75017,34.05957],[-117.75017,34.05947],[-117.75021,34.0592],[-117.75021,34.05913],[-117.75021,34.05896],[-117.75021,34.05889],[-117.7502,34.05865],[-117.7502,34.05862],[-117.7502,34.05855],[-117.7502,34.05821],[-117.75019,34.05811],[-117.75017,34.05795],[-117.75016,34.05784],[-117.75001,34.05784],[-117.74903,34.05787],[-117.74794,34.05789],[-117.74686,34.05792],[-117.74684,34.05792],[-117.74576,34.05795],[-117.74578,34.05844],[-117.7458,34.05879],[-117.7458,34.05892],[-117.7457,34.05892],[-117.74567,34.05892],[-117.74375,34.05897],[-117.74274,34.059],[-117.74144,34.05905],[-117.74144,34.05906],[-117.74129,34.05906],[-117.74087,34.05907],[-117.73927,34.05911],[-117.73725,34.05916],[-117.73706,34.05917],[-117.73692,34.05917],[-117.73467,34.05923],[-117.73285,34.05928],[-117.73268,34.05928],[-117.73258,34.05928],[-117.73234,34.05928],[-117.73064,34.05933],[-117.73054,34.05933],[-117.72727,34.05941],[-117.72415,34.05949],[-117.72396,34.0595],[-117.72383,34.0595],[-117.71936,34.05961]]]},"properties":{"DIV_CITY":4}},
{"type":"Feature","geometry":{"type":"Polygon","coordinates":[[[-117.77356,34.05443],[-117.77447,34.05432],[-117.77526,34.05422],[-117.77634,34.05408],[-117.77788,34.0539],[-117.77814,34.05387],[-117.77944,34.05371],[-117.78043,34.05358],[-117.78127,34.05348],[-117.78152,34.05373],[-117.7816,34.05382],[-117.7822,34.05447],[-117.78234,34.05461],[-117.78276,34.05501],[-117.78328,34.05556],[-117.78349,34.05576],[-117.7836,34.05588],[-117.78362,34.0559],[-117.7837,34.05598],[-117.78384,34.05612],[-117.78433,34.05669],[-117.78437,34.05671],[-117.7845,34.05685],[-117.78604,34.05666],[-117.78815,34.05641],[-117.78875,34.05634],[-117.79039,34.05613],[-117.79079,34.05608],[-117.79094,34.05606],[-117.79167,34.05597],[-117.79419,34.05567],[-117.79466,34.0556],[-117.79481,34.05557],[-117.79499,34.05553],[-117.79519,34.05548],[-117.7953,34.05546],[-117.79533,34.05544],[-117.79549,34.0554],[-117.79571,34.05534],[-117.79603,34.05523],[-117.79616,34.05518],[-117.79629,34.05514],[-117.79654,34.05505],[-117.79678,34.05495],[-117.79693,34.05489],[-117.79701,34.05486],[-117.79721,34.05477],[-117.79745,34.05466],[-117.79761,34.05458],[-117.79781,34.05447],[-117.79803,34.05435],[-117.79823,34.05423],[-117.79838,34.05414],[-117.79859,34.05401],[-117.79876,34.05389],[-117.79893,34.05377],[-117.79908,34.05366],[-117.79932,34.05348],[-117.79948,34.05334],[-117.79958,34.05325],[-117.79979,34.05306],[-117.80018,34.05267],[-117.80023,34.05263],[-117.80026,34.05259],[-117.80063,34.05223],[-117.80105,34.05181],[-117.80166,34.05119],[-117.80167,34.05118],[-117.80187,34.05097],[-117.80213,34.05071],[-117.80312,34.0497],[-117.80353,34.04929],[-117.80355,34.04927],[-117.80576,34.04702],[-117.80603,34.04675],[-117.80666,34.04685],[-117.80799,34.04706],[-117.80843,34.04714],[-117.8086,34.04717],[-117.80889,34.04724],[-117.80905,34.04727],[-117.80921,34.04732],[-117.80933,34.04736],[-117.80985,34.04753],[-117.81014,34.04765],[-117.81202,34.0484],[-117.81225,34.0485],[-117.81229,34.04851],[-117.81396,34.04917],[-117.8145,34.04939],[-117.81523,34.04968],[-117.81606,34.05001],[-117.81622,34.05008],[-117.81631,34.05011],[-117.81657,34.05019],[-117.81661,34.0502],[-117.8172,34.05042],[-117.81722,34.05043],[-117.81742,34.05051],[-117.81745,34.05052],[-117.81755,34.05053],[-117.81765,34.05055],[-117.81767,34.05055],[-117.81897,34.05106],[-117.82016,34.05154],[-117.82019,34.05155],[-117.8208,34.05179],[-117.82152,34.0505],[-117.82193,34.04977],[-117.82197,34.04972],[-117.82217,34.04934],[-117.82473,34.04478],[-117.82478,34.04469],[-117.82655,34.04153],[-117.82684,34.04102],[-117.82872,34.03763],[-117.8286,34.03763],[-117.82827,34.03763],[-117.8279,34.03763],[-117.82747,34.03763],[-117.82689,34.03763],[-117.82599,34.03762],[-117.82521,34.03762],[-117.82439,34.03762],[-117.82442,34.03757],[-117.82445,34.0375],[-117.82449,34.03743],[-117.82453,34.03734],[-117.82459,34.03718],[-117.82464,34.03705],[-117.82467,34.03693],[-117.82472,34.03677],[-117.82477,34.03659],[-117.82483,34.03632],[-117.82488,34.03607],[-117.82492,34.03581],[-117.82496,34.03559],[-117.82513,34.03464],[-117.82515,34.03458],[-117.82524,34.03419],[-117.8253,34.03402],[-117.8253,34.03401],[-117.82531,34.03397],[-117.82538,34.03376],[-117.82543,34.03364],[-117.82547,34.03355],[-117.82551,34.03346],[-117.82561,34.03326],[-117.82566,34.03318],[-117.82576,34.03301],[-117.82584,34.03289],[-117.82593,34.03274],[-117.82604,34.0326],[-117.82613,34.03249],[-117.82624,34.03235],[-117.82629,34.03228],[-117.82643,34.03213],[-117.82656,34.032],[-117.82663,34.03194],[-117.82671,34.03186],[-117.82689,34.0317],[-117.827,34.03161],[-117.82713,34.0315],[-117.82724,34.03142],[-117.82738,34.03132],[-117.8274,34.03131],[-117.82756,34.03126],[-117.82766,34.03119],[-117.82803,34.03101],[-117.82808,34.03098],[-117.82825,34.0309],[-117.828,34.03076],[-117.82773,34.03061],[-117.8273,34.03073],[-117.82672,34.03089],[-117.82661,34.03092],[-117.82664,34.03097],[-117.82667,34.03101],[-117.82652,34.03147],[-117.82633,34.03156],[-117.8261,34.03167],[-117.82591,34.03175],[-117.82549,34.03195],[-117.82527,34.03205],[-117.82523,34.03207],[-117.82511,34.03212],[-117.82509,34.03213],[-117.82508,34.03213],[-117.82475,34.03226],[-117.82471,34.03228],[-117.82449,34.03236],[-117.82442,34.03239],[-117.8244,34.03239],[-117.8241,34.03279],[-117.82409,34.03281],[-117.82383,34.03315],[-117.82368,34.03333],[-117.82358,34.03323],[-117.82226,34.03197],[-117.82224,34.03196],[-117.82191,34.03164],[-117.82189,34.03162],[-117.82178,34.03152],[-117.82177,34.03151],[-117.82168,34.03142],[-117.82161,34.03134],[-117.82154,34.03126],[-117.8215,34.03122],[-117.82139,34.0311],[-117.82053,34.03198],[-117.81986,34.03266],[-117.81929,34.03323],[-117.81821,34.03435],[-117.81808,34.03426],[-117.81786,34.03411],[-117.81742,34.03381],[-117.81717,34.03364],[-117.81692,34.03348],[-117.81672,34.03334],[-117.81647,34.03318],[-117.81625,34.03303],[-117.81604,34.03289],[-117.81588,34.03278],[-117.8157,34.03265],[-117.81566,34.03263],[-117.81548,34.03251],[-117.81526,34.03236],[-117.81501,34.03219],[-117.81497,34.03217],[-117.8148,34.03205],[-117.8146,34.03192],[-117.81439,34.03178],[-117.81419,34.03164],[-117.81399,34.0315],[-117.81378,34.03136],[-117.81357,34.03122],[-117.81337,34.03109],[-117.81324,34.031],[-117.81316,34.03095],[-117.81295,34.03081],[-117.81275,34.03067],[-117.81255,34.03054],[-117.81235,34.0304],[-117.81088,34.02941],[-117.81034,34.02913],[-117.8102,34.02944],[-117.80997,34.02993],[-117.80977,34.0303],[-117.80973,34.03037],[-117.80934,34.03111],[-117.80914,34.03142],[-117.80863,34.03224],[-117.80851,34.03243],[-117.80798,34.03321],[-117.8077,34.03363],[-117.80739,34.03409],[-117.80703,34.03461],[-117.80674,34.03505],[-117.8064,34.03555],[-117.80574,34.03636],[-117.80565,34.03644],[-117.80564,34.03645],[-117.80533,34.03676],[-117.80465,34.03751],[-117.8041,34.03808],[-117.80377,34.03844],[-117.80353,34.03875],[-117.80321,34.03938],[-117.80308,34.03968],[-117.8027,34.04059],[-117.80262,34.0407],[-117.80234,34.04114],[-117.80226,34.04127],[-117.80216,34.04144],[-117.80209,34.04157],[-117.80204,34.04166],[-117.80203,34.04168],[-117.80195,34.04185],[-117.80187,34.04206],[-117.80177,34.04231],[-117.80172,34.04248],[-117.80167,34.04263],[-117.80159,34.04283],[-117.80106,34.04249],[-117.7996,34.04158],[-117.79935,34.04142],[-117.79932,34.04141],[-117.79915,34.0413],[-117.79903,34.04122],[-117.79848,34.04088],[-117.79813,34.04048],[-117.79789,34.04021],[-117.79775,34.04004],[-117.79765,34.03991],[-117.79744,34.03968],[-117.79728,34.03951],[-117.79727,34.0395],[-117.79716,34.03939],[-117.79704,34.03927],[-117.79688,34.03912],[-117.79672,34.03897],[-117.79664,34.03891],[-117.79653,34.03882],[-117.7964,34.03871],[-117.79631,34.03865],[-117.79615,34.03853],[-117.796,34.03844],[-117.79579,34.03831],[-117.79564,34.03822],[-117.79541,34.03809],[-117.79515,34.03795],[-117.79497,34.03785],[-117.79482,34.03778],[-117.79476,34.03776],[-117.79474,34.03775],[-117.79462,34.0377],[-117.79442,34.03762],[-117.79417,34.03753],[-117.79383,34.03741],[-117.79362,34.03734],[-117.79354,34.03731],[-117.79331,34.03724],[-117.79312,34.03719],[-117.79301,34.03716],[-117.79291,34.03714],[-117.79278,34.03712],[-117.79276,34.03711],[-117.79265,34.0371],[-117.79252,34.03708],[-117.7925,34.03708],[-117.79194,34.03672],[-117.79175,34.0366],[-117.79144,34.03641],[-117.79141,34.03638],[-117.79123,34.03627],[-117.79107,34.03617],[-117.79104,34.03615],[-117.79098,34.03611],[-117.79086,34.03604],[-117.79073,34.03595],[-117.79068,34.03592],[-117.7905,34.03581],[-117.79033,34.0357],[-117.79015,34.03559],[-117.79012,34.03557],[-117.78997,34.03547],[-117.7898,34.03536],[-117.78975,34.03533],[-117.78964,34.03526],[-117.78947,34.03515],[-117.78931,34.03505],[-117.78898,34.03484],[-117.78881,34.03473],[-117.78862,34.03461],[-117.78839,34.03446],[-117.7882,34.03434],[-117.788,34.03422],[-117.78779,34.03408],[-117.78756,34.03394],[-117.78732,34.03379],[-117.78705,34.03361],[-117.78679,34.03345],[-117.78672,34.03341],[-117.78662,34.03334],[-117.78653,34.03328],[-117.78649,34.03326],[-117.7863,34.03314],[-117.78601,34.03296],[-117.78595,34.03292],[-117.78575,34.03279],[-117.78565,34.03273],[-117.78549,34.03263],[-117.78534,34.03253],[-117.78521,34.03245],[-117.78519,34.03243],[-117.78519,34.03217],[-117.78519,34.03205],[-117.78519,34.0319],[-117.78519,34.03165],[-117.78519,34.03138],[-117.78519,34.03117],[-117.78519,34.03098],[-117.78519,34.03079],[-117.78519,34.03061],[-117.78519,34.03057],[-117.78519,34.03043],[-117.78519,34.03025],[-117.78519,34.03007],[-117.78519,34.02989],[-117.78519,34.02973],[-117.78519,34.0297],[-117.78519,34.02966],[-117.78519,34.02959],[-117.78519,34.02947],[-117.78519,34.02931],[-117.78519,34.0291],[-117.78519,34.02888],[-117.78519,34.02879],[-117.78519,34.02868],[-117.78519,34.0285],[-117.78519,34.02832],[-117.78519,34.02816],[-117.78519,34.02797],[-117.78519,34.02791],[-117.78519,34.0279],[-117.78519,34.02785],[-117.78519,34.02779],[-117.78519,34.02762],[-117.78518,34.02744],[-117.78518,34.02727],[-117.78518,34.02709],[-117.78518,34.02691],[-117.78518,34.02676],[-117.78518,34.0267],[-117.78518,34.02614],[-117.78507,34.02614],[-117.78493,34.02609],[-117.78462,34.02596],[-117.78421,34.02579],[-117.78406,34.02578],[-117.78388,34.02577],[-117.78302,34.02592],[-117.78254,34.02601],[-117.78246,34.02604],[-117.78207,34.02587],[-117.78134,34.02554],[-117.781,34.02539],[-117.7765,34.02336],[-117.77579,34.02305],[-117.77388,34.02219],[-117.77226,34.02146],[-117.77221,34.02144],[-117.77117,34.02097],[-117.76985,34.02037],[-117.76961,34.02026],[-117.76819,34.01962],[-117.76817,34.01962],[-117.76816,34.01961],[-117.76767,34.01939],[-117.76767,34.01953],[-117.76767,34.01969],[-117.76767,34.02018],[-117.76767,34.02021],[-117.76767,34.02082],[-117.76767,34.02088],[-117.76767,34.0209],[-117.76767,34.02127],[-117.76767,34.02231],[-117.76767,34.02234],[-117.76767,34.02236],[-117.76767,34.02272],[-117.76767,34.02307],[-117.76767,34.02313],[-117.76767,34.02352],[-117.76625,34.02329],[-117.76416,34.02297],[-117.76173,34.02259],[-117.76096,34.02247],[-117.75854,34.02209],[-117.75725,34.02189],[-117.75374,34.02135],[-117.75372,34.02134],[-117.75358,34.02132],[-117.75323,34.02127],[-117.75289,34.02121],[-117.75272,34.02119],[-117.7527,34.02118],[-117.75053,34.02085],[-117.75051,34.02084],[-117.75049,34.02084],[-117.75047,34.02084],[-117.75045,34.02083],[-117.7501,34.02078],[-117.74939,34.02067],[-117.74904,34.02061],[-117.749,34.02061],[-117.74877,34.02057],[-117.74829,34.0205],[-117.74762,34.02039],[-117.74743,34.02036],[-117.74716,34.02032],[-117.74582,34.02011],[-117.74569,34.02009],[-117.74528,34.02003],[-117.74542,34.02017],[-117.74603,34.02072],[-117.74606,34.02076],[-117.74689,34.02153],[-117.74703,34.02168],[-117.74736,34.02199],[-117.74765,34.02227],[-117.74776,34.02238],[-117.74814,34.02271],[-117.74845,34.02298],[-117.74848,34.02301],[-117.74862,34.02313],[-117.74889,34.02339],[-117.74923,34.02371],[-117.7494,34.02387],[-117.74947,34.02394],[-117.74978,34.02423],[-117.75001,34.02444],[-117.75035,34.02477],[-117.7506,34.025],[-117.75152,34.02586],[-117.7521,34.02638],[-117.75326,34.02739],[-117.75355,34.02764],[-117.75467,34.02862],[-117.75473,34.02866],[-117.75531,34.02916],[-117.75537,34.02921],[-117.75539,34.02923],[-117.75585,34.02962],[-117.75753,34.0312],[-117.75822,34.03186],[-117.75901,34.03262],[-117.76018,34.03372],[-117.76051,34.03403],[-117.76053,34.03406],[-117.76108,34.03457],[-117.76227,34.03567],[-117.7625,34.03589],[-117.76328,34.03658],[-117.76341,34.0367],[-117.76587,34.03902],[-117.76604,34.03917],[-117.76674,34.03983],[-117.76736,34.04041],[-117.76773,34.04075],[-117.76869,34.04166],[-117.76885,34.04181],[-117.76948,34.0424],[-117.77006,34.04293],[-117.77076,34.0436],[-117.77138,34.04419],[-117.77206,34.04482],[-117.77275,34.04546],[-117.77308,34.04577],[-117.77385,34.04649],[-117.77333,34.04639],[-117.77327,34.04635],[-117.77319,34.0463],[-117.77313,34.04627],[-117.77309,34.04626],[-117.77302,34.04625],[-117.77296,34.04624],[-117.77287,34.04623],[-117.77273,34.04623],[-117.77205,34.04626],[-117.77192,34.04627],[-117.77182,34.04627],[-117.77183,34.04687],[-117.77184,34.04709],[-117.77185,34.0473],[-117.77186,34.04769],[-117.77187,34.04785],[-117.77191,34.04862],[-117.77192,34.04869],[-117.77191,34.04888],[-117.77192,34.04895],[-117.77193,34.04906],[-117.77194,34.04911],[-117.77194,34.04914],[-117.77196,34.04922],[-117.77203,34.04938],[-117.77203,34.0494],[-117.77203,34.04945],[-117.77225,34.05015],[-117.77248,34.05092],[-117.77272,34.05171],[-117.77273,34.05176],[-117.77294,34.05244],[-117.77309,34.05294],[-117.77314,34.0531],[-117.77347,34.05418],[-117.77356,34.05443]]]},"properties":{"DIV_CITY":5}},
{"type":"Feature","geometry":{"type":"Polygon","coordinates":[[[-117.72799,34.08153],[-117.728,34.08195],[-117.72799,34.08304],[-117.72799,34.08332],[-117.72799,34.0838],[-117.72798,34.08506],[-117.72798,34.08534],[-117.72798,34.08561],[-117.72798,34.08673],[-117.72798,34.08676],[-117.72798,34.087],[-117.72798,34.08715],[-117.72798,34.08889],[-117.72798,34.09037],[-117.72852,34.09036],[-117.72961,34.09033],[-117.73017,34.09032],[-117.73056,34.09032],[-117.73071,34.09031],[-117.73129,34.0903],[-117.732,34.09029],[-117.7323,34.09028],[-117.73233,34.09028],[-117.73235,34.09028],[-117.73236,34.09147],[-117.73236,34.09251],[-117.73237,34.09362],[-117.73237,34.09384],[-117.73237,34.094],[-117.73232,34.094],[-117.73232,34.09427],[-117.73233,34.09623],[-117.73225,34.09623],[-117.73223,34.09714],[-117.73222,34.09728],[-117.73222,34.0974],[-117.73223,34.09754],[-117.73225,34.09873],[-117.73242,34.09874],[-117.73339,34.09876],[-117.73403,34.09878],[-117.73462,34.0988],[-117.73523,34.09882],[-117.73652,34.09886],[-117.73678,34.09887],[-117.73678,34.10114],[-117.73678,34.10136],[-117.73678,34.10151],[-117.73679,34.10273],[-117.73679,34.10308],[-117.73679,34.10341],[-117.73749,34.10341],[-117.7375,34.10389],[-117.73792,34.10379],[-117.73794,34.10379],[-117.73992,34.10378],[-117.73992,34.10394],[-117.73992,34.10408],[-117.73996,34.10408],[-117.74001,34.10408],[-117.74002,34.10491],[-117.74002,34.10511],[-117.74002,34.10513],[-117.74002,34.10517],[-117.74002,34.10584],[-117.74002,34.10594],[-117.73999,34.10594],[-117.73988,34.10594],[-117.73988,34.10614],[-117.73986,34.10614],[-117.73986,34.10632],[-117.73916,34.10631],[-117.73887,34.10631],[-117.73887,34.1061],[-117.73744,34.1061],[-117.73744,34.10576],[-117.73721,34.10576],[-117.73721,34.10569],[-117.73721,34.10559],[-117.73721,34.10528],[-117.73721,34.10519],[-117.73699,34.10518],[-117.7368,34.10518],[-117.7368,34.10528],[-117.7368,34.1057],[-117.7368,34.10616],[-117.7368,34.10711],[-117.7368,34.10865],[-117.7368,34.10923],[-117.73679,34.10983],[-117.73679,34.1107],[-117.73679,34.11074],[-117.73679,34.11077],[-117.73679,34.11087],[-117.73696,34.11087],[-117.73698,34.11087],[-117.73703,34.11088],[-117.73705,34.11089],[-117.73706,34.11089],[-117.73708,34.11089],[-117.73718,34.11091],[-117.73719,34.11091],[-117.73744,34.11092],[-117.73762,34.11071],[-117.73801,34.11072],[-117.73809,34.11073],[-117.73815,34.11073],[-117.73846,34.11074],[-117.73855,34.11074],[-117.73893,34.11075],[-117.739,34.11075],[-117.739,34.11019],[-117.73901,34.10988],[-117.73902,34.10903],[-117.73902,34.10815],[-117.73911,34.10815],[-117.73971,34.10815],[-117.73991,34.1081],[-117.74112,34.10812],[-117.74117,34.10812],[-117.74117,34.10848],[-117.74209,34.10849],[-117.74209,34.10862],[-117.74209,34.10902],[-117.74209,34.10927],[-117.74209,34.1095],[-117.74208,34.10977],[-117.74208,34.11036],[-117.74207,34.11053],[-117.74208,34.11073],[-117.74208,34.11078],[-117.74208,34.11079],[-117.74207,34.1108],[-117.74221,34.1108],[-117.74235,34.1108],[-117.74247,34.1108],[-117.74255,34.1108],[-117.74273,34.1108],[-117.74279,34.1108],[-117.7429,34.1108],[-117.743,34.11081],[-117.74321,34.11081],[-117.74323,34.11081],[-117.74326,34.11081],[-117.7433,34.11081],[-117.74354,34.11081],[-117.7438,34.11081],[-117.74387,34.11081],[-117.74407,34.11081],[-117.7441,34.11081],[-117.74421,34.11081],[-117.74434,34.11081],[-117.74453,34.11081],[-117.7446,34.11081],[-117.74465,34.11081],[-117.74488,34.11082],[-117.74514,34.11082],[-117.74519,34.11082],[-117.74533,34.11082],[-117.74533,34.11074],[-117.74533,34.10901],[-117.74533,34.1082],[-117.74534,34.1082],[-117.74636,34.1082],[-117.7464,34.1082],[-117.74639,34.10891],[-117.74639,34.10902],[-117.74639,34.10915],[-117.74639,34.1095],[-117.74639,34.10955],[-117.74798,34.10956],[-117.74815,34.10956],[-117.74858,34.10956],[-117.74858,34.10992],[-117.74858,34.10997],[-117.74857,34.11083],[-117.74857,34.11084],[-117.74857,34.11093],[-117.74857,34.11106],[-117.74857,34.11119],[-117.74856,34.11187],[-117.74855,34.11229],[-117.74855,34.11248],[-117.74855,34.11259],[-117.75003,34.1126],[-117.75004,34.11117],[-117.75004,34.1106],[-117.75004,34.10964],[-117.7507,34.10965],[-117.75069,34.10963],[-117.7507,34.10959],[-117.7507,34.10955],[-117.7507,34.10951],[-117.7507,34.10949],[-117.75071,34.10868],[-117.75072,34.10856],[-117.75081,34.10859],[-117.75091,34.10862],[-117.75095,34.10864],[-117.75101,34.10865],[-117.75369,34.10955],[-117.75405,34.10967],[-117.75509,34.11001],[-117.75611,34.11035],[-117.75622,34.11039],[-117.75622,34.11023],[-117.75621,34.10948],[-117.75619,34.10857],[-117.75618,34.10759],[-117.75618,34.10738],[-117.75618,34.10731],[-117.75617,34.1067],[-117.75617,34.10663],[-117.75616,34.10551],[-117.75616,34.1055],[-117.75614,34.10414],[-117.75613,34.10351],[-117.75611,34.10343],[-117.75611,34.10262],[-117.75611,34.10232],[-117.7561,34.10145],[-117.7561,34.10105],[-117.7561,34.10048],[-117.7561,34.10007],[-117.7561,34.09949],[-117.75611,34.09938],[-117.75611,34.09936],[-117.75611,34.09927],[-117.75613,34.0992],[-117.75614,34.09915],[-117.75616,34.0991],[-117.7562,34.09901],[-117.75624,34.09895],[-117.75627,34.0989],[-117.75631,34.09882],[-117.75642,34.09867],[-117.75637,34.09866],[-117.75635,34.09865],[-117.75621,34.09863],[-117.75612,34.09856],[-117.7561,34.09855],[-117.75611,34.09846],[-117.75611,34.09837],[-117.75598,34.09837],[-117.75599,34.09835],[-117.756,34.09833],[-117.75601,34.09832],[-117.75601,34.0983],[-117.75602,34.09829],[-117.75603,34.09827],[-117.75603,34.09825],[-117.75604,34.09824],[-117.75604,34.09822],[-117.75605,34.09821],[-117.75606,34.09819],[-117.75606,34.09817],[-117.75606,34.09816],[-117.75607,34.09814],[-117.75607,34.09812],[-117.75608,34.09811],[-117.75608,34.09809],[-117.75608,34.09807],[-117.75608,34.09806],[-117.75609,34.09804],[-117.75607,34.09803],[-117.75614,34.09793],[-117.75613,34.09711],[-117.75613,34.09583],[-117.75613,34.09535],[-117.75613,34.09458],[-117.75613,34.09429],[-117.75613,34.09383],[-117.75613,34.09286],[-117.75613,34.09228],[-117.75612,34.09125],[-117.75612,34.08997],[-117.75618,34.08997],[-117.75644,34.08998],[-117.75666,34.09],[-117.75677,34.08999],[-117.75695,34.08999],[-117.75714,34.09001],[-117.75728,34.09002],[-117.75743,34.09005],[-117.7575,34.09007],[-117.75759,34.09009],[-117.75771,34.09012],[-117.75802,34.09022],[-117.75821,34.09027],[-117.75837,34.09034],[-117.75843,34.09037],[-117.75863,34.09047],[-117.75867,34.09049],[-117.75874,34.09053],[-117.75884,34.09058],[-117.75894,34.09065],[-117.75921,34.09082],[-117.76012,34.09144],[-117.76037,34.0916],[-117.76107,34.09208],[-117.76191,34.09264],[-117.7621,34.09277],[-117.76214,34.0928],[-117.76224,34.09267],[-117.76293,34.09172],[-117.76317,34.0914],[-117.76351,34.09094],[-117.76352,34.09093],[-117.76363,34.09078],[-117.76417,34.09004],[-117.76439,34.08974],[-117.76441,34.08978],[-117.7644,34.08978],[-117.76445,34.08989],[-117.76471,34.09054],[-117.76478,34.09069],[-117.76487,34.09088],[-117.76489,34.09093],[-117.76523,34.09156],[-117.76536,34.0919],[-117.76539,34.09197],[-117.76546,34.09214],[-117.7655,34.09226],[-117.76554,34.09234],[-117.76555,34.09236],[-117.76557,34.09243],[-117.76561,34.09251],[-117.76565,34.09259],[-117.76565,34.0926],[-117.76569,34.09267],[-117.76569,34.09268],[-117.7657,34.0927],[-117.76575,34.09279],[-117.76576,34.09281],[-117.76578,34.09285],[-117.76582,34.09291],[-117.76584,34.09294],[-117.76585,34.09297],[-117.7659,34.09305],[-117.76595,34.09313],[-117.76598,34.09317],[-117.76601,34.09321],[-117.76602,34.09323],[-117.76609,34.09333],[-117.76611,34.09336],[-117.76612,34.09337],[-117.76614,34.09339],[-117.76617,34.09344],[-117.76618,34.09345],[-117.76623,34.09351],[-117.76626,34.09356],[-117.76628,34.09357],[-117.76629,34.09359],[-117.7663,34.09361],[-117.76635,34.09366],[-117.76644,34.09376],[-117.76651,34.09384],[-117.76657,34.0939],[-117.76664,34.09397],[-117.76672,34.09405],[-117.76679,34.09412],[-117.76686,34.09418],[-117.76693,34.09424],[-117.76694,34.09425],[-117.76706,34.09435],[-117.76709,34.09437],[-117.76713,34.09441],[-117.76719,34.09445],[-117.76721,34.09447],[-117.76729,34.09453],[-117.76731,34.09454],[-117.76732,34.09455],[-117.76737,34.09459],[-117.76738,34.09459],[-117.76746,34.09465],[-117.76751,34.09468],[-117.76754,34.0947],[-117.76755,34.09471],[-117.76762,34.09476],[-117.76771,34.09481],[-117.7678,34.09486],[-117.76786,34.0949],[-117.76789,34.09491],[-117.76792,34.09493],[-117.76804,34.095],[-117.76805,34.09501],[-117.76814,34.09505],[-117.76824,34.0951],[-117.76825,34.0951],[-117.76826,34.09511],[-117.76833,34.09514],[-117.76842,34.09519],[-117.76852,34.09523],[-117.76858,34.09525],[-117.76861,34.09527],[-117.76871,34.09531],[-117.76872,34.09531],[-117.76881,34.09534],[-117.76881,34.09535],[-117.76888,34.09537],[-117.76891,34.09538],[-117.76901,34.09542],[-117.76912,34.09545],[-117.76977,34.09565],[-117.76984,34.09567],[-117.7699,34.0956],[-117.77002,34.09563],[-117.77009,34.09542],[-117.7701,34.09539],[-117.77013,34.09532],[-117.77016,34.09522],[-117.7702,34.09516],[-117.77035,34.09494],[-117.77037,34.09492],[-117.7704,34.09487],[-117.77071,34.09447],[-117.7708,34.09435],[-117.77174,34.09309],[-117.77202,34.0927],[-117.77207,34.09264],[-117.77354,34.09065],[-117.77447,34.08937],[-117.77541,34.08811],[-117.77653,34.0866],[-117.77656,34.08655],[-117.77679,34.08619],[-117.77717,34.08637],[-117.77826,34.08695],[-117.77937,34.08755],[-117.78007,34.08795],[-117.78025,34.08805],[-117.78033,34.08809],[-117.7804,34.08812],[-117.78042,34.08813],[-117.78051,34.08816],[-117.78075,34.08822],[-117.78334,34.08889],[-117.78404,34.08908],[-117.78406,34.08904],[-117.78422,34.0886],[-117.78494,34.08852],[-117.78498,34.08845],[-117.78505,34.08833],[-117.78538,34.08845],[-117.78545,34.08848],[-117.78567,34.08846],[-117.78683,34.08835],[-117.78687,34.08806],[-117.78567,34.08561],[-117.78542,34.0851],[-117.785,34.08504],[-117.78409,34.08491],[-117.78217,34.08536],[-117.78205,34.08539],[-117.78201,34.08532],[-117.78191,34.08517],[-117.78099,34.08374],[-117.78281,34.08203],[-117.78282,34.08203],[-117.78352,34.08136],[-117.78353,34.08135],[-117.78386,34.08104],[-117.78374,34.08099],[-117.78364,34.08096],[-117.78219,34.08029],[-117.78119,34.07982],[-117.78027,34.07943],[-117.77957,34.07911],[-117.77961,34.07904],[-117.77963,34.07901],[-117.77972,34.07886],[-117.77992,34.07852],[-117.78001,34.07837],[-117.78019,34.07806],[-117.78028,34.07792],[-117.78036,34.07781],[-117.78047,34.07767],[-117.78063,34.07749],[-117.7807,34.07742],[-117.78085,34.07727],[-117.781,34.07715],[-117.78106,34.0771],[-117.78115,34.07704],[-117.78123,34.07699],[-117.7813,34.07695],[-117.78137,34.07692],[-117.78146,34.07688],[-117.78156,34.07684],[-117.78172,34.07679],[-117.78177,34.07678],[-117.78194,34.07673],[-117.78204,34.0767],[-117.78212,34.07669],[-117.78261,34.0766],[-117.7828,34.07657],[-117.78286,34.07655],[-117.78296,34.07653],[-117.78312,34.0765],[-117.78331,34.07645],[-117.78343,34.07641],[-117.78362,34.07634],[-117.78386,34.07626],[-117.78399,34.0762],[-117.78417,34.07613],[-117.7843,34.07607],[-117.78438,34.07602],[-117.78451,34.07596],[-117.78484,34.07576],[-117.78496,34.07584],[-117.78508,34.07577],[-117.78514,34.07572],[-117.78518,34.0757],[-117.7852,34.07568],[-117.78524,34.07566],[-117.78526,34.07565],[-117.78534,34.07559],[-117.78539,34.07555],[-117.78545,34.07551],[-117.78552,34.07546],[-117.78555,34.07544],[-117.78556,34.07543],[-117.78559,34.07541],[-117.78561,34.07539],[-117.78562,34.07538],[-117.7858,34.07524],[-117.78623,34.07491],[-117.78677,34.07456],[-117.78653,34.07449],[-117.78654,34.07448],[-117.78659,34.07441],[-117.78664,34.07435],[-117.78675,34.0742],[-117.78705,34.07373],[-117.78717,34.0735],[-117.78737,34.0731],[-117.78747,34.07289],[-117.78757,34.07271],[-117.78719,34.07274],[-117.78688,34.07276],[-117.78621,34.07278],[-117.78585,34.07279],[-117.78477,34.0728],[-117.78462,34.0728],[-117.78369,34.0728],[-117.78289,34.0728],[-117.78172,34.0728],[-117.77914,34.07281],[-117.77847,34.07279],[-117.77837,34.07279],[-117.77812,34.07279],[-117.77773,34.07277],[-117.7773,34.07276],[-117.77702,34.07274],[-117.77677,34.07273],[-117.7761,34.07267],[-117.77556,34.07262],[-117.77514,34.07258],[-117.775,34.07256],[-117.77468,34.07253],[-117.77422,34.07247],[-117.77347,34.07237],[-117.77252,34.07221],[-117.77188,34.0721],[-117.77066,34.0719],[-117.76927,34.07167],[-117.76813,34.07148],[-117.76653,34.07123],[-117.76621,34.07118],[-117.7643,34.07088],[-117.76398,34.07086],[-117.76363,34.07084],[-117.76325,34.07081],[-117.76282,34.07078],[-117.76245,34.07077],[-117.7622,34.07077],[-117.76208,34.07077],[-117.7618,34.07078],[-117.76161,34.0708],[-117.76142,34.07082],[-117.76088,34.07087],[-117.76056,34.07091],[-117.76037,34.07094],[-117.76001,34.07099],[-117.75991,34.07101],[-117.75959,34.07108],[-117.75943,34.07111],[-117.75935,34.07113],[-117.75873,34.07129],[-117.75791,34.07155],[-117.75758,34.07166],[-117.7573,34.07175],[-117.75682,34.07193],[-117.75647,34.07205],[-117.75566,34.07237],[-117.75505,34.07262],[-117.75493,34.07267],[-117.75409,34.07302],[-117.75264,34.07361],[-117.75221,34.07378],[-117.75106,34.07425],[-117.7502,34.07461],[-117.75001,34.07469],[-117.74952,34.07489],[-117.74721,34.07583],[-117.74625,34.07623],[-117.7448,34.07682],[-117.74299,34.07756],[-117.74259,34.07773],[-117.74204,34.07796],[-117.74187,34.07802],[-117.74157,34.07815],[-117.74106,34.07835],[-117.73919,34.07912],[-117.73809,34.07957],[-117.73806,34.07958],[-117.73679,34.0801],[-117.73671,34.08013],[-117.73651,34.08021],[-117.73614,34.08037],[-117.73569,34.08054],[-117.73554,34.0806],[-117.73528,34.08072],[-117.7352,34.08075],[-117.73493,34.08085],[-117.73472,34.08092],[-117.7345,34.08099],[-117.73419,34.08107],[-117.73416,34.08108],[-117.73383,34.08117],[-117.73362,34.08122],[-117.73339,34.08127],[-117.73317,34.08131],[-117.73296,34.08134],[-117.73274,34.08137],[-117.7325,34.08139],[-117.73183,34.08146],[-117.73172,34.08147],[-117.7317,34.08147],[-117.72928,34.0815],[-117.72799,34.08153]]]},"properties":{"DIV_CITY":6}}
]}