{"type":"FeatureCollection", "features": [
{"type":"Feature","geometry":{"type":"Polygon","coordinates":[[[-118.30915,33.85978],[-118.30915,33.85997],[-118.30914,33.86022],[-118.30914,33.86091],[-118.30913,33.86146],[-118.30913,33.86197],[-118.30913,33.86199],[-118.30914,33.86325],[-118.30915,33.86481],[-118.30915,33.86498],[-118.30915,33.86563],[-118.30917,33.86744],[-118.30917,33.86746],[-118.30917,33.86748],[-118.30916,33.86922],[-118.30916,33.86925],[-118.30916,33.86968],[-118.30917,33.87021],[-118.30917,33.87042],[-118.30917,33.87062],[-118.30917,33.87105],[-118.30917,33.87137],[-118.30918,33.87287],[-118.31115,33.87288],[-118.31142,33.87288],[-118.31163,33.87288],[-118.3117,33.87288],[-118.31267,33.87288],[-118.31348,33.87288],[-118.31349,33.87371],[-118.3135,33.87444],[-118.3135,33.87499],[-118.3135,33.87505],[-118.31349,33.87674],[-118.31349,33.87676],[-118.31349,33.87696],[-118.31349,33.87719],[-118.31349,33.8774],[-118.31348,33.87835],[-118.31347,33.88014],[-118.31347,33.88016],[-118.31348,33.88196],[-118.31348,33.88378],[-118.31348,33.88527],[-118.31349,33.88713],[-118.31401,33.88697],[-118.3141,33.88694],[-118.31713,33.88596],[-118.31784,33.88573],[-118.31963,33.88515],[-118.32035,33.88492],[-118.32093,33.88473],[-118.32108,33.88468],[-118.32301,33.88406],[-118.32333,33.88395],[-118.32388,33.88378],[-118.32425,33.88366],[-118.32461,33.88354],[-118.32465,33.88353],[-118.32508,33.88339],[-118.32549,33.88326],[-118.32614,33.88305],[-118.32652,33.88292],[-118.32727,33.88267],[-118.3282,33.88235],[-118.32861,33.88221],[-118.32883,33.88214],[-118.32896,33.88209],[-118.32924,33.882],[-118.32945,33.88193],[-118.32998,33.88179],[-118.3309,33.8815],[-118.33107,33.88146],[-118.33112,33.88144],[-118.33129,33.88139],[-118.33143,33.88135],[-118.33173,33.88125],[-118.33218,33.8811],[-118.33259,33.88096],[-118.33335,33.88071],[-118.33337,33.88071],[-118.33425,33.88042],[-118.33516,33.88012],[-118.33592,33.87988],[-118.33661,33.87966],[-118.33703,33.87952],[-118.3374,33.8794],[-118.33956,33.87868],[-118.34134,33.87812],[-118.34383,33.87732],[-118.34388,33.87731],[-118.34462,33.87706],[-118.34499,33.87694],[-118.34522,33.87688],[-118.3457,33.87671],[-118.34574,33.8767],[-118.34885,33.87569],[-118.3499,33.87536],[-118.35102,33.87499],[-118.35139,33.87487],[-118.35156,33.87482],[-118.35172,33.87477],[-118.3518,33.87473],[-118.35185,33.87471],[-118.35201,33.87464],[-118.35238,33.87445],[-118.35243,33.87442],[-118.35271,33.87424],[-118.3527,33.87328],[-118.3527,33.87284],[-118.3527,33.87222],[-118.35271,33.87107],[-118.3527,33.87092],[-118.3527,33.87071],[-118.3527,33.87067],[-118.35269,33.8705],[-118.35268,33.87036],[-118.35267,33.87024],[-118.35267,33.87019],[-118.35266,33.87015],[-118.35259,33.86998],[-118.35259,33.86997],[-118.35251,33.86995],[-118.35231,33.86995],[-118.35231,33.87066],[-118.35231,33.87067],[-118.3523,33.87067],[-118.34817,33.87067],[-118.34816,33.87066],[-118.34383,33.87067],[-118.34383,33.87064],[-118.34382,33.86998],[-118.34382,33.86989],[-118.34382,33.86901],[-118.34382,33.86875],[-118.34382,33.86835],[-118.34382,33.86832],[-118.34382,33.86806],[-118.34382,33.86766],[-118.34382,33.86763],[-118.34382,33.86755],[-118.34382,33.86714],[-118.34381,33.86681],[-118.34381,33.86621],[-118.34381,33.86558],[-118.34381,33.86464],[-118.34382,33.86411],[-118.34381,33.86397],[-118.34382,33.86334],[-118.34382,33.8633],[-118.34382,33.86329],[-118.34383,33.86263],[-118.34384,33.86209],[-118.34384,33.86196],[-118.34385,33.86194],[-118.34388,33.86155],[-118.34388,33.86145],[-118.34388,33.86134],[-118.34387,33.86096],[-118.34155,33.86096],[-118.34078,33.86096],[-118.34077,33.86096],[-118.34072,33.86096],[-118.34008,33.86096],[-118.33988,33.86096],[-118.33933,33.86096],[-118.33906,33.86096],[-118.33898,33.86096],[-118.33895,33.86096],[-118.33889,33.86096],[-118.33888,33.86096],[-118.33841,33.86097],[-118.33787,33.86097],[-118.33778,33.86097],[-118.33727,33.86097],[-118.33707,33.86097],[-118.33688,33.86097],[-118.33687,33.86097],[-118.33601,33.86097],[-118.33573,33.86097],[-118.33539,33.86097],[-118.33513,33.86097],[-118.33513,33.86099],[-118.33513,33.86132],[-118.33513,33.86147],[-118.33514,33.86193],[-118.33514,33.86195],[-118.33515,33.86231],[-118.33516,33.86557],[-118.33514,33.86558],[-118.33356,33.86558],[-118.33355,33.86558],[-118.33355,33.8656],[-118.33335,33.8656],[-118.33271,33.8656],[-118.33247,33.8656],[-118.33245,33.8656],[-118.33232,33.86561],[-118.3322,33.86562],[-118.33199,33.86565],[-118.33185,33.86568],[-118.33178,33.8657],[-118.33174,33.86572],[-118.33168,33.86574],[-118.33164,33.86576],[-118.33147,33.86585],[-118.33132,33.86593],[-118.33101,33.86585],[-118.33048,33.86569],[-118.33016,33.86559],[-118.32917,33.86529],[-118.32862,33.86512],[-118.32691,33.8646],[-118.32685,33.86458],[-118.32678,33.86456],[-118.32648,33.86447],[-118.32621,33.86438],[-118.32395,33.86372],[-118.32215,33.86318],[-118.32139,33.86295],[-118.32131,33.86293],[-118.31939,33.86234],[-118.31806,33.86195],[-118.31782,33.86188],[-118.3176,33.86182],[-118.31542,33.86115],[-118.31428,33.8608],[-118.31356,33.86058],[-118.31334,33.86051],[-118.31296,33.8604],[-118.31265,33.86031],[-118.31243,33.86026],[-118.31208,33.86018],[-118.31174,33.86011],[-118.31141,33.86005],[-118.31116,33.86001],[-118.31087,33.85996],[-118.31003,33.85985],[-118.30955,33.85982],[-118.30947,33.85981],[-118.30915,33.85978]]]},"properties":{"DIV_CITY":1}},
{"type":"Feature","geometry":{"type":"Polygon","coordinates":[[[-118.35358,33.85823],[-118.35377,33.85826],[-118.35381,33.85826],[-118.35385,33.85827],[-118.35402,33.85828],[-118.35421,33.85829],[-118.35465,33.8583],[-118.35546,33.8583],[-118.3556,33.8583],[-118.3558,33.8583],[-118.35665,33.8583],[-118.35764,33.85829],[-118.35791,33.85829],[-118.36001,33.85831],[-118.3614,33.8583],[-118.36277,33.85829],[-118.36414,33.85829],[-118.3649,33.85829],[-118.36546,33.85829],[-118.36619,33.85829],[-118.36718,33.85828],[-118.3677,33.85828],[-118.36772,33.85828],[-118.36874,33.85828],[-118.36988,33.85828],[-118.37174,33.85831],[-118.37283,33.8583],[-118.3739,33.85828],[-118.37482,33.85827],[-118.37483,33.85827],[-118.37502,33.85827],[-118.37557,33.85827],[-118.37525,33.85673],[-118.37513,33.85612],[-118.37514,33.8561],[-118.37516,33.85609],[-118.37519,33.85605],[-118.37522,33.85602],[-118.3753,33.85595],[-118.37535,33.85592],[-118.37538,33.8559],[-118.37539,33.85589],[-118.37543,33.85587],[-118.3755,33.85583],[-118.37555,33.85581],[-118.37563,33.85578],[-118.3759,33.85567],[-118.37599,33.85564],[-118.37802,33.85505],[-118.37824,33.85499],[-118.37796,33.8538],[-118.37796,33.85378],[-118.37794,33.8537],[-118.37791,33.85354],[-118.3779,33.85344],[-118.3779,33.8534],[-118.3779,33.85328],[-118.37791,33.85316],[-118.37793,33.85296],[-118.37795,33.85287],[-118.37795,33.85286],[-118.37793,33.85275],[-118.37791,33.85267],[-118.37788,33.85254],[-118.37786,33.8524],[-118.37785,33.85238],[-118.37783,33.85227],[-118.3778,33.85213],[-118.37778,33.852],[-118.37777,33.85195],[-118.37775,33.85186],[-118.37773,33.85179],[-118.37772,33.85173],[-118.37772,33.8517],[-118.3777,33.85159],[-118.37769,33.85156],[-118.37767,33.85145],[-118.37766,33.85144],[-118.37764,33.85132],[-118.37764,33.85131],[-118.37761,33.85118],[-118.37759,33.85107],[-118.37759,33.85105],[-118.37757,33.85095],[-118.37756,33.85091],[-118.37754,33.85083],[-118.37753,33.85078],[-118.37752,33.85071],[-118.37751,33.85064],[-118.3775,33.8506],[-118.37748,33.85051],[-118.37748,33.85049],[-118.37745,33.85037],[-118.37743,33.85027],[-118.37743,33.85023],[-118.37741,33.85016],[-118.3774,33.8501],[-118.37739,33.85005],[-118.37737,33.84996],[-118.37737,33.84994],[-118.37735,33.84983],[-118.37733,33.84973],[-118.37732,33.84969],[-118.3773,33.84962],[-118.37729,33.84956],[-118.37728,33.84951],[-118.37726,33.84942],[-118.37726,33.8494],[-118.37724,33.84929],[-118.37722,33.84918],[-118.37721,33.84915],[-118.3772,33.84908],[-118.37717,33.84897],[-118.37715,33.84887],[-118.37713,33.84876],[-118.37712,33.84867],[-118.37709,33.84852],[-118.37701,33.84815],[-118.37695,33.84784],[-118.37687,33.84741],[-118.37683,33.84722],[-118.37669,33.84654],[-118.37658,33.84597],[-118.37657,33.84591],[-118.37655,33.84582],[-118.37653,33.84572],[-118.37652,33.84564],[-118.37651,33.8456],[-118.37649,33.84549],[-118.37648,33.84546],[-118.37646,33.84538],[-118.37645,33.8453],[-118.37644,33.84527],[-118.37642,33.84516],[-118.3764,33.84505],[-118.37639,33.84501],[-118.37638,33.84494],[-118.37635,33.84483],[-118.37635,33.84479],[-118.37633,33.84471],[-118.37631,33.8446],[-118.37623,33.84421],[-118.37622,33.84417],[-118.37616,33.84387],[-118.37614,33.84376],[-118.37613,33.84369],[-118.37612,33.84365],[-118.3761,33.84355],[-118.37609,33.8435],[-118.37608,33.84344],[-118.37606,33.84333],[-118.37604,33.84322],[-118.37601,33.84311],[-118.376,33.84307],[-118.37599,33.843],[-118.37597,33.84292],[-118.37597,33.8429],[-118.37595,33.84279],[-118.37593,33.84269],[-118.37591,33.84257],[-118.37588,33.84246],[-118.37588,33.84243],[-118.37586,33.84235],[-118.37585,33.84228],[-118.37582,33.84213],[-118.37582,33.84212],[-118.3758,33.84202],[-118.37578,33.84196],[-118.37575,33.84181],[-118.37575,33.84179],[-118.37572,33.84163],[-118.37571,33.84159],[-118.37569,33.84146],[-118.37567,33.84137],[-118.37565,33.8413],[-118.37565,33.84126],[-118.37562,33.84115],[-118.3756,33.84105],[-118.37559,33.841],[-118.37558,33.84093],[-118.37556,33.84085],[-118.37556,33.84083],[-118.37554,33.84072],[-118.37553,33.84071],[-118.37551,33.84061],[-118.3755,33.84056],[-118.37549,33.8405],[-118.37547,33.84039],[-118.37545,33.84028],[-118.37544,33.84022],[-118.37541,33.84007],[-118.3754,33.84002],[-118.37539,33.83996],[-118.37537,33.83986],[-118.37536,33.83985],[-118.37533,33.83968],[-118.3753,33.83953],[-118.3753,33.83951],[-118.3752,33.83903],[-118.37517,33.83885],[-118.37514,33.8387],[-118.37514,33.83868],[-118.37509,33.83844],[-118.375,33.83801],[-118.37492,33.8376],[-118.37492,33.83758],[-118.37485,33.83726],[-118.37484,33.8372],[-118.37484,33.83719],[-118.37482,33.8371],[-118.37476,33.83678],[-118.37475,33.83676],[-118.37473,33.83664],[-118.37472,33.83658],[-118.37468,33.83637],[-118.37465,33.83625],[-118.37465,33.83623],[-118.37462,33.83608],[-118.37459,33.83593],[-118.37456,33.83578],[-118.37453,33.83563],[-118.3745,33.83548],[-118.37447,33.83533],[-118.37444,33.83518],[-118.37441,33.83503],[-118.3744,33.83501],[-118.37438,33.83488],[-118.37437,33.83486],[-118.37435,33.83474],[-118.37434,33.83471],[-118.37432,33.83459],[-118.37431,33.83456],[-118.37429,33.83444],[-118.37429,33.83442],[-118.37426,33.83429],[-118.37426,33.83428],[-118.37423,33.83414],[-118.37421,33.83402],[-118.3742,33.83399],[-118.37417,33.83384],[-118.37414,33.8337],[-118.37414,33.83369],[-118.37411,33.83355],[-118.37411,33.83354],[-118.3741,33.8335],[-118.3741,33.83347],[-118.37408,33.83339],[-118.37405,33.83324],[-118.37402,33.83309],[-118.37402,33.83308],[-118.37399,33.83294],[-118.37399,33.83292],[-118.37396,33.83279],[-118.37395,33.83276],[-118.37393,33.83264],[-118.37392,33.8326],[-118.3739,33.83249],[-118.37389,33.83244],[-118.37387,33.83234],[-118.37385,33.83225],[-118.37384,33.83219],[-118.37382,33.83211],[-118.37381,33.83204],[-118.3738,33.83201],[-118.37378,33.83189],[-118.37375,33.83174],[-118.37368,33.83139],[-118.37344,33.8302],[-118.37345,33.8302],[-118.37336,33.82975],[-118.37312,33.82856],[-118.37294,33.82766],[-118.37293,33.82766],[-118.37278,33.8276],[-118.37261,33.82754],[-118.37243,33.82748],[-118.37229,33.82743],[-118.37207,33.82737],[-118.37189,33.82732],[-118.37179,33.8273],[-118.37156,33.82725],[-118.37136,33.82721],[-118.37115,33.82718],[-118.37113,33.82717],[-118.37093,33.82715],[-118.37073,33.82713],[-118.3701,33.82707],[-118.36975,33.82704],[-118.36927,33.82701],[-118.36898,33.82699],[-118.36734,33.82685],[-118.36603,33.82674],[-118.36549,33.8267],[-118.36386,33.82657],[-118.36385,33.82657],[-118.36229,33.82644],[-118.36156,33.82638],[-118.36076,33.82631],[-118.35985,33.82624],[-118.35921,33.82618],[-118.35893,33.82616],[-118.35811,33.82609],[-118.35769,33.82606],[-118.35646,33.82596],[-118.35624,33.82594],[-118.35559,33.82589],[-118.35463,33.82582],[-118.35421,33.82579],[-118.35357,33.82574],[-118.35252,33.82566],[-118.35147,33.82557],[-118.35149,33.82563],[-118.35159,33.82602],[-118.35169,33.82639],[-118.35175,33.8266],[-118.35175,33.82662],[-118.3518,33.82682],[-118.35186,33.82711],[-118.35192,33.8274],[-118.35199,33.82784],[-118.35201,33.82792],[-118.3521,33.82845],[-118.35214,33.82864],[-118.35233,33.82977],[-118.35233,33.82983],[-118.3524,33.83017],[-118.35239,33.8302],[-118.35257,33.83133],[-118.3526,33.8315],[-118.35263,33.8317],[-118.35277,33.83248],[-118.35286,33.83298],[-118.35292,33.83333],[-118.353,33.83381],[-118.35321,33.83515],[-118.35323,33.83524],[-118.35336,33.83605],[-118.35346,33.83661],[-118.35353,33.837],[-118.35359,33.83733],[-118.35363,33.83752],[-118.35364,33.83759],[-118.35365,33.83767],[-118.35366,33.83782],[-118.35366,33.83786],[-118.3537,33.83819],[-118.35373,33.83852],[-118.35374,33.83887],[-118.35375,33.83915],[-118.35375,33.83944],[-118.35375,33.83952],[-118.35375,33.84067],[-118.35375,33.84136],[-118.35375,33.84227],[-118.35375,33.84283],[-118.35375,33.84319],[-118.35375,33.84325],[-118.35375,33.84385],[-118.35374,33.84456],[-118.35374,33.84501],[-118.35374,33.84504],[-118.35374,33.84627],[-118.35374,33.84852],[-118.35374,33.8486],[-118.35375,33.85077],[-118.35375,33.85147],[-118.35375,33.85149],[-118.35375,33.8522],[-118.35375,33.85292],[-118.35375,33.85361],[-118.35375,33.85501],[-118.35375,33.8566],[-118.35375,33.85672],[-118.35375,33.85709],[-118.35375,33.85716],[-118.35376,33.85731],[-118.35376,33.85743],[-118.35376,33.85748],[-118.35376,33.85758],[-118.35375,33.85766],[-118.35372,33.85781],[-118.35369,33.85793],[-118.35365,33.85805],[-118.3536,33.85819],[-118.35358,33.85823]]]},"properties":{"DIV_CITY":2}},
{"type":"Feature","geometry":{"type":"Polygon","coordinates":[[[-118.34078,33.86096],[-118.34155,33.86096],[-118.34387,33.86096],[-118.34388,33.86134],[-118.34388,33.86145],[-118.34388,33.86155],[-118.34385,33.86194],[-118.34384,33.86196],[-118.34384,33.86209],[-118.34383,33.86263],[-118.34382,33.86329],[-118.34382,33.8633],[-118.34382,33.86334],[-118.34381,33.86397],[-118.34382,33.86411],[-118.34381,33.86464],[-118.34381,33.86558],[-118.34381,33.86621],[-118.34381,33.86681],[-118.34382,33.86714],[-118.34382,33.86755],[-118.34382,33.86763],[-118.34382,33.86766],[-118.34382,33.86806],[-118.34382,33.86832],[-118.34382,33.86835],[-118.34382,33.86875],[-118.34382,33.86901],[-118.34382,33.86989],[-118.34382,33.86998],[-118.34383,33.87064],[-118.34383,33.87067],[-118.34816,33.87066],[-118.34817,33.87067],[-118.3523,33.87067],[-118.35231,33.87067],[-118.35231,33.87066],[-118.35231,33.86995],[-118.35251,33.86995],[-118.35259,33.86997],[-118.3526,33.86878],[-118.3526,33.86838],[-118.35261,33.8681],[-118.35261,33.86738],[-118.35261,33.86671],[-118.35261,33.86662],[-118.35261,33.86652],[-118.35261,33.86646],[-118.3526,33.86556],[-118.3528,33.86555],[-118.35333,33.86555],[-118.35343,33.86555],[-118.3542,33.86555],[-118.35438,33.86555],[-118.35484,33.86555],[-118.35524,33.86555],[-118.35556,33.86555],[-118.35634,33.86556],[-118.35659,33.86556],[-118.35685,33.86556],[-118.35814,33.86556],[-118.35886,33.86556],[-118.35886,33.86543],[-118.35887,33.86509],[-118.35887,33.86487],[-118.35886,33.86474],[-118.35885,33.86461],[-118.35882,33.86436],[-118.35879,33.86414],[-118.35877,33.86405],[-118.35874,33.86395],[-118.3587,33.86382],[-118.35865,33.86368],[-118.35861,33.86359],[-118.35854,33.86345],[-118.35846,33.86331],[-118.35834,33.8631],[-118.35827,33.86299],[-118.35813,33.86279],[-118.35803,33.86266],[-118.35797,33.86259],[-118.35782,33.86243],[-118.35772,33.86233],[-118.35766,33.86227],[-118.35751,33.86215],[-118.35723,33.86193],[-118.35712,33.86184],[-118.35684,33.86162],[-118.35546,33.86057],[-118.35378,33.85932],[-118.35334,33.85898],[-118.35326,33.85892],[-118.35318,33.85886],[-118.35321,33.85881],[-118.35325,33.85876],[-118.35336,33.8586],[-118.35346,33.85846],[-118.3535,33.85838],[-118.35357,33.85826],[-118.35358,33.85823],[-118.3536,33.85819],[-118.35365,33.85805],[-118.35369,33.85793],[-118.35372,33.85781],[-118.35375,33.85766],[-118.35376,33.85758],[-118.35376,33.85748],[-118.35376,33.85743],[-118.35376,33.85731],[-118.35375,33.85716],[-118.35375,33.85709],[-118.35375,33.85672],[-118.35375,33.8566],[-118.35375,33.85501],[-118.35375,33.85361],[-118.35375,33.85292],[-118.35375,33.8522],[-118.35375,33.85149],[-118.35375,33.85147],[-118.35375,33.85077],[-118.35374,33.8486],[-118.35374,33.84852],[-118.35374,33.84627],[-118.35374,33.84504],[-118.35374,33.84501],[-118.35374,33.84456],[-118.35375,33.84385],[-118.35375,33.84325],[-118.35375,33.84319],[-118.35375,33.84283],[-118.35375,33.84227],[-118.35375,33.84136],[-118.35375,33.84067],[-118.35375,33.83952],[-118.35375,33.83944],[-118.35375,33.83915],[-118.35374,33.83887],[-118.35373,33.83852],[-118.3537,33.83819],[-118.35366,33.83786],[-118.35366,33.83782],[-118.35365,33.83767],[-118.35364,33.83759],[-118.35363,33.83752],[-118.35359,33.83733],[-118.35353,33.837],[-118.35346,33.83661],[-118.35336,33.83605],[-118.35323,33.83524],[-118.35321,33.83515],[-118.353,33.83381],[-118.35292,33.83333],[-118.35286,33.83298],[-118.35277,33.83248],[-118.35263,33.8317],[-118.3526,33.8315],[-118.35257,33.83133],[-118.35239,33.8302],[-118.3524,33.83017],[-118.35233,33.82983],[-118.35233,33.82977],[-118.35214,33.82864],[-118.3521,33.82845],[-118.35201,33.82792],[-118.35199,33.82784],[-118.35192,33.8274],[-118.35186,33.82711],[-118.3518,33.82682],[-118.35175,33.82662],[-118.35175,33.8266],[-118.35169,33.82639],[-118.35159,33.82602],[-118.35149,33.82563],[-118.35147,33.82557],[-118.35119,33.82555],[-118.35022,33.82547],[-118.34898,33.82536],[-118.34883,33.82535],[-118.34854,33.82533],[-118.3477,33.82526],[-118.34694,33.8252],[-118.34502,33.82504],[-118.34494,33.82504],[-118.34485,33.82503],[-118.34471,33.82502],[-118.3441,33.82496],[-118.34364,33.82492],[-118.34356,33.82492],[-118.34344,33.8249],[-118.34312,33.82484],[-118.34205,33.82463],[-118.33982,33.82418],[-118.3398,33.82427],[-118.33979,33.82434],[-118.33977,33.82449],[-118.33978,33.82461],[-118.33979,33.82479],[-118.33979,33.82482],[-118.33981,33.82504],[-118.33983,33.82517],[-118.33988,33.82545],[-118.33989,33.8255],[-118.3399,33.82554],[-118.3399,33.82562],[-118.33991,33.82579],[-118.33992,33.82586],[-118.33992,33.8261],[-118.33992,33.82645],[-118.33993,33.8272],[-118.33995,33.82938],[-118.33932,33.82939],[-118.33812,33.8294],[-118.33774,33.8294],[-118.3372,33.82941],[-118.33692,33.82941],[-118.33575,33.82942],[-118.3348,33.82942],[-118.33456,33.82942],[-118.33336,33.82943],[-118.33268,33.82944],[-118.33218,33.82944],[-118.33098,33.82945],[-118.33039,33.82945],[-118.33032,33.82945],[-118.32982,33.82946],[-118.32869,33.82947],[-118.3286,33.82947],[-118.32861,33.83132],[-118.32861,33.83176],[-118.32861,33.83185],[-118.32863,33.83288],[-118.32863,33.83333],[-118.32865,33.83442],[-118.32866,33.83494],[-118.32868,33.83586],[-118.32869,33.83635],[-118.3287,33.83693],[-118.32871,33.83747],[-118.32872,33.83789],[-118.32874,33.8387],[-118.32874,33.83935],[-118.32874,33.83952],[-118.32875,33.84047],[-118.32875,33.84095],[-118.32875,33.84295],[-118.32875,33.84323],[-118.32876,33.84375],[-118.32876,33.84393],[-118.32878,33.84571],[-118.32879,33.84691],[-118.32879,33.84693],[-118.32879,33.84707],[-118.32879,33.84735],[-118.32879,33.84736],[-118.3288,33.85102],[-118.32883,33.85606],[-118.32883,33.85642],[-118.32883,33.85657],[-118.32883,33.85668],[-118.32882,33.85675],[-118.3288,33.85681],[-118.32879,33.85688],[-118.32875,33.85699],[-118.32865,33.85726],[-118.32848,33.85765],[-118.32837,33.85779],[-118.32801,33.85833],[-118.32731,33.85833],[-118.32647,33.85834],[-118.32422,33.85835],[-118.32197,33.85836],[-118.32041,33.85837],[-118.31958,33.85838],[-118.3194,33.85838],[-118.31779,33.85837],[-118.31689,33.85836],[-118.31658,33.85836],[-118.31607,33.85836],[-118.31553,33.85836],[-118.31443,33.85836],[-118.31402,33.85836],[-118.31336,33.85836],[-118.31163,33.85836],[-118.31156,33.85836],[-118.31144,33.85836],[-118.31107,33.85836],[-118.31065,33.85836],[-118.3093,33.85835],[-118.30927,33.85845],[-118.30924,33.85855],[-118.30921,33.85865],[-118.30921,33.85869],[-118.30918,33.85887],[-118.30917,33.85902],[-118.30916,33.85915],[-118.30916,33.85928],[-118.30916,33.85939],[-118.30915,33.85978],[-118.30947,33.85981],[-118.30955,33.85982],[-118.31003,33.85985],[-118.31087,33.85996],[-118.31116,33.86001],[-118.31141,33.86005],[-118.31174,33.86011],[-118.31208,33.86018],[-118.31243,33.86026],[-118.31265,33.86031],[-118.31296,33.8604],[-118.31334,33.86051],[-118.31356,33.86058],[-118.31428,33.8608],[-118.31542,33.86115],[-118.3176,33.86182],[-118.31782,33.86188],[-118.31806,33.86195],[-118.31939,33.86234],[-118.32131,33.86293],[-118.32139,33.86295],[-118.32215,33.86318],[-118.32395,33.86372],[-118.32621,33.86438],[-118.32648,33.86447],[-118.32678,33.86456],[-118.32685,33.86458],[-118.32691,33.8646],[-118.32862,33.86512],[-118.32917,33.86529],[-118.33016,33.86559],[-118.33048,33.86569],[-118.33101,33.86585],[-118.33132,33.86593],[-118.33147,33.86585],[-118.33164,33.86576],[-118.33168,33.86574],[-118.33174,33.86572],[-118.33178,33.8657],[-118.33185,33.86568],[-118.33199,33.86565],[-118.3322,33.86562],[-118.33232,33.86561],[-118.33245,33.8656],[-118.33247,33.8656],[-118.33271,33.8656],[-118.33335,33.8656],[-118.33355,33.8656],[-118.33355,33.86558],[-118.33356,33.86558],[-118.33514,33.86558],[-118.33516,33.86557],[-118.33515,33.86231],[-118.33514,33.86195],[-118.33514,33.86193],[-118.33513,33.86147],[-118.33513,33.86132],[-118.33513,33.86099],[-118.33513,33.86097],[-118.33539,33.86097],[-118.33573,33.86097],[-118.33601,33.86097],[-118.33687,33.86097],[-118.33688,33.86097],[-118.33707,33.86097],[-118.33727,33.86097],[-118.33778,33.86097],[-118.33787,33.86097],[-118.33841,33.86097],[-118.33888,33.86096],[-118.33889,33.86096],[-118.33895,33.86096],[-118.33898,33.86096],[-118.33906,33.86096],[-118.33933,33.86096],[-118.33988,33.86096],[-118.34008,33.86096],[-118.34072,33.86096],[-118.34078,33.86096]]]},"properties":{"DIV_CITY":3}},
{"type":"Feature","geometry":{"type":"Polygon","coordinates":[[[-118.3093,33.85835],[-118.31065,33.85836],[-118.31107,33.85836],[-118.31144,33.85836],[-118.31156,33.85836],[-118.31163,33.85836],[-118.31336,33.85836],[-118.31402,33.85836],[-118.31443,33.85836],[-118.31553,33.85836],[-118.31607,33.85836],[-118.31658,33.85836],[-118.31689,33.85836],[-118.31779,33.85837],[-118.3194,33.85838],[-118.31958,33.85838],[-118.32041,33.85837],[-118.32197,33.85836],[-118.32422,33.85835],[-118.32647,33.85834],[-118.32731,33.85833],[-118.32801,33.85833],[-118.32837,33.85779],[-118.32848,33.85765],[-118.32865,33.85726],[-118.32875,33.85699],[-118.32879,33.85688],[-118.3288,33.85681],[-118.32882,33.85675],[-118.32883,33.85668],[-118.32883,33.85657],[-118.32883,33.85642],[-118.32883,33.85606],[-118.3288,33.85102],[-118.32879,33.84736],[-118.32879,33.84735],[-118.32879,33.84707],[-118.32879,33.84693],[-118.32879,33.84691],[-118.32878,33.84571],[-118.32876,33.84393],[-118.32876,33.84375],[-118.32875,33.84323],[-118.32875,33.84295],[-118.32875,33.84095],[-118.32875,33.84047],[-118.32874,33.83952],[-118.32874,33.83935],[-118.32874,33.8387],[-118.32872,33.83789],[-118.32871,33.83747],[-118.3287,33.83693],[-118.32869,33.83635],[-118.32868,33.83586],[-118.32866,33.83494],[-118.32865,33.83442],[-118.32863,33.83333],[-118.32863,33.83288],[-118.32861,33.83185],[-118.32861,33.83176],[-118.32861,33.83132],[-118.3286,33.82947],[-118.32859,33.82855],[-118.32859,33.82813],[-118.32858,33.82762],[-118.32858,33.82728],[-118.32858,33.82712],[-118.32856,33.8257],[-118.32855,33.82495],[-118.32854,33.82414],[-118.32853,33.82391],[-118.32852,33.82306],[-118.32851,33.8221],[-118.3285,33.82189],[-118.32849,33.82159],[-118.32848,33.82145],[-118.32846,33.8213],[-118.32843,33.82113],[-118.3284,33.82101],[-118.32839,33.82097],[-118.32837,33.82091],[-118.32834,33.82082],[-118.32828,33.82068],[-118.32827,33.82066],[-118.32819,33.82045],[-118.32813,33.82029],[-118.32813,33.82027],[-118.32811,33.8202],[-118.3281,33.82015],[-118.32808,33.82003],[-118.32805,33.81981],[-118.32805,33.81966],[-118.32805,33.81959],[-118.32806,33.8193],[-118.32806,33.81857],[-118.32806,33.81783],[-118.32806,33.81735],[-118.32806,33.81717],[-118.32806,33.81712],[-118.32806,33.81691],[-118.32806,33.81638],[-118.32808,33.81568],[-118.32807,33.81518],[-118.32807,33.81494],[-118.32807,33.81423],[-118.32807,33.81367],[-118.32807,33.81351],[-118.32807,33.8128],[-118.32808,33.81197],[-118.32809,33.81157],[-118.32809,33.8114],[-118.32809,33.81135],[-118.32809,33.81133],[-118.32809,33.81094],[-118.32809,33.81085],[-118.32808,33.8107],[-118.32807,33.81059],[-118.32806,33.81046],[-118.32804,33.80987],[-118.32803,33.80973],[-118.32801,33.80933],[-118.328,33.80917],[-118.32797,33.80877],[-118.32796,33.80865],[-118.32796,33.80846],[-118.32795,33.80832],[-118.32796,33.80818],[-118.32796,33.80771],[-118.32796,33.80751],[-118.32796,33.80705],[-118.32796,33.80694],[-118.3278,33.80694],[-118.32537,33.80694],[-118.32529,33.80694],[-118.31995,33.80694],[-118.31995,33.80696],[-118.31995,33.80766],[-118.31981,33.80766],[-118.31892,33.80766],[-118.31777,33.80766],[-118.31761,33.80766],[-118.31722,33.80766],[-118.31668,33.80766],[-118.31574,33.80766],[-118.31461,33.80766],[-118.3145,33.80766],[-118.31365,33.80766],[-118.31346,33.80765],[-118.31287,33.80765],[-118.31175,33.80765],[-118.31175,33.80759],[-118.31175,33.80716],[-118.31175,33.80695],[-118.31176,33.80629],[-118.31176,33.8056],[-118.31176,33.80494],[-118.31177,33.80451],[-118.31177,33.8037],[-118.31177,33.80334],[-118.31177,33.80313],[-118.31176,33.80267],[-118.31176,33.80257],[-118.31177,33.80246],[-118.31176,33.80228],[-118.31177,33.80223],[-118.31139,33.80223],[-118.31109,33.80223],[-118.31047,33.80223],[-118.3103,33.80223],[-118.31014,33.80222],[-118.30988,33.80222],[-118.30981,33.80222],[-118.30965,33.80222],[-118.30932,33.80222],[-118.30881,33.80222],[-118.30881,33.8023],[-118.30881,33.80334],[-118.30882,33.8041],[-118.30883,33.80573],[-118.30885,33.80643],[-118.30884,33.80653],[-118.30886,33.80701],[-118.30887,33.80706],[-118.30887,33.80712],[-118.30894,33.80747],[-118.30895,33.80752],[-118.30897,33.8076],[-118.30899,33.80767],[-118.30903,33.80777],[-118.30906,33.80785],[-118.30915,33.80808],[-118.30919,33.80819],[-118.30927,33.80846],[-118.30925,33.80854],[-118.30927,33.80863],[-118.30931,33.80881],[-118.30912,33.80884],[-118.30894,33.80887],[-118.30893,33.80888],[-118.30873,33.80892],[-118.30853,33.80896],[-118.30837,33.809],[-118.30823,33.80903],[-118.3083,33.80924],[-118.30831,33.80928],[-118.30837,33.80946],[-118.30842,33.80961],[-118.30847,33.80969],[-118.30847,33.80971],[-118.3085,33.80977],[-118.30853,33.80989],[-118.30855,33.80997],[-118.30858,33.81011],[-118.3086,33.81021],[-118.30861,33.8103],[-118.30865,33.81049],[-118.3087,33.81068],[-118.30874,33.81088],[-118.30874,33.81091],[-118.30876,33.81104],[-118.3088,33.81129],[-118.30884,33.81169],[-118.30887,33.81206],[-118.30889,33.81231],[-118.30889,33.81243],[-118.30889,33.81267],[-118.3089,33.81273],[-118.3089,33.81297],[-118.3089,33.81306],[-118.30889,33.81336],[-118.30889,33.81347],[-118.30889,33.8135],[-118.3089,33.81357],[-118.3089,33.81423],[-118.30891,33.81543],[-118.30891,33.8155],[-118.30891,33.81643],[-118.30891,33.8165],[-118.3089,33.81703],[-118.30889,33.81905],[-118.30892,33.82021],[-118.30892,33.82064],[-118.30893,33.82107],[-118.30893,33.82116],[-118.30893,33.82136],[-118.30895,33.82267],[-118.30895,33.8228],[-118.30895,33.8229],[-118.30896,33.82334],[-118.30896,33.82404],[-118.30897,33.82446],[-118.30897,33.8245],[-118.30898,33.82564],[-118.30899,33.82681],[-118.309,33.82794],[-118.309,33.82827],[-118.30902,33.82912],[-118.30904,33.83026],[-118.30906,33.83148],[-118.30907,33.83232],[-118.30908,33.83251],[-118.30908,33.83333],[-118.30909,33.83349],[-118.30909,33.83448],[-118.3091,33.8351],[-118.3091,33.83548],[-118.3091,33.83552],[-118.3091,33.83563],[-118.3091,33.83564],[-118.30912,33.8358],[-118.30914,33.83608],[-118.30915,33.83615],[-118.30916,33.83645],[-118.30918,33.83692],[-118.30921,33.83743],[-118.30922,33.83768],[-118.30922,33.83808],[-118.30922,33.8382],[-118.30923,33.83833],[-118.30925,33.83864],[-118.30926,33.8389],[-118.30926,33.83894],[-118.30926,33.83931],[-118.30926,33.83952],[-118.30926,33.8403],[-118.30926,33.84044],[-118.30927,33.84087],[-118.30926,33.8409],[-118.30926,33.84188],[-118.30927,33.84241],[-118.30929,33.84287],[-118.30928,33.84382],[-118.30929,33.84398],[-118.30931,33.8447],[-118.30931,33.84475],[-118.30931,33.84567],[-118.30932,33.84623],[-118.30932,33.84684],[-118.30932,33.84685],[-118.30933,33.84737],[-118.30935,33.84955],[-118.30936,33.85019],[-118.30936,33.85025],[-118.30938,33.85199],[-118.30941,33.85418],[-118.30941,33.85421],[-118.30945,33.85712],[-118.30945,33.85732],[-118.30945,33.85742],[-118.30945,33.85761],[-118.30944,33.85776],[-118.30943,33.85783],[-118.30941,33.85797],[-118.30936,33.85817],[-118.3093,33.85835]]]},"properties":{"DIV_CITY":4}},
{"type":"Feature","geometry":{"type":"Polygon","coordinates":[[[-118.35421,33.82579],[-118.35463,33.82582],[-118.35559,33.82589],[-118.35624,33.82594],[-118.35646,33.82596],[-118.35769,33.82606],[-118.35811,33.82609],[-118.35893,33.82616],[-118.35921,33.82618],[-118.35985,33.82624],[-118.36076,33.82631],[-118.36156,33.82638],[-118.36229,33.82644],[-118.36385,33.82657],[-118.36386,33.82657],[-118.36549,33.8267],[-118.36603,33.82674],[-118.36734,33.82685],[-118.36898,33.82699],[-118.36927,33.82701],[-118.36975,33.82704],[-118.3701,33.82707],[-118.37073,33.82713],[-118.37093,33.82715],[-118.37113,33.82717],[-118.37115,33.82718],[-118.37136,33.82721],[-118.37156,33.82725],[-118.37179,33.8273],[-118.37189,33.82732],[-118.37207,33.82737],[-118.37229,33.82743],[-118.37243,33.82748],[-118.37261,33.82754],[-118.37278,33.8276],[-118.37293,33.82766],[-118.37294,33.82766],[-118.37288,33.82736],[-118.37287,33.82735],[-118.37286,33.82728],[-118.37289,33.82728],[-118.37307,33.8273],[-118.37324,33.82731],[-118.37325,33.82731],[-118.37341,33.82732],[-118.37345,33.82733],[-118.37358,33.82734],[-118.37366,33.82735],[-118.37375,33.82735],[-118.37393,33.82737],[-118.37397,33.82737],[-118.37401,33.82737],[-118.37403,33.82737],[-118.37411,33.82738],[-118.3743,33.8274],[-118.37433,33.8274],[-118.37443,33.82741],[-118.37443,33.82708],[-118.37443,33.82697],[-118.37443,33.82679],[-118.37443,33.82662],[-118.37443,33.82644],[-118.37443,33.82635],[-118.37443,33.82627],[-118.37443,33.82611],[-118.37443,33.82596],[-118.37443,33.82591],[-118.37443,33.82586],[-118.37443,33.82582],[-118.37443,33.82575],[-118.37443,33.82568],[-118.37443,33.82554],[-118.37443,33.8254],[-118.37443,33.82531],[-118.37443,33.82526],[-118.37443,33.82512],[-118.37443,33.82498],[-118.37443,33.82488],[-118.37443,33.82484],[-118.37443,33.82483],[-118.37443,33.82471],[-118.37443,33.8247],[-118.37443,33.82456],[-118.37443,33.82442],[-118.37443,33.82427],[-118.37443,33.82412],[-118.37443,33.82396],[-118.37443,33.82384],[-118.37443,33.82379],[-118.37443,33.82367],[-118.37443,33.82361],[-118.37443,33.82344],[-118.37443,33.82326],[-118.37443,33.82323],[-118.37443,33.82308],[-118.37443,33.82303],[-118.37443,33.82291],[-118.37443,33.82271],[-118.37443,33.82248],[-118.37443,33.82234],[-118.37443,33.82219],[-118.37444,33.82176],[-118.37444,33.82172],[-118.37444,33.82166],[-118.37444,33.82159],[-118.37444,33.82142],[-118.37444,33.82134],[-118.37444,33.82116],[-118.37444,33.82113],[-118.37444,33.82098],[-118.37444,33.82072],[-118.37444,33.82064],[-118.37444,33.82055],[-118.37444,33.82053],[-118.37444,33.82012],[-118.37444,33.82007],[-118.37444,33.81961],[-118.37444,33.8191],[-118.37444,33.81908],[-118.37444,33.81803],[-118.37444,33.818],[-118.37444,33.81753],[-118.37444,33.81752],[-118.37444,33.8173],[-118.37444,33.8171],[-118.37444,33.81689],[-118.37444,33.81669],[-118.37444,33.81645],[-118.37444,33.8164],[-118.37444,33.81634],[-118.37444,33.81628],[-118.37444,33.8156],[-118.37447,33.81561],[-118.37473,33.81567],[-118.37475,33.81567],[-118.37494,33.81571],[-118.37502,33.81572],[-118.37542,33.81578],[-118.37563,33.81581],[-118.37572,33.81583],[-118.37594,33.81585],[-118.37686,33.81598],[-118.37696,33.81598],[-118.37853,33.81619],[-118.37881,33.81622],[-118.37892,33.81624],[-118.37903,33.81625],[-118.37921,33.81629],[-118.37948,33.81635],[-118.37967,33.81641],[-118.3798,33.81645],[-118.37994,33.81651],[-118.37996,33.81652],[-118.38005,33.81656],[-118.38023,33.81664],[-118.38036,33.81671],[-118.38055,33.81682],[-118.38085,33.817],[-118.38103,33.81712],[-118.38155,33.81746],[-118.38201,33.81776],[-118.38201,33.81777],[-118.38238,33.81801],[-118.38259,33.81813],[-118.38283,33.81827],[-118.38286,33.81829],[-118.38313,33.81843],[-118.38328,33.8185],[-118.38333,33.81852],[-118.38343,33.81857],[-118.38353,33.81861],[-118.38366,33.81867],[-118.38381,33.81873],[-118.38392,33.81877],[-118.38408,33.81883],[-118.385,33.81891],[-118.38539,33.81895],[-118.3854,33.81886],[-118.38542,33.81857],[-118.38542,33.81853],[-118.38544,33.81831],[-118.38547,33.81807],[-118.38548,33.818],[-118.38549,33.81796],[-118.38551,33.81792],[-118.38554,33.81789],[-118.38552,33.81788],[-118.3855,33.81787],[-118.38543,33.81782],[-118.38513,33.81763],[-118.38511,33.81762],[-118.38546,33.81721],[-118.38548,33.81719],[-118.38555,33.81713],[-118.38599,33.81669],[-118.38595,33.81666],[-118.38566,33.81646],[-118.3855,33.81634],[-118.38539,33.81627],[-118.38555,33.81612],[-118.38573,33.81594],[-118.38575,33.81592],[-118.38593,33.81574],[-118.38606,33.81562],[-118.38612,33.81555],[-118.38619,33.81547],[-118.38624,33.81542],[-118.38633,33.81529],[-118.38636,33.81523],[-118.38695,33.81484],[-118.38705,33.81479],[-118.38717,33.8148],[-118.3872,33.81481],[-118.38727,33.81479],[-118.38773,33.81469],[-118.38792,33.81464],[-118.38795,33.81472],[-118.38795,33.81474],[-118.38796,33.81476],[-118.38807,33.81491],[-118.38818,33.81505],[-118.38832,33.81523],[-118.38839,33.81517],[-118.38848,33.8151],[-118.38872,33.81515],[-118.38877,33.81517],[-118.38892,33.81501],[-118.38893,33.815],[-118.38922,33.81503],[-118.3898,33.8151],[-118.38997,33.81512],[-118.39042,33.81517],[-118.39043,33.81517],[-118.39062,33.81519],[-118.3908,33.8152],[-118.39087,33.8152],[-118.39108,33.81521],[-118.39118,33.81521],[-118.39172,33.81522],[-118.39172,33.8152],[-118.39177,33.81493],[-118.39182,33.81474],[-118.39191,33.81443],[-118.39201,33.81406],[-118.39207,33.81384],[-118.39213,33.81357],[-118.39225,33.81307],[-118.3923,33.81284],[-118.39232,33.81266],[-118.39237,33.81232],[-118.39245,33.81192],[-118.39252,33.81168],[-118.39256,33.81149],[-118.39261,33.81127],[-118.3927,33.81085],[-118.39273,33.81061],[-118.39275,33.81055],[-118.39279,33.81033],[-118.3929,33.81],[-118.39295,33.8098],[-118.39303,33.8094],[-118.39309,33.80918],[-118.39317,33.80876],[-118.39322,33.80859],[-118.39326,33.8084],[-118.39329,33.80819],[-118.39333,33.808],[-118.39346,33.80762],[-118.39356,33.80723],[-118.39361,33.80701],[-118.39366,33.80666],[-118.39374,33.8063],[-118.39381,33.80613],[-118.39393,33.80574],[-118.39413,33.80526],[-118.39427,33.80491],[-118.39445,33.80454],[-118.39447,33.80448],[-118.39452,33.80436],[-118.39456,33.80426],[-118.39396,33.80426],[-118.39363,33.80426],[-118.39327,33.80426],[-118.39286,33.80426],[-118.3923,33.80426],[-118.39195,33.80425],[-118.3919,33.80425],[-118.39177,33.80425],[-118.3916,33.80425],[-118.39125,33.80425],[-118.39103,33.80425],[-118.39093,33.80425],[-118.39084,33.80425],[-118.39075,33.80425],[-118.39055,33.80425],[-118.39042,33.80425],[-118.39037,33.80425],[-118.39031,33.80425],[-118.39028,33.80425],[-118.39011,33.80425],[-118.39006,33.80425],[-118.38993,33.80425],[-118.3899,33.80425],[-118.38939,33.80425],[-118.38915,33.80425],[-118.38894,33.80425],[-118.38892,33.80425],[-118.38882,33.80425],[-118.38875,33.80425],[-118.38874,33.80425],[-118.38853,33.80425],[-118.38832,33.80425],[-118.38812,33.80425],[-118.38792,33.80424],[-118.38772,33.80424],[-118.38753,33.80424],[-118.38733,33.80424],[-118.38714,33.80424],[-118.38694,33.80424],[-118.38675,33.80424],[-118.38656,33.80424],[-118.38636,33.80424],[-118.38616,33.80424],[-118.38596,33.80424],[-118.38591,33.80424],[-118.38576,33.80424],[-118.38556,33.80424],[-118.38547,33.80424],[-118.38541,33.80424],[-118.38536,33.80424],[-118.38517,33.80424],[-118.38497,33.80424],[-118.38482,33.80424],[-118.38477,33.80424],[-118.38457,33.80424],[-118.38437,33.80424],[-118.38418,33.80423],[-118.38399,33.80423],[-118.38396,33.80423],[-118.3838,33.80423],[-118.38361,33.80423],[-118.38342,33.80423],[-118.38323,33.80423],[-118.38317,33.80423],[-118.38316,33.80423],[-118.38315,33.80423],[-118.38304,33.80423],[-118.38285,33.80423],[-118.38265,33.80423],[-118.38245,33.80423],[-118.38225,33.80423],[-118.38209,33.80423],[-118.38193,33.80423],[-118.38176,33.80423],[-118.3816,33.80423],[-118.38143,33.80423],[-118.38127,33.80423],[-118.3811,33.80423],[-118.38094,33.80423],[-118.38077,33.80423],[-118.38061,33.80423],[-118.38044,33.80423],[-118.38028,33.80423],[-118.38011,33.80423],[-118.37995,33.80423],[-118.37993,33.80423],[-118.37979,33.80423],[-118.37962,33.80423],[-118.37946,33.80423],[-118.37929,33.80423],[-118.37913,33.80423],[-118.37896,33.80422],[-118.3788,33.80422],[-118.37863,33.80422],[-118.37847,33.80422],[-118.37818,33.80422],[-118.37787,33.80422],[-118.37768,33.80422],[-118.37751,33.80422],[-118.37734,33.80422],[-118.37716,33.80422],[-118.37699,33.80422],[-118.37682,33.80422],[-118.37665,33.80422],[-118.37648,33.80422],[-118.37631,33.80422],[-118.37614,33.80422],[-118.37603,33.80422],[-118.37597,33.80422],[-118.37579,33.80422],[-118.37562,33.80422],[-118.37545,33.80421],[-118.37528,33.80421],[-118.37511,33.80421],[-118.37494,33.80421],[-118.37474,33.80421],[-118.37444,33.80422],[-118.37441,33.80421],[-118.37435,33.80421],[-118.37428,33.80421],[-118.37413,33.80421],[-118.37392,33.80421],[-118.37372,33.80421],[-118.37352,33.80421],[-118.37332,33.80421],[-118.37312,33.80421],[-118.37292,33.80421],[-118.37271,33.80421],[-118.37251,33.80421],[-118.3723,33.80421],[-118.3721,33.80421],[-118.3719,33.80421],[-118.37169,33.8042],[-118.37148,33.8042],[-118.37127,33.8042],[-118.37106,33.8042],[-118.37085,33.8042],[-118.37064,33.8042],[-118.37043,33.8042],[-118.37022,33.8042],[-118.37001,33.8042],[-118.36981,33.8042],[-118.36961,33.8042],[-118.36936,33.8042],[-118.36926,33.8042],[-118.36924,33.8042],[-118.3691,33.8042],[-118.36881,33.8042],[-118.36779,33.80419],[-118.36712,33.80419],[-118.36703,33.80419],[-118.36677,33.80419],[-118.36662,33.80419],[-118.36654,33.80419],[-118.36652,33.80419],[-118.36643,33.80419],[-118.36635,33.80419],[-118.3662,33.80419],[-118.36616,33.80419],[-118.36609,33.80419],[-118.36604,33.80419],[-118.36579,33.80419],[-118.36577,33.80419],[-118.36554,33.80419],[-118.36532,33.80419],[-118.3653,33.80419],[-118.36514,33.80419],[-118.36505,33.80419],[-118.36402,33.80418],[-118.36378,33.80418],[-118.36356,33.80418],[-118.36336,33.80418],[-118.36316,33.80418],[-118.36296,33.80418],[-118.36276,33.80418],[-118.3626,33.80418],[-118.36211,33.80418],[-118.36171,33.80418],[-118.36109,33.80365],[-118.36099,33.80356],[-118.36094,33.80352],[-118.36087,33.80347],[-118.36033,33.80301],[-118.36004,33.80277],[-118.35989,33.80264],[-118.35975,33.80252],[-118.35961,33.8024],[-118.35946,33.80228],[-118.35932,33.80216],[-118.35917,33.80204],[-118.35903,33.80192],[-118.35889,33.8018],[-118.35874,33.80168],[-118.3586,33.80156],[-118.35846,33.80144],[-118.35832,33.80132],[-118.35821,33.80123],[-118.35818,33.8012],[-118.35809,33.80113],[-118.35804,33.80108],[-118.358,33.80105],[-118.35791,33.80097],[-118.35778,33.80087],[-118.35765,33.80076],[-118.35761,33.80072],[-118.35753,33.80065],[-118.35751,33.80064],[-118.35748,33.80061],[-118.3574,33.80054],[-118.35739,33.80053],[-118.35727,33.80044],[-118.35719,33.80036],[-118.35714,33.80033],[-118.35702,33.80022],[-118.35689,33.80011],[-118.35676,33.80001],[-118.35661,33.79988],[-118.35637,33.79968],[-118.35628,33.7996],[-118.35614,33.79948],[-118.35543,33.79888],[-118.3553,33.79876],[-118.3551,33.7986],[-118.35476,33.79831],[-118.35464,33.79821],[-118.35463,33.79821],[-118.35445,33.79805],[-118.35443,33.79803],[-118.35429,33.79792],[-118.35428,33.79791],[-118.35299,33.79683],[-118.3529,33.79676],[-118.35284,33.79671],[-118.35278,33.79666],[-118.35107,33.79521],[-118.3502,33.79448],[-118.3498,33.79414],[-118.34952,33.79391],[-118.3494,33.79381],[-118.34936,33.79388],[-118.34924,33.79409],[-118.34919,33.7942],[-118.34916,33.79429],[-118.34909,33.79446],[-118.34907,33.79455],[-118.34906,33.79466],[-118.34905,33.7947],[-118.34904,33.79485],[-118.34904,33.79498],[-118.34905,33.79516],[-118.34906,33.79529],[-118.34907,33.79543],[-118.34908,33.79548],[-118.3491,33.79559],[-118.34911,33.79565],[-118.34913,33.7957],[-118.34916,33.79579],[-118.34921,33.7959],[-118.34929,33.79607],[-118.34937,33.79624],[-118.34941,33.79632],[-118.34944,33.79638],[-118.34953,33.7965],[-118.34966,33.79667],[-118.34984,33.79688],[-118.35005,33.79712],[-118.35013,33.79721],[-118.35039,33.79752],[-118.35056,33.79773],[-118.35067,33.79788],[-118.35072,33.79795],[-118.35078,33.79803],[-118.35088,33.79821],[-118.35094,33.79834],[-118.35097,33.7984],[-118.35099,33.79845],[-118.35099,33.79847],[-118.35101,33.79855],[-118.35102,33.7986],[-118.35106,33.79881],[-118.3511,33.79901],[-118.35112,33.79919],[-118.35113,33.79938],[-118.35113,33.7994],[-118.35157,33.79941],[-118.35178,33.79943],[-118.3519,33.79944],[-118.35194,33.79945],[-118.35199,33.79947],[-118.35204,33.79949],[-118.35206,33.7995],[-118.35211,33.79953],[-118.35221,33.79961],[-118.35231,33.7997],[-118.35237,33.79975],[-118.35245,33.79983],[-118.35264,33.80003],[-118.35334,33.8008],[-118.3534,33.80086],[-118.35418,33.8017],[-118.3543,33.80184],[-118.35433,33.80187],[-118.35437,33.80189],[-118.35443,33.80192],[-118.35446,33.80194],[-118.35446,33.80199],[-118.35446,33.80206],[-118.35446,33.80208],[-118.35445,33.80409],[-118.35445,33.80441],[-118.35445,33.80447],[-118.35445,33.80448],[-118.35445,33.8054],[-118.35444,33.80636],[-118.35444,33.80683],[-118.35444,33.8073],[-118.35443,33.8079],[-118.35443,33.80869],[-118.35445,33.8091],[-118.35445,33.80915],[-118.35443,33.81078],[-118.35443,33.81105],[-118.35442,33.81105],[-118.35442,33.81164],[-118.35442,33.8128],[-118.35441,33.81353],[-118.35441,33.81435],[-118.35446,33.81441],[-118.35442,33.8144],[-118.35441,33.81601],[-118.35441,33.8163],[-118.35441,33.81675],[-118.3544,33.81761],[-118.3544,33.81765],[-118.3544,33.81775],[-118.35441,33.81861],[-118.35441,33.81868],[-118.3544,33.81869],[-118.35441,33.81869],[-118.35441,33.81986],[-118.35441,33.82021],[-118.35441,33.82065],[-118.35441,33.82071],[-118.35441,33.82119],[-118.3544,33.82188],[-118.3544,33.82225],[-118.3544,33.82346],[-118.3544,33.82347],[-118.35436,33.82516],[-118.35437,33.82523],[-118.35437,33.8253],[-118.35437,33.82537],[-118.35436,33.82544],[-118.35435,33.82549],[-118.35428,33.82565],[-118.35421,33.82579]]]},"properties":{"DIV_CITY":5}},
{"type":"Feature","geometry":{"type":"Polygon","coordinates":[[[-118.3286,33.82947],[-118.32869,33.82947],[-118.32982,33.82946],[-118.33032,33.82945],[-118.33039,33.82945],[-118.33098,33.82945],[-118.33218,33.82944],[-118.33268,33.82944],[-118.33336,33.82943],[-118.33456,33.82942],[-118.3348,33.82942],[-118.33575,33.82942],[-118.33692,33.82941],[-118.3372,33.82941],[-118.33774,33.8294],[-118.33812,33.8294],[-118.33932,33.82939],[-118.33995,33.82938],[-118.33993,33.8272],[-118.33992,33.82645],[-118.33992,33.8261],[-118.33992,33.82586],[-118.33991,33.82579],[-118.3399,33.82562],[-118.3399,33.82554],[-118.33989,33.8255],[-118.33988,33.82545],[-118.33983,33.82517],[-118.33981,33.82504],[-118.33979,33.82482],[-118.33979,33.82479],[-118.33978,33.82461],[-118.33977,33.82449],[-118.33979,33.82434],[-118.3398,33.82427],[-118.33982,33.82418],[-118.34205,33.82463],[-118.34312,33.82484],[-118.34344,33.8249],[-118.34356,33.82492],[-118.34364,33.82492],[-118.3441,33.82496],[-118.34471,33.82502],[-118.34485,33.82503],[-118.34494,33.82504],[-118.34502,33.82504],[-118.34694,33.8252],[-118.3477,33.82526],[-118.34854,33.82533],[-118.34883,33.82535],[-118.34898,33.82536],[-118.35022,33.82547],[-118.35119,33.82555],[-118.35147,33.82557],[-118.35252,33.82566],[-118.35357,33.82574],[-118.35421,33.82579],[-118.35428,33.82565],[-118.35435,33.82549],[-118.35436,33.82544],[-118.35437,33.82537],[-118.35437,33.8253],[-118.35437,33.82523],[-118.35436,33.82516],[-118.3544,33.82347],[-118.3544,33.82346],[-118.3544,33.82225],[-118.3544,33.82188],[-118.35441,33.82119],[-118.35441,33.82071],[-118.35441,33.82065],[-118.35441,33.82021],[-118.35441,33.81986],[-118.35441,33.81869],[-118.3544,33.81869],[-118.35441,33.81868],[-118.35441,33.81861],[-118.3544,33.81775],[-118.3544,33.81765],[-118.3544,33.81761],[-118.35441,33.81675],[-118.35441,33.8163],[-118.35441,33.81601],[-118.35442,33.8144],[-118.35446,33.81441],[-118.35441,33.81435],[-118.35441,33.81353],[-118.35442,33.8128],[-118.35442,33.81164],[-118.35442,33.81105],[-118.35443,33.81105],[-118.35443,33.81078],[-118.35445,33.80915],[-118.35445,33.8091],[-118.35443,33.80869],[-118.35443,33.8079],[-118.35444,33.8073],[-118.35444,33.80683],[-118.35444,33.80636],[-118.35445,33.8054],[-118.35445,33.80448],[-118.35445,33.80447],[-118.35445,33.80441],[-118.35445,33.80409],[-118.35446,33.80208],[-118.35446,33.80206],[-118.35446,33.80199],[-118.35446,33.80194],[-118.35443,33.80192],[-118.35437,33.80189],[-118.35433,33.80187],[-118.3543,33.80184],[-118.35418,33.8017],[-118.3534,33.80086],[-118.35334,33.8008],[-118.35264,33.80003],[-118.35245,33.79983],[-118.35237,33.79975],[-118.35231,33.7997],[-118.35221,33.79961],[-118.35211,33.79953],[-118.35206,33.7995],[-118.35204,33.79949],[-118.35199,33.79947],[-118.35194,33.79945],[-118.3519,33.79944],[-118.35178,33.79943],[-118.35157,33.79941],[-118.35113,33.7994],[-118.35113,33.79938],[-118.35112,33.79919],[-118.3511,33.79901],[-118.35106,33.79881],[-118.35102,33.7986],[-118.35101,33.79855],[-118.35099,33.79847],[-118.35099,33.79845],[-118.35097,33.7984],[-118.35094,33.79834],[-118.35088,33.79821],[-118.35078,33.79803],[-118.35072,33.79795],[-118.35067,33.79788],[-118.35056,33.79773],[-118.35039,33.79752],[-118.35013,33.79721],[-118.35005,33.79712],[-118.34984,33.79688],[-118.34966,33.79667],[-118.34953,33.7965],[-118.34944,33.79638],[-118.34941,33.79632],[-118.34937,33.79624],[-118.34929,33.79607],[-118.34921,33.7959],[-118.34916,33.79579],[-118.34913,33.7957],[-118.34911,33.79565],[-118.3491,33.79559],[-118.34908,33.79548],[-118.34907,33.79543],[-118.34906,33.79529],[-118.34905,33.79516],[-118.34904,33.79498],[-118.34904,33.79485],[-118.34905,33.7947],[-118.34906,33.79466],[-118.34907,33.79455],[-118.34909,33.79446],[-118.34916,33.79429],[-118.34919,33.7942],[-118.34924,33.79409],[-118.34936,33.79388],[-118.3494,33.79381],[-118.34939,33.79379],[-118.34924,33.79367],[-118.34923,33.79366],[-118.34921,33.79364],[-118.34919,33.79363],[-118.34917,33.79361],[-118.34885,33.79334],[-118.34871,33.79323],[-118.34854,33.79308],[-118.34846,33.79302],[-118.34835,33.79292],[-118.34823,33.79282],[-118.34812,33.79272],[-118.348,33.79262],[-118.34789,33.79253],[-118.34777,33.79243],[-118.34765,33.79233],[-118.34754,33.79223],[-118.34742,33.79214],[-118.34731,33.79204],[-118.34719,33.79194],[-118.34707,33.79184],[-118.34696,33.79175],[-118.34684,33.79165],[-118.34673,33.79155],[-118.34661,33.79145],[-118.3465,33.79136],[-118.34638,33.79126],[-118.34626,33.79116],[-118.34615,33.79106],[-118.34603,33.79097],[-118.34581,33.79078],[-118.3456,33.7906],[-118.34557,33.79058],[-118.34553,33.79054],[-118.34542,33.79045],[-118.34518,33.79024],[-118.34496,33.79006],[-118.34492,33.79003],[-118.34456,33.78973],[-118.34429,33.78949],[-118.34416,33.78938],[-118.34404,33.78928],[-118.34392,33.78918],[-118.34367,33.78898],[-118.34366,33.78897],[-118.34363,33.78894],[-118.34361,33.78893],[-118.3436,33.78891],[-118.34357,33.78889],[-118.34341,33.78875],[-118.34321,33.78858],[-118.34296,33.78837],[-118.34276,33.78821],[-118.34268,33.78814],[-118.34242,33.78792],[-118.342,33.78757],[-118.34188,33.78746],[-118.34179,33.78739],[-118.34135,33.78702],[-118.3408,33.78655],[-118.3407,33.78647],[-118.34053,33.78632],[-118.3404,33.78622],[-118.34036,33.78619],[-118.33982,33.78573],[-118.33958,33.78552],[-118.33941,33.78538],[-118.33933,33.78531],[-118.33917,33.78518],[-118.33915,33.78516],[-118.33902,33.78505],[-118.33891,33.78496],[-118.3389,33.78495],[-118.33878,33.78485],[-118.33865,33.78474],[-118.33853,33.78464],[-118.33841,33.78454],[-118.33829,33.78443],[-118.33825,33.7844],[-118.33817,33.78434],[-118.33816,33.78433],[-118.33814,33.78431],[-118.33805,33.78423],[-118.33792,33.78413],[-118.3378,33.78402],[-118.33767,33.78392],[-118.33755,33.78381],[-118.33743,33.78371],[-118.33731,33.78361],[-118.33719,33.78351],[-118.33711,33.78344],[-118.33705,33.78339],[-118.33693,33.78329],[-118.33681,33.78319],[-118.33669,33.78309],[-118.33657,33.78299],[-118.3365,33.78293],[-118.33645,33.78289],[-118.33621,33.78268],[-118.33616,33.78264],[-118.33611,33.7826],[-118.33584,33.78237],[-118.33559,33.78216],[-118.33547,33.78206],[-118.33534,33.78195],[-118.33522,33.78185],[-118.33518,33.78181],[-118.33509,33.78174],[-118.33504,33.78169],[-118.33497,33.78164],[-118.33484,33.78153],[-118.33472,33.78142],[-118.3345,33.78124],[-118.33426,33.78103],[-118.33425,33.78102],[-118.33366,33.78052],[-118.33359,33.78046],[-118.33301,33.78046],[-118.33215,33.78045],[-118.33124,33.78045],[-118.32975,33.78045],[-118.32975,33.78154],[-118.32975,33.78181],[-118.32975,33.78192],[-118.32974,33.78254],[-118.32974,33.7843],[-118.32973,33.7852],[-118.32782,33.7852],[-118.32781,33.78587],[-118.32781,33.78615],[-118.32781,33.7862],[-118.32781,33.78622],[-118.3278,33.78726],[-118.32785,33.78726],[-118.32816,33.78726],[-118.3283,33.78726],[-118.32869,33.78726],[-118.32869,33.78748],[-118.32869,33.7875],[-118.32869,33.78758],[-118.32869,33.7877],[-118.32869,33.78772],[-118.32869,33.78775],[-118.32869,33.78792],[-118.32869,33.78814],[-118.32869,33.78815],[-118.32869,33.78826],[-118.32869,33.78838],[-118.32869,33.78858],[-118.32868,33.78864],[-118.32868,33.78869],[-118.32868,33.78891],[-118.32868,33.78902],[-118.32867,33.78902],[-118.32865,33.78902],[-118.32828,33.78901],[-118.32815,33.78902],[-118.3278,33.78901],[-118.32774,33.78901],[-118.32774,33.78884],[-118.32774,33.78853],[-118.32626,33.78852],[-118.32627,33.78881],[-118.32627,33.78956],[-118.32636,33.78956],[-118.32644,33.78956],[-118.32644,33.78967],[-118.32644,33.79026],[-118.32814,33.79027],[-118.32814,33.79044],[-118.32814,33.79061],[-118.32814,33.7908],[-118.32814,33.79093],[-118.32814,33.79106],[-118.32814,33.79132],[-118.32814,33.79172],[-118.32814,33.79238],[-118.32814,33.79246],[-118.32814,33.79284],[-118.32814,33.79317],[-118.32813,33.79383],[-118.32813,33.79392],[-118.32813,33.79398],[-118.32813,33.79417],[-118.32813,33.79441],[-118.32813,33.79463],[-118.32813,33.79505],[-118.32813,33.79529],[-118.32813,33.79608],[-118.32813,33.79674],[-118.32813,33.79682],[-118.32813,33.79688],[-118.32813,33.79753],[-118.32813,33.79756],[-118.32813,33.79762],[-118.32813,33.7977],[-118.32813,33.79795],[-118.32813,33.79819],[-118.32813,33.79831],[-118.32812,33.79871],[-118.32812,33.79913],[-118.32812,33.79924],[-118.32812,33.79927],[-118.32811,33.79969],[-118.32811,33.80028],[-118.32811,33.80044],[-118.32811,33.80058],[-118.32812,33.80087],[-118.32805,33.80087],[-118.32601,33.80086],[-118.32596,33.80086],[-118.32596,33.80333],[-118.32782,33.80334],[-118.32797,33.80334],[-118.32797,33.80351],[-118.32798,33.80379],[-118.32797,33.80419],[-118.32796,33.80591],[-118.32796,33.80596],[-118.32796,33.80626],[-118.32796,33.80694],[-118.32796,33.80705],[-118.32796,33.80751],[-118.32796,33.80771],[-118.32796,33.80818],[-118.32795,33.80832],[-118.32796,33.80846],[-118.32796,33.80865],[-118.32797,33.80877],[-118.328,33.80917],[-118.32801,33.80933],[-118.32803,33.80973],[-118.32804,33.80987],[-118.32806,33.81046],[-118.32807,33.81059],[-118.32808,33.8107],[-118.32809,33.81085],[-118.32809,33.81094],[-118.32809,33.81133],[-118.32809,33.81135],[-118.32809,33.8114],[-118.32809,33.81157],[-118.32808,33.81197],[-118.32807,33.8128],[-118.32807,33.81351],[-118.32807,33.81367],[-118.32807,33.81423],[-118.32807,33.81494],[-118.32807,33.81518],[-118.32808,33.81568],[-118.32806,33.81638],[-118.32806,33.81691],[-118.32806,33.81712],[-118.32806,33.81717],[-118.32806,33.81735],[-118.32806,33.81783],[-118.32806,33.81857],[-118.32806,33.8193],[-118.32805,33.81959],[-118.32805,33.81966],[-118.32805,33.81981],[-118.32808,33.82003],[-118.3281,33.82015],[-118.32811,33.8202],[-118.32813,33.82027],[-118.32813,33.82029],[-118.32819,33.82045],[-118.32827,33.82066],[-118.32828,33.82068],[-118.32834,33.82082],[-118.32837,33.82091],[-118.32839,33.82097],[-118.3284,33.82101],[-118.32843,33.82113],[-118.32846,33.8213],[-118.32848,33.82145],[-118.32849,33.82159],[-118.3285,33.82189],[-118.32851,33.8221],[-118.32852,33.82306],[-118.32853,33.82391],[-118.32854,33.82414],[-118.32855,33.82495],[-118.32856,33.8257],[-118.32858,33.82712],[-118.32858,33.82728],[-118.32858,33.82762],[-118.32859,33.82813],[-118.32859,33.82855],[-118.3286,33.82947]]]},"properties":{"DIV_CITY":6}}
]}